{"features":[{"geometry":{"coordinates":[[[[80.1708,21.8191],[80.17087,21.81912],[80.17105,21.8192],[80.17127,21.81941],[80.17127,21.81971],[80.17105,21.81986],[80.1708,21.81993],[80.17055,21.81987],[80.17037,21.81971],[80.17034,21.81941],[80.17055,21.81915],[80.1707,21.81912],[80.1708,21.8191]]],[[[80.17962,21.81998],[80.17987,21.8199],[80.18012,21.82],[80.18013,21.82001],[80.1802,21.82029],[80.18013,21.82042],[80.1799,21.82059],[80.17987,21.8206],[80.17962,21.82067],[80.17937,21.82072],[80.17914,21.82088],[80.17912,21.8209],[80.1789,21.82118],[80.17887,21.82121],[80.17871,21.82147],[80.17861,21.82162],[80.17854,21.82176],[80.17837,21.82206],[80.17836,21.82208],[80.17817,21.82235],[80.17811,21.82242],[80.17786,21.82258],[80.17771,21.82265],[80.17761,21.82268],[80.17735,21.82277],[80.1771,21.82288],[80.17698,21.82294],[80.17685,21.823],[80.1766,21.82315],[80.17648,21.82324],[80.17634,21.82333],[80.17609,21.82352],[80.17608,21.82353],[80.17584,21.82372],[80.17573,21.82382],[80.17559,21.82393],[80.17537,21.82412],[80.17534,21.82414],[80.17508,21.82429],[80.17483,21.82438],[80.17458,21.82438],[80.17433,21.8243],[80.1741,21.82412],[80.17408,21.82409],[80.17393,21.82382],[80.17387,21.82353],[80.17387,21.82324],[80.17393,21.82294],[80.174,21.82265],[80.17408,21.82242],[80.1741,21.82235],[80.17423,21.82206],[80.17433,21.82184],[80.17437,21.82176],[80.17457,21.82147],[80.17458,21.82146],[80.17483,21.82124],[80.17494,21.82118],[80.17508,21.82111],[80.17534,21.82103],[80.17559,21.82096],[80.17584,21.82089],[80.17585,21.82088],[80.17609,21.8208],[80.17634,21.82071],[80.1766,21.82061],[80.17665,21.82059],[80.17685,21.82047],[80.1771,21.82033],[80.1772,21.82029],[80.17735,21.82021],[80.17761,21.82015],[80.17786,21.82014],[80.17811,21.82017],[80.17836,21.82023],[80.17861,21.82028],[80.17871,21.82029],[80.17887,21.82034],[80.17912,21.8203],[80.17912,21.82029],[80.17937,21.82019],[80.17957,21.82],[80.17962,21.81998]]]],"type":"MultiPolygon"},"properties":{"fill":"#481b6d","fill-opacity":0.9,"stroke":"#481b6d","stroke-opacity":1,"stroke-width":1,"title":"46.00-46.50 "},"type":"Feature"},{"geometry":{"coordinates":[[[[80.18517,21.79879],[80.18542,21.79877],[80.18567,21.79877],[80.18592,21.7988],[80.18607,21.79882],[80.18618,21.79884],[80.18643,21.79892],[80.18668,21.79902],[80.18685,21.79912],[80.18693,21.79916],[80.18718,21.79933],[80.18728,21.79941],[80.18744,21.79955],[80.1876,21.79971],[80.18769,21.79981],[80.18785,21.8],[80.18794,21.80013],[80.18805,21.80029],[80.18819,21.80054],[80.18822,21.80059],[80.18834,21.80088],[80.18841,21.80118],[80.18841,21.80147],[80.18838,21.80176],[80.18834,21.80206],[80.18826,21.80235],[80.18819,21.8025],[80.18811,21.80265],[80.18794,21.80289],[80.18789,21.80294],[80.18769,21.80315],[80.18756,21.80324],[80.18744,21.80332],[80.18718,21.80348],[80.18714,21.80353],[80.18694,21.80382],[80.18712,21.80412],[80.18718,21.80414],[80.18744,21.80413],[80.1875,21.80412],[80.18769,21.80403],[80.18794,21.80399],[80.18819,21.80404],[80.18832,21.80412],[80.18845,21.80417],[80.1887,21.80434],[80.18878,21.80441],[80.18895,21.80455],[80.18911,21.80471],[80.1892,21.80479],[80.18941,21.805],[80.18945,21.80504],[80.18971,21.80529],[80.18971,21.80529],[80.18996,21.80553],[80.19002,21.80559],[80.19021,21.80578],[80.1903,21.80588],[80.19046,21.80615],[80.19048,21.80618],[80.19059,21.80647],[80.19064,21.80676],[80.19064,21.80706],[80.19058,21.80735],[80.19046,21.80758],[80.19042,21.80765],[80.19021,21.80784],[80.19009,21.80794],[80.18996,21.80803],[80.18971,21.80818],[80.1896,21.80824],[80.18945,21.80831],[80.1892,21.80844],[80.18905,21.80853],[80.18895,21.80859],[80.1887,21.80875],[80.18857,21.80882],[80.18845,21.80888],[80.18819,21.80898],[80.18794,21.80905],[80.18769,21.80908],[80.18744,21.80908],[80.18718,21.80905],[80.18693,21.80898],[80.18668,21.80885],[80.18663,21.80882],[80.18643,21.80866],[80.1863,21.80853],[80.18618,21.80833],[80.18613,21.80824],[80.18607,21.80794],[80.18607,21.80765],[80.18607,21.80735],[80.18603,21.80706],[80.18594,21.80676],[80.18592,21.80673],[80.18581,21.80647],[80.18569,21.80618],[80.18567,21.80609],[80.18562,21.80588],[80.1856,21.80559],[80.18563,21.80529],[80.18565,21.805],[80.18566,21.80471],[80.18563,21.80441],[80.18551,21.80412],[80.18542,21.80401],[80.18531,21.80382],[80.18517,21.80368],[80.18506,21.80353],[80.18492,21.80338],[80.1848,21.80324],[80.18466,21.80309],[80.18455,21.80294],[80.18441,21.80278],[80.18432,21.80265],[80.18416,21.80239],[80.18414,21.80235],[80.184,21.80206],[80.18391,21.80178],[80.1839,21.80176],[80.18383,21.80147],[80.18378,21.80118],[80.18375,21.80088],[80.18373,21.80059],[80.18373,21.80029],[80.18376,21.8],[80.18384,21.79971],[80.18391,21.79955],[80.18398,21.79941],[80.18416,21.7992],[80.18426,21.79912],[80.18441,21.79902],[80.18466,21.7989],[80.18492,21.79883],[80.18496,21.79882],[80.18517,21.79879]]],[[[80.17559,21.80076],[80.17584,21.80066],[80.17609,21.8006],[80.17634,21.80061],[80.1766,21.80063],[80.17685,21.80066],[80.1771,21.80082],[80.17715,21.80088],[80.17729,21.80118],[80.17734,21.80147],[80.17734,21.80176],[80.1773,21.80206],[80.17724,21.80235],[80.17715,21.80265],[80.1771,21.80277],[80.17703,21.80294],[80.17687,21.80324],[80.17685,21.80328],[80.17669,21.80353],[80.1766,21.80367],[80.17648,21.80382],[80.17634,21.80402],[80.17627,21.80412],[80.17609,21.80438],[80.17607,21.80441],[80.17586,21.80471],[80.17584,21.80473],[80.17563,21.805],[80.17559,21.80505],[80.17535,21.80529],[80.17534,21.80531],[80.17508,21.80552],[80.175,21.80559],[80.17483,21.80571],[80.17458,21.80587],[80.17456,21.80588],[80.17433,21.80601],[80.17408,21.80615],[80.17402,21.80618],[80.17382,21.80627],[80.17357,21.8064],[80.17344,21.80647],[80.17332,21.80653],[80.17307,21.80666],[80.17287,21.80676],[80.17282,21.80679],[80.17256,21.80693],[80.17233,21.80706],[80.17231,21.80707],[80.17206,21.80724],[80.17187,21.80735],[80.17181,21.80741],[80.17155,21.80759],[80.17146,21.80765],[80.1713,21.80778],[80.17105,21.80793],[80.17097,21.80794],[80.1708,21.80797],[80.17073,21.80794],[80.17055,21.8078],[80.17047,21.80765],[80.1704,21.80735],[80.17037,21.80706],[80.17036,21.80676],[80.17035,21.80647],[80.17036,21.80618],[80.1704,21.80588],[80.1705,21.80559],[80.17055,21.80552],[80.17067,21.80529],[80.1708,21.80512],[80.17088,21.805],[80.17105,21.8048],[80.17113,21.80471],[80.1713,21.80454],[80.17145,21.80441],[80.17155,21.80434],[80.17181,21.80419],[80.17201,21.80412],[80.17206,21.8041],[80.17231,21.80402],[80.17256,21.80385],[80.1726,21.80382],[80.17282,21.80355],[80.17283,21.80353],[80.17304,21.80324],[80.17307,21.8032],[80.17326,21.80294],[80.17332,21.80286],[80.17346,21.80265],[80.17357,21.8025],[80.17367,21.80235],[80.17382,21.80217],[80.1739,21.80206],[80.17408,21.80189],[80.17421,21.80176],[80.17433,21.80167],[80.17458,21.80148],[80.1746,21.80147],[80.17483,21.80129],[80.17498,21.80118],[80.17508,21.80109],[80.17534,21.80091],[80.17538,21.80088],[80.17559,21.80076]]],[[[80.17584,21.8167],[80.17609,21.81663],[80.17634,21.81658],[80.1766,21.81654],[80.17685,21.81653],[80.1771,21.81654],[80.17735,21.81658],[80.17761,21.81664],[80.17786,21.81673],[80.17796,21.81676],[80.17811,21.81683],[80.17836,21.81692],[80.17861,21.81702],[80.17872,21.81706],[80.17887,21.81712],[80.17912,21.81721],[80.17937,21.8173],[80.17951,21.81735],[80.17962,21.8174],[80.17987,21.81749],[80.18013,21.8176],[80.18024,21.81765],[80.18038,21.81771],[80.18063,21.81782],[80.18088,21.81793],[80.18092,21.81794],[80.18113,21.81801],[80.18139,21.81809],[80.18164,21.81815],[80.18189,21.81819],[80.18214,21.81822],[80.18239,21.81823],[80.18245,21.81824],[80.18265,21.81824],[80.1829,21.81825],[80.18315,21.81829],[80.1834,21.81834],[80.18366,21.81841],[80.18391,21.8185],[80.18396,21.81853],[80.18416,21.81865],[80.18438,21.81882],[80.18441,21.81887],[80.18458,21.81912],[80.18466,21.8194],[80.18467,21.81941],[80.18468,21.81971],[80.18466,21.81991],[80.18466,21.82],[80.18458,21.82029],[80.18446,21.82059],[80.18441,21.82067],[80.18429,21.82088],[80.18416,21.82103],[80.18405,21.82118],[80.18391,21.82131],[80.18374,21.82147],[80.18366,21.82153],[80.1834,21.82171],[80.18331,21.82176],[80.18315,21.82185],[80.1829,21.82197],[80.1827,21.82206],[80.18265,21.82208],[80.18239,21.82219],[80.18214,21.82231],[80.18204,21.82235],[80.18189,21.82242],[80.18164,21.82255],[80.18142,21.82265],[80.18139,21.82266],[80.18113,21.82277],[80.18088,21.82287],[80.18071,21.82294],[80.18063,21.82297],[80.18038,21.82308],[80.18013,21.82321],[80.18008,21.82324],[80.17987,21.82334],[80.17962,21.82348],[80.17953,21.82353],[80.17937,21.82361],[80.17912,21.82373],[80.17889,21.82382],[80.17887,21.82383],[80.17861,21.82391],[80.17836,21.82402],[80.17817,21.82412],[80.17811,21.82416],[80.17786,21.82434],[80.17776,21.82441],[80.17761,21.82454],[80.17739,21.82471],[80.17735,21.82474],[80.1771,21.82493],[80.17701,21.825],[80.17685,21.82512],[80.1766,21.82529],[80.1766,21.8253],[80.17634,21.82547],[80.17616,21.82559],[80.17609,21.82563],[80.17584,21.82578],[80.17563,21.82588],[80.17559,21.8259],[80.17534,21.82602],[80.17508,21.8261],[80.17483,21.82616],[80.17469,21.82618],[80.17458,21.82619],[80.17433,21.82619],[80.17424,21.82618],[80.17408,21.82615],[80.17382,21.82608],[80.17357,21.82595],[80.17348,21.82588],[80.17332,21.82575],[80.17318,21.82559],[80.17307,21.82544],[80.17298,21.82529],[80.17282,21.825],[80.17282,21.82499],[80.17268,21.82471],[80.17257,21.82441],[80.17256,21.82439],[80.17248,21.82412],[80.17241,21.82382],[80.17236,21.82353],[80.17231,21.82324],[80.17231,21.82323],[80.17226,21.82294],[80.1722,21.82265],[80.1721,21.82235],[80.17206,21.82227],[80.17194,21.82206],[80.17181,21.82188],[80.17171,21.82176],[80.17155,21.82163],[80.17135,21.82147],[80.1713,21.82144],[80.17105,21.8213],[80.1708,21.82118],[80.1708,21.82118],[80.17055,21.82106],[80.17029,21.82095],[80.17013,21.82088],[80.17004,21.82084],[80.16979,21.82071],[80.16956,21.82059],[80.16954,21.82057],[80.16929,21.82041],[80.16911,21.82029],[80.16903,21.82022],[80.16879,21.82],[80.16878,21.81999],[80.16856,21.81971],[80.16853,21.81964],[80.16841,21.81941],[80.16833,21.81912],[80.16832,21.81882],[80.16838,21.81853],[80.16853,21.81826],[80.16855,21.81824],[80.16878,21.81801],[80.16887,21.81794],[80.16903,21.81785],[80.16929,21.81774],[80.16954,21.81766],[80.16958,21.81765],[80.16979,21.8176],[80.17004,21.81757],[80.17029,21.81754],[80.17055,21.81752],[80.1708,21.81752],[80.17105,21.81752],[80.1713,21.81752],[80.17155,21.81754],[80.17181,21.81755],[80.17206,21.81755],[80.17231,21.81755],[80.17256,21.81755],[80.17282,21.81754],[80.17307,21.81751],[80.17332,21.81748],[80.17357,21.81744],[80.17382,21.81738],[80.17393,21.81735],[80.17408,21.81732],[80.17433,21.81725],[80.17458,21.81715],[80.17481,21.81706],[80.17483,21.81705],[80.17508,21.81695],[80.17534,21.81686],[80.17559,21.81677],[80.17561,21.81676],[80.17584,21.8167]],[[80.1707,21.81912],[80.17055,21.81915],[80.17034,21.81941],[80.17037,21.81971],[80.17055,21.81987],[80.1708,21.81993],[80.17105,21.81986],[80.17127,21.81971],[80.17127,21.81941],[80.17105,21.8192],[80.17087,21.81912],[80.1708,21.8191],[80.1707,21.81912]],[[80.17957,21.82],[80.17937,21.82019],[80.17912,21.82029],[80.17912,21.8203],[80.17887,21.82034],[80.17871,21.82029],[80.17861,21.82028],[80.17836,21.82023],[80.17811,21.82017],[80.17786,21.82014],[80.17761,21.82015],[80.17735,21.82021],[80.1772,21.82029],[80.1771,21.82033],[80.17685,21.82047],[80.17665,21.82059],[80.1766,21.82061],[80.17634,21.82071],[80.17609,21.8208],[80.17585,21.82088],[80.17584,21.82089],[80.17559,21.82096],[80.17534,21.82103],[80.17508,21.82111],[80.17494,21.82118],[80.17483,21.82124],[80.17458,21.82146],[80.17457,21.82147],[80.17437,21.82176],[80.17433,21.82184],[80.17423,21.82206],[80.1741,21.82235],[80.17408,21.82242],[80.174,21.82265],[80.17393,21.82294],[80.17387,21.82324],[80.17387,21.82353],[80.17393,21.82382],[80.17408,21.82409],[80.1741,21.82412],[80.17433,21.8243],[80.17458,21.82438],[80.17483,21.82438],[80.17508,21.82429],[80.17534,21.82414],[80.17537,21.82412],[80.17559,21.82393],[80.17573,21.82382],[80.17584,21.82372],[80.17608,21.82353],[80.17609,21.82352],[80.17634,21.82333],[80.17648,21.82324],[80.1766,21.82315],[80.17685,21.823],[80.17698,21.82294],[80.1771,21.82288],[80.17735,21.82277],[80.17761,21.82268],[80.17771,21.82265],[80.17786,21.82258],[80.17811,21.82242],[80.17817,21.82235],[80.17836,21.82208],[80.17837,21.82206],[80.17854,21.82176],[80.17861,21.82162],[80.17871,21.82147],[80.17887,21.82121],[80.1789,21.82118],[80.17912,21.8209],[80.17914,21.82088],[80.17937,21.82072],[80.17962,21.82067],[80.17987,21.8206],[80.1799,21.82059],[80.18013,21.82042],[80.1802,21.82029],[80.18013,21.82001],[80.18012,21.82],[80.17987,21.8199],[80.17962,21.81998],[80.17957,21.82]]]],"type":"MultiPolygon"},"properties":{"fill":"#3f4788","fill-opacity":0.9,"stroke":"#3f4788","stroke-opacity":1,"stroke-width":1,"title":"46.50-47.00 "},"type":"Feature"},{"geometry":{"coordinates":[[[[80.16525,21.795],[80.1655,21.795],[80.16576,21.795],[80.16601,21.795],[80.16626,21.795],[80.16651,21.795],[80.16676,21.795],[80.16702,21.795],[80.16727,21.795],[80.16752,21.795],[80.16777,21.795],[80.16803,21.795],[80.16828,21.795],[80.16853,21.795],[80.16878,21.795],[80.16903,21.795],[80.16929,21.795],[80.16954,21.795],[80.16979,21.795],[80.17004,21.795],[80.17029,21.795],[80.17055,21.795],[80.1708,21.795],[80.17105,21.795],[80.1713,21.795],[80.17155,21.795],[80.17181,21.795],[80.17206,21.795],[80.17231,21.795],[80.17256,21.795],[80.17282,21.795],[80.17307,21.795],[80.17332,21.795],[80.17357,21.795],[80.17382,21.795],[80.17408,21.795],[80.17433,21.795],[80.17458,21.795],[80.17483,21.795],[80.17508,21.795],[80.17534,21.795],[80.17559,21.795],[80.17584,21.795],[80.17609,21.795],[80.17634,21.795],[80.1766,21.795],[80.17685,21.795],[80.1771,21.795],[80.17735,21.795],[80.17761,21.795],[80.17786,21.795],[80.17811,21.795],[80.17836,21.795],[80.17861,21.795],[80.17887,21.795],[80.17912,21.795],[80.17937,21.795],[80.17962,21.795],[80.17987,21.795],[80.18013,21.795],[80.18038,21.795],[80.18063,21.795],[80.18088,21.795],[80.18113,21.795],[80.18139,21.795],[80.18164,21.795],[80.18189,21.795],[80.18214,21.795],[80.18239,21.795],[80.18265,21.795],[80.1829,21.795],[80.18315,21.795],[80.1834,21.795],[80.18366,21.795],[80.18391,21.795],[80.18416,21.795],[80.18441,21.795],[80.18466,21.795],[80.18492,21.795],[80.18517,21.795],[80.18542,21.795],[80.18567,21.795],[80.18592,21.795],[80.18618,21.795],[80.18643,21.795],[80.18668,21.795],[80.18693,21.795],[80.18718,21.795],[80.18744,21.795],[80.18769,21.795],[80.18794,21.795],[80.18819,21.795],[80.18845,21.795],[80.1887,21.795],[80.18895,21.795],[80.1892,21.795],[80.18945,21.795],[80.18971,21.795],[80.18996,21.795],[80.19021,21.795],[80.19046,21.795],[80.19071,21.795],[80.19097,21.795],[80.19122,21.795],[80.19147,21.795],[80.19172,21.795],[80.19197,21.795],[80.19223,21.795],[80.19248,21.795],[80.19273,21.795],[80.19298,21.795],[80.19324,21.795],[80.19349,21.795],[80.19374,21.795],[80.19399,21.795],[80.19424,21.795],[80.1945,21.795],[80.19475,21.795],[80.195,21.795],[80.195,21.79529],[80.195,21.79559],[80.195,21.79588],[80.195,21.79618],[80.195,21.79647],[80.195,21.79676],[80.195,21.79706],[80.195,21.79735],[80.195,21.79765],[80.195,21.79794],[80.195,21.79824],[80.195,21.79853],[80.195,21.79882],[80.195,21.79912],[80.195,21.79941],[80.195,21.79971],[80.195,21.8],[80.195,21.80029],[80.195,21.80059],[80.195,21.80088],[80.195,21.80118],[80.195,21.80147],[80.195,21.80176],[80.195,21.80206],[80.195,21.80235],[80.195,21.80265],[80.195,21.80294],[80.195,21.80324],[80.195,21.80353],[80.195,21.80382],[80.195,21.80412],[80.195,21.80441],[80.195,21.80471],[80.195,21.805],[80.195,21.80529],[80.195,21.80559],[80.195,21.80588],[80.195,21.80618],[80.195,21.80647],[80.195,21.80676],[80.195,21.80706],[80.195,21.80735],[80.195,21.80765],[80.195,21.80794],[80.195,21.80824],[80.195,21.80853],[80.195,21.80882],[80.195,21.80912],[80.195,21.80941],[80.195,21.80971],[80.195,21.81],[80.195,21.81029],[80.195,21.81059],[80.195,21.81088],[80.195,21.81118],[80.195,21.81147],[80.195,21.81176],[80.195,21.81206],[80.195,21.81235],[80.195,21.81265],[80.195,21.81294],[80.195,21.81324],[80.195,21.81353],[80.195,21.81382],[80.195,21.81412],[80.195,21.81441],[80.195,21.81471],[80.195,21.815],[80.195,21.81529],[80.195,21.81559],[80.195,21.81588],[80.195,21.81618],[80.195,21.81647],[80.195,21.81676],[80.195,21.81706],[80.195,21.81735],[80.195,21.81765],[80.195,21.81794],[80.195,21.81824],[80.195,21.81853],[80.195,21.81882],[80.195,21.81912],[80.195,21.81941],[80.195,21.81971],[80.195,21.82],[80.195,21.82029],[80.195,21.82059],[80.195,21.82088],[80.195,21.82118],[80.195,21.82147],[80.195,21.82176],[80.195,21.82206],[80.195,21.82235],[80.195,21.82265],[80.195,21.82294],[80.195,21.82324],[80.195,21.82353],[80.195,21.82382],[80.195,21.82412],[80.195,21.82441],[80.195,21.82471],[80.195,21.825],[80.195,21.82529],[80.195,21.82559],[80.195,21.82588],[80.195,21.82618],[80.195,21.82647],[80.195,21.82676],[80.195,21.82706],[80.195,21.82735],[80.195,21.82765],[80.195,21.82794],[80.195,21.82824],[80.195,21.82853],[80.195,21.82882],[80.195,21.82912],[80.195,21.82941],[80.195,21.82971],[80.195,21.83],[80.19475,21.83],[80.1945,21.83],[80.19424,21.83],[80.19399,21.83],[80.19374,21.83],[80.19349,21.83],[80.19324,21.83],[80.19298,21.83],[80.19273,21.83],[80.19248,21.83],[80.19223,21.83],[80.19197,21.83],[80.19172,21.83],[80.19147,21.83],[80.19122,21.83],[80.19097,21.83],[80.19071,21.83],[80.19046,21.83],[80.19021,21.83],[80.18996,21.83],[80.18971,21.83],[80.18945,21.83],[80.1892,21.83],[80.18895,21.83],[80.1887,21.83],[80.18845,21.83],[80.18819,21.83],[80.18794,21.83],[80.18769,21.83],[80.18744,21.83],[80.18718,21.83],[80.18693,21.83],[80.18668,21.83],[80.18643,21.83],[80.18618,21.83],[80.18592,21.83],[80.18567,21.83],[80.18542,21.83],[80.18517,21.83],[80.18492,21.83],[80.18466,21.83],[80.18441,21.83],[80.18416,21.83],[80.18391,21.83],[80.18366,21.83],[80.1834,21.83],[80.18315,21.83],[80.1829,21.83],[80.18265,21.83],[80.18239,21.83],[80.18214,21.83],[80.18189,21.83],[80.18164,21.83],[80.18139,21.83],[80.18113,21.83],[80.18088,21.83],[80.18063,21.83],[80.18038,21.83],[80.18013,21.83],[80.17987,21.83],[80.17962,21.83],[80.17937,21.83],[80.17912,21.83],[80.17887,21.83],[80.17861,21.83],[80.17836,21.83],[80.17811,21.83],[80.17786,21.83],[80.17761,21.83],[80.17735,21.83],[80.1771,21.83],[80.17685,21.83],[80.1766,21.83],[80.17634,21.83],[80.17609,21.83],[80.17584,21.83],[80.17559,21.83],[80.17534,21.83],[80.17508,21.83],[80.17483,21.83],[80.17458,21.83],[80.17433,21.83],[80.17408,21.83],[80.17382,21.83],[80.17357,21.83],[80.17332,21.83],[80.17307,21.83],[80.17282,21.83],[80.17256,21.83],[80.17231,21.83],[80.17206,21.83],[80.17181,21.83],[80.17155,21.83],[80.1713,21.83],[80.17105,21.83],[80.1708,21.83],[80.17055,21.83],[80.17029,21.83],[80.17004,21.83],[80.16979,21.83],[80.16954,21.83],[80.16929,21.83],[80.16903,21.83],[80.16878,21.83],[80.16853,21.83],[80.16828,21.83],[80.16803,21.83],[80.16777,21.83],[80.16752,21.83],[80.16727,21.83],[80.16702,21.83],[80.16676,21.83],[80.16651,21.83],[80.16626,21.83],[80.16601,21.83],[80.16576,21.83],[80.1655,21.83],[80.16525,21.83],[80.165,21.83],[80.165,21.82971],[80.165,21.82941],[80.165,21.82912],[80.165,21.82882],[80.165,21.82853],[80.165,21.82824],[80.165,21.82794],[80.165,21.82765],[80.165,21.82735],[80.165,21.82706],[80.165,21.82676],[80.165,21.82647],[80.165,21.82618],[80.165,21.82588],[80.165,21.82559],[80.165,21.82529],[80.165,21.825],[80.165,21.82471],[80.165,21.82441],[80.165,21.82412],[80.165,21.82382],[80.165,21.82353],[80.165,21.82324],[80.165,21.82294],[80.165,21.82265],[80.165,21.82235],[80.165,21.82206],[80.165,21.82176],[80.165,21.82147],[80.165,21.82118],[80.165,21.82088],[80.165,21.82059],[80.165,21.82029],[80.165,21.82],[80.165,21.81971],[80.165,21.81941],[80.165,21.81912],[80.165,21.81882],[80.165,21.81853],[80.165,21.81824],[80.165,21.81794],[80.165,21.81765],[80.165,21.81735],[80.165,21.81706],[80.165,21.81676],[80.165,21.81647],[80.165,21.81618],[80.165,21.81588],[80.165,21.81559],[80.165,21.81529],[80.165,21.815],[80.165,21.81471],[80.165,21.81441],[80.165,21.81412],[80.165,21.81382],[80.165,21.81353],[80.165,21.81324],[80.165,21.81294],[80.165,21.81265],[80.165,21.81235],[80.165,21.81206],[80.165,21.81176],[80.165,21.81147],[80.165,21.81118],[80.165,21.81088],[80.165,21.81059],[80.165,21.81029],[80.165,21.81],[80.165,21.80971],[80.165,21.80941],[80.165,21.80912],[80.165,21.80882],[80.165,21.80853],[80.165,21.80824],[80.165,21.80794],[80.165,21.80765],[80.165,21.80735],[80.165,21.80706],[80.165,21.80676],[80.165,21.80647],[80.165,21.80618],[80.165,21.80588],[80.165,21.80559],[80.165,21.80529],[80.165,21.805],[80.165,21.80471],[80.165,21.80441],[80.165,21.80412],[80.165,21.80382],[80.165,21.80353],[80.165,21.80324],[80.165,21.80294],[80.165,21.80265],[80.165,21.80235],[80.165,21.80206],[80.165,21.80176],[80.165,21.80147],[80.165,21.80118],[80.165,21.80088],[80.165,21.80059],[80.165,21.80029],[80.165,21.8],[80.165,21.79971],[80.165,21.79941],[80.165,21.79912],[80.165,21.79882],[80.165,21.79853],[80.165,21.79824],[80.165,21.79794],[80.165,21.79765],[80.165,21.79735],[80.165,21.79706],[80.165,21.79676],[80.165,21.79647],[80.165,21.79618],[80.165,21.79588],[80.165,21.79559],[80.165,21.79529],[80.165,21.795],[80.16525,21.795]],[[80.17364,21.79588],[80.17357,21.79589],[80.17332,21.79591],[80.17307,21.79595],[80.17282,21.796],[80.17256,21.79607],[80.17231,21.79615],[80.17223,21.79618],[80.17206,21.79623],[80.17181,21.79633],[80.17155,21.79645],[80.17152,21.79647],[80.1713,21.79658],[80.17105,21.79674],[80.17102,21.79676],[80.1708,21.79691],[80.17062,21.79706],[80.17055,21.79712],[80.17029,21.79735],[80.17029,21.79735],[80.17004,21.79761],[80.17001,21.79765],[80.16979,21.79793],[80.16978,21.79794],[80.16958,21.79824],[80.16954,21.79829],[80.16939,21.79853],[80.16929,21.7987],[80.16921,21.79882],[80.16905,21.79912],[80.16903,21.79914],[80.16889,21.79941],[80.16878,21.79964],[80.16875,21.79971],[80.16863,21.8],[80.16854,21.80029],[80.16853,21.80038],[80.16849,21.80059],[80.16847,21.80088],[80.1685,21.80118],[80.16853,21.80128],[80.16859,21.80147],[80.16877,21.80176],[80.16878,21.80178],[80.16903,21.80199],[80.16915,21.80206],[80.16929,21.80212],[80.16954,21.80221],[80.16979,21.80228],[80.17004,21.8023],[80.17029,21.8023],[80.17055,21.80226],[80.1708,21.80221],[80.17105,21.80214],[80.17128,21.80206],[80.1713,21.80205],[80.17155,21.80195],[80.17181,21.80184],[80.17198,21.80176],[80.17206,21.80173],[80.17231,21.80161],[80.17256,21.80151],[80.17265,21.80147],[80.17282,21.80141],[80.17307,21.80132],[80.17332,21.80124],[80.17354,21.80118],[80.17357,21.80117],[80.17382,21.80104],[80.17398,21.80088],[80.17408,21.80068],[80.17413,21.80059],[80.17424,21.80029],[80.17433,21.80006],[80.17435,21.8],[80.17446,21.79971],[80.17457,21.79941],[80.17458,21.79937],[80.17466,21.79912],[80.17473,21.79882],[80.1748,21.79853],[80.17483,21.79841],[80.17488,21.79824],[80.175,21.79794],[80.17508,21.79775],[80.17514,21.79765],[80.17529,21.79735],[80.17534,21.79725],[80.17544,21.79706],[80.17554,21.79676],[80.17552,21.79647],[80.17534,21.79622],[80.17529,21.79618],[80.17508,21.79607],[80.17483,21.79598],[80.17458,21.79592],[80.17434,21.79588],[80.17433,21.79588],[80.17408,21.79587],[80.17382,21.79587],[80.17364,21.79588]],[[80.18496,21.79882],[80.18492,21.79883],[80.18466,21.7989],[80.18441,21.79902],[80.18426,21.79912],[80.18416,21.7992],[80.18398,21.79941],[80.18391,21.79955],[80.18384,21.79971],[80.18376,21.8],[80.18373,21.80029],[80.18373,21.80059],[80.18375,21.80088],[80.18378,21.80118],[80.18383,21.80147],[80.1839,21.80176],[80.18391,21.80178],[80.184,21.80206],[80.18414,21.80235],[80.18416,21.80239],[80.18432,21.80265],[80.18441,21.80278],[80.18455,21.80294],[80.18466,21.80309],[80.1848,21.80324],[80.18492,21.80338],[80.18506,21.80353],[80.18517,21.80368],[80.18531,21.80382],[80.18542,21.80401],[80.18551,21.80412],[80.18563,21.80441],[80.18566,21.80471],[80.18565,21.805],[80.18563,21.80529],[80.1856,21.80559],[80.18562,21.80588],[80.18567,21.80609],[80.18569,21.80618],[80.18581,21.80647],[80.18592,21.80673],[80.18594,21.80676],[80.18603,21.80706],[80.18607,21.80735],[80.18607,21.80765],[80.18607,21.80794],[80.18613,21.80824],[80.18618,21.80833],[80.1863,21.80853],[80.18643,21.80866],[80.18663,21.80882],[80.18668,21.80885],[80.18693,21.80898],[80.18718,21.80905],[80.18744,21.80908],[80.18769,21.80908],[80.18794,21.80905],[80.18819,21.80898],[80.18845,21.80888],[80.18857,21.80882],[80.1887,21.80875],[80.18895,21.80859],[80.18905,21.80853],[80.1892,21.80844],[80.18945,21.80831],[80.1896,21.80824],[80.18971,21.80818],[80.18996,21.80803],[80.19009,21.80794],[80.19021,21.80784],[80.19042,21.80765],[80.19046,21.80758],[80.19058,21.80735],[80.19064,21.80706],[80.19064,21.80676],[80.19059,21.80647],[80.19048,21.80618],[80.19046,21.80615],[80.1903,21.80588],[80.19021,21.80578],[80.19002,21.80559],[80.18996,21.80553],[80.18971,21.80529],[80.18971,21.80529],[80.18945,21.80504],[80.18941,21.805],[80.1892,21.80479],[80.18911,21.80471],[80.18895,21.80455],[80.18878,21.80441],[80.1887,21.80434],[80.18845,21.80417],[80.18832,21.80412],[80.18819,21.80404],[80.18794,21.80399],[80.18769,21.80403],[80.1875,21.80412],[80.18744,21.80413],[80.18718,21.80414],[80.18712,21.80412],[80.18694,21.80382],[80.18714,21.80353],[80.18718,21.80348],[80.18744,21.80332],[80.18756,21.80324],[80.18769,21.80315],[80.18789,21.80294],[80.18794,21.80289],[80.18811,21.80265],[80.18819,21.8025],[80.18826,21.80235],[80.18834,21.80206],[80.18838,21.80176],[80.18841,21.80147],[80.18841,21.80118],[80.18834,21.80088],[80.18822,21.80059],[80.18819,21.80054],[80.18805,21.80029],[80.18794,21.80013],[80.18785,21.8],[80.18769,21.79981],[80.1876,21.79971],[80.18744,21.79955],[80.18728,21.79941],[80.18718,21.79933],[80.18693,21.79916],[80.18685,21.79912],[80.18668,21.79902],[80.18643,21.79892],[80.18618,21.79884],[80.18607,21.79882],[80.18592,21.7988],[80.18567,21.79877],[80.18542,21.79877],[80.18517,21.79879],[80.18496,21.79882]],[[80.18017,21.80029],[80.18013,21.80032],[80.17987,21.80048],[80.17973,21.80059],[80.17962,21.80067],[80.1794,21.80088],[80.17937,21.80092],[80.17917,21.80118],[80.17912,21.80125],[80.17899,21.80147],[80.17887,21.80172],[80.17885,21.80176],[80.17872,21.80206],[80.17861,21.80234],[80.17861,21.80235],[80.1785,21.80265],[80.17839,21.80294],[80.17836,21.80301],[80.17826,21.80324],[80.17811,21.80353],[80.17811,21.80354],[80.17795,21.80382],[80.17786,21.804],[80.1778,21.80412],[80.17768,21.80441],[80.17761,21.8046],[80.17756,21.80471],[80.17742,21.805],[80.17735,21.80512],[80.17724,21.80529],[80.1771,21.80547],[80.177,21.80559],[80.17685,21.80574],[80.17669,21.80588],[80.1766,21.80595],[80.17634,21.80614],[80.1763,21.80618],[80.17609,21.80631],[80.17584,21.80647],[80.17584,21.80647],[80.17559,21.80662],[80.17537,21.80676],[80.17534,21.80678],[80.17508,21.80693],[80.17488,21.80706],[80.17483,21.80709],[80.17458,21.80726],[80.17445,21.80735],[80.17433,21.80745],[80.17408,21.80764],[80.17406,21.80765],[80.17382,21.80785],[80.17372,21.80794],[80.17357,21.80809],[80.17343,21.80824],[80.17332,21.80836],[80.17317,21.80853],[80.17307,21.80865],[80.17293,21.80882],[80.17282,21.80896],[80.17268,21.80912],[80.17256,21.80924],[80.17241,21.80941],[80.17231,21.80951],[80.17211,21.80971],[80.17206,21.80976],[80.17181,21.80998],[80.17179,21.81],[80.17155,21.81019],[80.17141,21.81029],[80.1713,21.81037],[80.17105,21.81053],[80.17096,21.81059],[80.1708,21.81069],[80.17055,21.81083],[80.17045,21.81088],[80.17029,21.81097],[80.17004,21.81109],[80.16986,21.81118],[80.16979,21.81121],[80.16954,21.81134],[80.16929,21.81147],[80.16928,21.81147],[80.16903,21.81161],[80.16878,21.81175],[80.16876,21.81176],[80.16853,21.81191],[80.16829,21.81206],[80.16828,21.81207],[80.16803,21.81226],[80.16791,21.81235],[80.16777,21.81248],[80.1676,21.81265],[80.16752,21.81274],[80.16735,21.81294],[80.16727,21.81306],[80.16715,21.81324],[80.16702,21.81351],[80.16701,21.81353],[80.1669,21.81382],[80.16684,21.81412],[80.16681,21.81441],[80.16682,21.81471],[80.1669,21.815],[80.16702,21.81514],[80.16716,21.81529],[80.16727,21.81536],[80.16752,21.81549],[80.16775,21.81559],[80.16777,21.81559],[80.16803,21.81567],[80.16828,21.81575],[80.16853,21.81582],[80.16875,21.81588],[80.16878,21.81589],[80.16903,21.81595],[80.16929,21.81602],[80.16954,21.81609],[80.16979,21.81616],[80.16986,21.81618],[80.17004,21.81622],[80.17029,21.81628],[80.17055,21.81632],[80.1708,21.81635],[80.17105,21.81636],[80.1713,21.81638],[80.17155,21.81638],[80.17181,21.81639],[80.17206,21.81639],[80.17231,21.81638],[80.17256,21.81637],[80.17282,21.81636],[80.17307,21.81634],[80.17332,21.81632],[80.17357,21.81629],[80.17382,21.81625],[80.17408,21.8162],[80.17419,21.81618],[80.17433,21.81615],[80.17458,21.81609],[80.17483,21.81603],[80.17508,21.81596],[80.17534,21.81589],[80.17535,21.81588],[80.17559,21.8158],[80.17584,21.81571],[80.17609,21.81562],[80.17618,21.81559],[80.17634,21.81553],[80.1766,21.81544],[80.17685,21.81535],[80.17702,21.81529],[80.1771,21.81527],[80.17735,21.81523],[80.17761,21.81524],[80.17786,21.81526],[80.17811,21.81529],[80.17815,21.81529],[80.17836,21.81533],[80.17861,21.81538],[80.17887,21.81544],[80.17912,21.81551],[80.17936,21.81559],[80.17937,21.81559],[80.17962,21.81567],[80.17987,21.81575],[80.18013,21.81581],[80.18038,21.81586],[80.18051,21.81588],[80.18063,21.8159],[80.18088,21.81594],[80.18113,21.81597],[80.18139,21.81599],[80.18164,21.81602],[80.18189,21.81603],[80.18214,21.81603],[80.18239,21.81601],[80.18265,21.81596],[80.1829,21.8159],[80.18297,21.81588],[80.18315,21.81582],[80.1834,21.81572],[80.18366,21.81563],[80.18383,21.81559],[80.18391,21.81557],[80.18416,21.81553],[80.18441,21.81552],[80.18466,21.81554],[80.18485,21.81559],[80.18492,21.81561],[80.18517,21.81572],[80.18542,21.81588],[80.18543,21.81588],[80.18567,21.81608],[80.18577,21.81618],[80.18592,21.81632],[80.18605,21.81647],[80.18618,21.81655],[80.18643,21.81665],[80.18662,21.81676],[80.18668,21.8168],[80.18693,21.81701],[80.18699,21.81706],[80.18718,21.81726],[80.18729,21.81735],[80.18744,21.8175],[80.18761,21.81765],[80.18769,21.81772],[80.18794,21.8179],[80.18802,21.81794],[80.18819,21.81804],[80.18845,21.81815],[80.1887,21.81823],[80.18873,21.81824],[80.18895,21.81829],[80.1892,21.81834],[80.18945,21.81838],[80.18971,21.81839],[80.18996,21.8184],[80.19021,21.81839],[80.19046,21.81837],[80.19071,21.81833],[80.19097,21.81828],[80.19113,21.81824],[80.19122,21.81821],[80.19147,21.81813],[80.19172,21.81802],[80.19186,21.81794],[80.19197,21.81788],[80.19223,21.81772],[80.19233,21.81765],[80.19248,21.81754],[80.19269,21.81735],[80.19273,21.81732],[80.19298,21.81706],[80.19299,21.81706],[80.19324,21.81677],[80.19324,21.81676],[80.19346,21.81647],[80.19349,21.81643],[80.19365,21.81618],[80.19374,21.81602],[80.19381,21.81588],[80.19395,21.81559],[80.19399,21.81548],[80.19407,21.81529],[80.19416,21.815],[80.19424,21.81471],[80.19424,21.81467],[80.1943,21.81441],[80.19434,21.81412],[80.19436,21.81382],[80.19437,21.81353],[80.19436,21.81324],[80.19433,21.81294],[80.19428,21.81265],[80.19424,21.81247],[80.19422,21.81235],[80.19414,21.81206],[80.19404,21.81176],[80.19399,21.81165],[80.19393,21.81147],[80.1938,21.81118],[80.19374,21.81107],[80.19364,21.81088],[80.19349,21.81065],[80.19344,21.81059],[80.19324,21.81037],[80.19314,21.81029],[80.19298,21.81018],[80.19273,21.81005],[80.19261,21.81],[80.19248,21.80995],[80.19223,21.80988],[80.19197,21.80983],[80.19172,21.8098],[80.19147,21.8098],[80.19122,21.80981],[80.19097,21.80984],[80.19071,21.80987],[80.19046,21.8099],[80.19021,21.80993],[80.18996,21.80996],[80.18976,21.81],[80.18971,21.81001],[80.18945,21.81007],[80.1892,21.81013],[80.18895,21.81021],[80.1887,21.81029],[80.1887,21.8103],[80.18845,21.81038],[80.18819,21.81045],[80.18794,21.81053],[80.18774,21.81059],[80.18769,21.8106],[80.18744,21.81067],[80.18718,21.81073],[80.18693,21.81078],[80.18668,21.81081],[80.18643,21.81081],[80.18618,21.81077],[80.18592,21.81068],[80.18578,21.81059],[80.18567,21.81052],[80.18542,21.81033],[80.18539,21.81029],[80.18517,21.81008],[80.1851,21.81],[80.18492,21.8098],[80.18484,21.80971],[80.18466,21.80948],[80.1846,21.80941],[80.18441,21.80925],[80.18423,21.80912],[80.18416,21.80907],[80.18391,21.80892],[80.18374,21.80882],[80.18366,21.80877],[80.1834,21.80861],[80.18329,21.80853],[80.18315,21.80842],[80.18295,21.80824],[80.1829,21.80818],[80.1827,21.80794],[80.18265,21.80785],[80.18252,21.80765],[80.18241,21.80735],[80.18239,21.80723],[80.18236,21.80706],[80.18238,21.80676],[80.18239,21.80671],[80.18247,21.80647],[80.18263,21.80618],[80.18265,21.80615],[80.18283,21.80588],[80.1829,21.80579],[80.18302,21.80559],[80.18315,21.80533],[80.18317,21.80529],[80.18327,21.805],[80.18334,21.80471],[80.18337,21.80441],[80.18336,21.80412],[80.18331,21.80382],[80.18323,21.80353],[80.18315,21.80327],[80.18314,21.80324],[80.18304,21.80294],[80.18294,21.80265],[80.1829,21.80254],[80.18283,21.80235],[80.18272,21.80206],[80.18265,21.80184],[80.18262,21.80176],[80.1825,21.80147],[80.18239,21.80129],[80.1823,21.80118],[80.18214,21.80097],[80.18206,21.80088],[80.18189,21.80066],[80.18181,21.80059],[80.18164,21.8004],[80.18149,21.80029],[80.18139,21.80021],[80.18113,21.80009],[80.18088,21.80004],[80.18063,21.80006],[80.18038,21.80015],[80.18017,21.80029]],[[80.17538,21.80088],[80.17534,21.80091],[80.17508,21.80109],[80.17498,21.80118],[80.17483,21.80129],[80.1746,21.80147],[80.17458,21.80148],[80.17433,21.80167],[80.17421,21.80176],[80.17408,21.80189],[80.1739,21.80206],[80.17382,21.80217],[80.17367,21.80235],[80.17357,21.8025],[80.17346,21.80265],[80.17332,21.80286],[80.17326,21.80294],[80.17307,21.8032],[80.17304,21.80324],[80.17283,21.80353],[80.17282,21.80355],[80.1726,21.80382],[80.17256,21.80385],[80.17231,21.80402],[80.17206,21.8041],[80.17201,21.80412],[80.17181,21.80419],[80.17155,21.80434],[80.17145,21.80441],[80.1713,21.80454],[80.17113,21.80471],[80.17105,21.8048],[80.17088,21.805],[80.1708,21.80512],[80.17067,21.80529],[80.17055,21.80552],[80.1705,21.80559],[80.1704,21.80588],[80.17036,21.80618],[80.17035,21.80647],[80.17036,21.80676],[80.17037,21.80706],[80.1704,21.80735],[80.17047,21.80765],[80.17055,21.8078],[80.17073,21.80794],[80.1708,21.80797],[80.17097,21.80794],[80.17105,21.80793],[80.1713,21.80778],[80.17146,21.80765],[80.17155,21.80759],[80.17181,21.80741],[80.17187,21.80735],[80.17206,21.80724],[80.17231,21.80707],[80.17233,21.80706],[80.17256,21.80693],[80.17282,21.80679],[80.17287,21.80676],[80.17307,21.80666],[80.17332,21.80653],[80.17344,21.80647],[80.17357,21.8064],[80.17382,21.80627],[80.17402,21.80618],[80.17408,21.80615],[80.17433,21.80601],[80.17456,21.80588],[80.17458,21.80587],[80.17483,21.80571],[80.175,21.80559],[80.17508,21.80552],[80.17534,21.80531],[80.17535,21.80529],[80.17559,21.80505],[80.17563,21.805],[80.17584,21.80473],[80.17586,21.80471],[80.17607,21.80441],[80.17609,21.80438],[80.17627,21.80412],[80.17634,21.80402],[80.17648,21.80382],[80.1766,21.80367],[80.17669,21.80353],[80.17685,21.80328],[80.17687,21.80324],[80.17703,21.80294],[80.1771,21.80277],[80.17715,21.80265],[80.17724,21.80235],[80.1773,21.80206],[80.17734,21.80176],[80.17734,21.80147],[80.17729,21.80118],[80.17715,21.80088],[80.1771,21.80082],[80.17685,21.80066],[80.1766,21.80063],[80.17634,21.80061],[80.17609,21.8006],[80.17584,21.80066],[80.17559,21.80076],[80.17538,21.80088]],[[80.17561,21.81676],[80.17559,21.81677],[80.17534,21.81686],[80.17508,21.81695],[80.17483,21.81705],[80.17481,21.81706],[80.17458,21.81715],[80.17433,21.81725],[80.17408,21.81732],[80.17393,21.81735],[80.17382,21.81738],[80.17357,21.81744],[80.17332,21.81748],[80.17307,21.81751],[80.17282,21.81754],[80.17256,21.81755],[80.17231,21.81755],[80.17206,21.81755],[80.17181,21.81755],[80.17155,21.81754],[80.1713,21.81752],[80.17105,21.81752],[80.1708,21.81752],[80.17055,21.81752],[80.17029,21.81754],[80.17004,21.81757],[80.16979,21.8176],[80.16958,21.81765],[80.16954,21.81766],[80.16929,21.81774],[80.16903,21.81785],[80.16887,21.81794],[80.16878,21.81801],[80.16855,21.81824],[80.16853,21.81826],[80.16838,21.81853],[80.16832,21.81882],[80.16833,21.81912],[80.16841,21.81941],[80.16853,21.81964],[80.16856,21.81971],[80.16878,21.81999],[80.16879,21.82],[80.16903,21.82022],[80.16911,21.82029],[80.16929,21.82041],[80.16954,21.82057],[80.16956,21.82059],[80.16979,21.82071],[80.17004,21.82084],[80.17013,21.82088],[80.17029,21.82095],[80.17055,21.82106],[80.1708,21.82118],[80.1708,21.82118],[80.17105,21.8213],[80.1713,21.82144],[80.17135,21.82147],[80.17155,21.82163],[80.17171,21.82176],[80.17181,21.82188],[80.17194,21.82206],[80.17206,21.82227],[80.1721,21.82235],[80.1722,21.82265],[80.17226,21.82294],[80.17231,21.82323],[80.17231,21.82324],[80.17236,21.82353],[80.17241,21.82382],[80.17248,21.82412],[80.17256,21.82439],[80.17257,21.82441],[80.17268,21.82471],[80.17282,21.82499],[80.17282,21.825],[80.17298,21.82529],[80.17307,21.82544],[80.17318,21.82559],[80.17332,21.82575],[80.17348,21.82588],[80.17357,21.82595],[80.17382,21.82608],[80.17408,21.82615],[80.17424,21.82618],[80.17433,21.82619],[80.17458,21.82619],[80.17469,21.82618],[80.17483,21.82616],[80.17508,21.8261],[80.17534,21.82602],[80.17559,21.8259],[80.17563,21.82588],[80.17584,21.82578],[80.17609,21.82563],[80.17616,21.82559],[80.17634,21.82547],[80.1766,21.8253],[80.1766,21.82529],[80.17685,21.82512],[80.17701,21.825],[80.1771,21.82493],[80.17735,21.82474],[80.17739,21.82471],[80.17761,21.82454],[80.17776,21.82441],[80.17786,21.82434],[80.17811,21.82416],[80.17817,21.82412],[80.17836,21.82402],[80.17861,21.82391],[80.17887,21.82383],[80.17889,21.82382],[80.17912,21.82373],[80.17937,21.82361],[80.17953,21.82353],[80.17962,21.82348],[80.17987,21.82334],[80.18008,21.82324],[80.18013,21.82321],[80.18038,21.82308],[80.18063,21.82297],[80.18071,21.82294],[80.18088,21.82287],[80.18113,21.82277],[80.18139,21.82266],[80.18142,21.82265],[80.18164,21.82255],[80.18189,21.82242],[80.18204,21.82235],[80.18214,21.82231],[80.18239,21.82219],[80.18265,21.82208],[80.1827,21.82206],[80.1829,21.82197],[80.18315,21.82185],[80.18331,21.82176],[80.1834,21.82171],[80.18366,21.82153],[80.18374,21.82147],[80.18391,21.82131],[80.18405,21.82118],[80.18416,21.82103],[80.18429,21.82088],[80.18441,21.82067],[80.18446,21.82059],[80.18458,21.82029],[80.18466,21.82],[80.18466,21.81991],[80.18468,21.81971],[80.18467,21.81941],[80.18466,21.8194],[80.18458,21.81912],[80.18441,21.81887],[80.18438,21.81882],[80.18416,21.81865],[80.18396,21.81853],[80.18391,21.8185],[80.18366,21.81841],[80.1834,21.81834],[80.18315,21.81829],[80.1829,21.81825],[80.18265,21.81824],[80.18245,21.81824],[80.18239,21.81823],[80.18214,21.81822],[80.18189,21.81819],[80.18164,21.81815],[80.18139,21.81809],[80.18113,21.81801],[80.18092,21.81794],[80.18088,21.81793],[80.18063,21.81782],[80.18038,21.81771],[80.18024,21.81765],[80.18013,21.8176],[80.17987,21.81749],[80.17962,21.8174],[80.17951,21.81735],[80.17937,21.8173],[80.17912,21.81721],[80.17887,21.81712],[80.17872,21.81706],[80.17861,21.81702],[80.17836,21.81692],[80.17811,21.81683],[80.17796,21.81676],[80.17786,21.81673],[80.17761,21.81664],[80.17735,21.81658],[80.1771,21.81654],[80.17685,21.81653],[80.1766,21.81654],[80.17634,21.81658],[80.17609,21.81663],[80.17584,21.8167],[80.17561,21.81676]],[[80.1658,21.82176],[80.16576,21.82179],[80.1655,21.82203],[80.16548,21.82206],[80.16536,21.82235],[80.16532,21.82265],[80.16533,21.82294],[80.16536,21.82324],[80.16543,21.82353],[80.1655,21.82378],[80.16552,21.82382],[80.16562,21.82412],[80.16575,21.82441],[80.16576,21.82442],[80.16591,21.82471],[80.16601,21.82487],[80.1661,21.825],[80.16626,21.82522],[80.16632,21.82529],[80.16651,21.82551],[80.16659,21.82559],[80.16676,21.82576],[80.16691,21.82588],[80.16702,21.82597],[80.16727,21.82615],[80.16731,21.82618],[80.16752,21.82631],[80.16777,21.82644],[80.16785,21.82647],[80.16803,21.82655],[80.16828,21.82665],[80.16853,21.82672],[80.16872,21.82676],[80.16878,21.82678],[80.16903,21.82683],[80.16929,21.82684],[80.16954,21.82679],[80.16959,21.82676],[80.16979,21.82667],[80.17003,21.82647],[80.17004,21.82646],[80.17028,21.82618],[80.17029,21.82616],[80.17047,21.82588],[80.17055,21.82571],[80.17059,21.82559],[80.17067,21.82529],[80.17071,21.825],[80.17074,21.82471],[80.17075,21.82441],[80.17076,21.82412],[80.17078,21.82382],[80.17079,21.82353],[80.17079,21.82324],[80.17077,21.82294],[80.17071,21.82265],[80.1706,21.82235],[80.17055,21.82229],[80.17033,21.82206],[80.17029,21.82204],[80.17004,21.82193],[80.16979,21.82187],[80.16954,21.82182],[80.16929,21.82179],[80.16911,21.82176],[80.16903,21.82176],[80.16878,21.82174],[80.16853,21.82173],[80.16828,21.82172],[80.16803,21.82171],[80.16777,21.82169],[80.16752,21.82167],[80.16727,21.82165],[80.16702,21.82164],[80.16676,21.82162],[80.16651,21.82162],[80.16626,21.82164],[80.16601,21.82168],[80.1658,21.82176]],[[80.18395,21.82294],[80.18391,21.82296],[80.18366,21.82307],[80.1834,21.82319],[80.18332,21.82324],[80.18315,21.82333],[80.1829,21.82348],[80.18282,21.82353],[80.18265,21.82364],[80.18239,21.8238],[80.18236,21.82382],[80.18214,21.82398],[80.18193,21.82412],[80.18189,21.82415],[80.18164,21.82432],[80.18149,21.82441],[80.18139,21.82449],[80.18113,21.82464],[80.181,21.82471],[80.18088,21.82478],[80.18063,21.82491],[80.18047,21.825],[80.18038,21.82506],[80.18013,21.82522],[80.18001,21.82529],[80.17987,21.8254],[80.17965,21.82559],[80.17962,21.82562],[80.1794,21.82588],[80.17937,21.82592],[80.1792,21.82618],[80.17912,21.82633],[80.17902,21.82647],[80.17887,21.82667],[80.17876,21.82676],[80.17861,21.82691],[80.17845,21.82706],[80.17836,21.82716],[80.17816,21.82735],[80.17811,21.82742],[80.17791,21.82765],[80.17786,21.82775],[80.17774,21.82794],[80.17764,21.82824],[80.17771,21.82853],[80.17786,21.82862],[80.17811,21.82868],[80.17836,21.82866],[80.17861,21.82861],[80.17887,21.82854],[80.17888,21.82853],[80.17912,21.82844],[80.17937,21.82832],[80.17953,21.82824],[80.17962,21.82818],[80.17987,21.82809],[80.18013,21.82808],[80.18038,21.82811],[80.18063,21.82818],[80.1808,21.82824],[80.18088,21.82826],[80.18113,21.82835],[80.18139,21.82842],[80.18164,21.82848],[80.18188,21.82853],[80.18189,21.82853],[80.18214,21.8286],[80.18239,21.82866],[80.18265,21.82873],[80.1829,21.82881],[80.18296,21.82882],[80.18315,21.82888],[80.1834,21.82895],[80.18366,21.82899],[80.18391,21.82902],[80.18416,21.82904],[80.18441,21.82904],[80.18466,21.82903],[80.18492,21.829],[80.18517,21.82896],[80.18542,21.8289],[80.18567,21.82883],[80.18569,21.82882],[80.18592,21.82875],[80.18618,21.82864],[80.18639,21.82853],[80.18643,21.82851],[80.18668,21.82835],[80.18683,21.82824],[80.18693,21.82815],[80.18715,21.82794],[80.18718,21.8279],[80.1874,21.82765],[80.18744,21.82759],[80.18759,21.82735],[80.18769,21.82716],[80.18774,21.82706],[80.18785,21.82676],[80.18793,21.82647],[80.18794,21.82643],[80.18799,21.82618],[80.18802,21.82588],[80.18802,21.82559],[80.188,21.82529],[80.18796,21.825],[80.18794,21.82491],[80.18791,21.82471],[80.18784,21.82441],[80.18773,21.82412],[80.18769,21.82404],[80.18758,21.82382],[80.18744,21.82363],[80.18737,21.82353],[80.18718,21.82336],[80.18699,21.82324],[80.18693,21.8232],[80.18668,21.82309],[80.18643,21.823],[80.18622,21.82294],[80.18618,21.82293],[80.18592,21.82288],[80.18567,21.82282],[80.18542,21.82278],[80.18517,21.82276],[80.18492,21.82275],[80.18466,21.82277],[80.18441,21.82281],[80.18416,21.82287],[80.18395,21.82294]]]],"type":"MultiPolygon"},"properties":{"fill":"#2e6e8e","fill-opacity":0.9,"stroke":"#2e6e8e","stroke-opacity":1,"stroke-width":1,"title":"47.00-47.50 "},"type":"Feature"},{"geometry":{"coordinates":[[[[80.17382,21.79587],[80.17408,21.79587],[80.17433,21.79588],[80.17434,21.79588],[80.17458,21.79592],[80.17483,21.79598],[80.17508,21.79607],[80.17529,21.79618],[80.17534,21.79622],[80.17552,21.79647],[80.17554,21.79676],[80.17544,21.79706],[80.17534,21.79725],[80.17529,21.79735],[80.17514,21.79765],[80.17508,21.79775],[80.175,21.79794],[80.17488,21.79824],[80.17483,21.79841],[80.1748,21.79853],[80.17473,21.79882],[80.17466,21.79912],[80.17458,21.79937],[80.17457,21.79941],[80.17446,21.79971],[80.17435,21.8],[80.17433,21.80006],[80.17424,21.80029],[80.17413,21.80059],[80.17408,21.80068],[80.17398,21.80088],[80.17382,21.80104],[80.17357,21.80117],[80.17354,21.80118],[80.17332,21.80124],[80.17307,21.80132],[80.17282,21.80141],[80.17265,21.80147],[80.17256,21.80151],[80.17231,21.80161],[80.17206,21.80173],[80.17198,21.80176],[80.17181,21.80184],[80.17155,21.80195],[80.1713,21.80205],[80.17128,21.80206],[80.17105,21.80214],[80.1708,21.80221],[80.17055,21.80226],[80.17029,21.8023],[80.17004,21.8023],[80.16979,21.80228],[80.16954,21.80221],[80.16929,21.80212],[80.16915,21.80206],[80.16903,21.80199],[80.16878,21.80178],[80.16877,21.80176],[80.16859,21.80147],[80.16853,21.80128],[80.1685,21.80118],[80.16847,21.80088],[80.16849,21.80059],[80.16853,21.80038],[80.16854,21.80029],[80.16863,21.8],[80.16875,21.79971],[80.16878,21.79964],[80.16889,21.79941],[80.16903,21.79914],[80.16905,21.79912],[80.16921,21.79882],[80.16929,21.7987],[80.16939,21.79853],[80.16954,21.79829],[80.16958,21.79824],[80.16978,21.79794],[80.16979,21.79793],[80.17001,21.79765],[80.17004,21.79761],[80.17029,21.79735],[80.17029,21.79735],[80.17055,21.79712],[80.17062,21.79706],[80.1708,21.79691],[80.17102,21.79676],[80.17105,21.79674],[80.1713,21.79658],[80.17152,21.79647],[80.17155,21.79645],[80.17181,21.79633],[80.17206,21.79623],[80.17223,21.79618],[80.17231,21.79615],[80.17256,21.79607],[80.17282,21.796],[80.17307,21.79595],[80.17332,21.79591],[80.17357,21.79589],[80.17364,21.79588],[80.17382,21.79587]]],[[[80.18038,21.80015],[80.18063,21.80006],[80.18088,21.80004],[80.18113,21.80009],[80.18139,21.80021],[80.18149,21.80029],[80.18164,21.8004],[80.18181,21.80059],[80.18189,21.80066],[80.18206,21.80088],[80.18214,21.80097],[80.1823,21.80118],[80.18239,21.80129],[80.1825,21.80147],[80.18262,21.80176],[80.18265,21.80184],[80.18272,21.80206],[80.18283,21.80235],[80.1829,21.80254],[80.18294,21.80265],[80.18304,21.80294],[80.18314,21.80324],[80.18315,21.80327],[80.18323,21.80353],[80.18331,21.80382],[80.18336,21.80412],[80.18337,21.80441],[80.18334,21.80471],[80.18327,21.805],[80.18317,21.80529],[80.18315,21.80533],[80.18302,21.80559],[80.1829,21.80579],[80.18283,21.80588],[80.18265,21.80615],[80.18263,21.80618],[80.18247,21.80647],[80.18239,21.80671],[80.18238,21.80676],[80.18236,21.80706],[80.18239,21.80723],[80.18241,21.80735],[80.18252,21.80765],[80.18265,21.80785],[80.1827,21.80794],[80.1829,21.80818],[80.18295,21.80824],[80.18315,21.80842],[80.18329,21.80853],[80.1834,21.80861],[80.18366,21.80877],[80.18374,21.80882],[80.18391,21.80892],[80.18416,21.80907],[80.18423,21.80912],[80.18441,21.80925],[80.1846,21.80941],[80.18466,21.80948],[80.18484,21.80971],[80.18492,21.8098],[80.1851,21.81],[80.18517,21.81008],[80.18539,21.81029],[80.18542,21.81033],[80.18567,21.81052],[80.18578,21.81059],[80.18592,21.81068],[80.18618,21.81077],[80.18643,21.81081],[80.18668,21.81081],[80.18693,21.81078],[80.18718,21.81073],[80.18744,21.81067],[80.18769,21.8106],[80.18774,21.81059],[80.18794,21.81053],[80.18819,21.81045],[80.18845,21.81038],[80.1887,21.8103],[80.1887,21.81029],[80.18895,21.81021],[80.1892,21.81013],[80.18945,21.81007],[80.18971,21.81001],[80.18976,21.81],[80.18996,21.80996],[80.19021,21.80993],[80.19046,21.8099],[80.19071,21.80987],[80.19097,21.80984],[80.19122,21.80981],[80.19147,21.8098],[80.19172,21.8098],[80.19197,21.80983],[80.19223,21.80988],[80.19248,21.80995],[80.19261,21.81],[80.19273,21.81005],[80.19298,21.81018],[80.19314,21.81029],[80.19324,21.81037],[80.19344,21.81059],[80.19349,21.81065],[80.19364,21.81088],[80.19374,21.81107],[80.1938,21.81118],[80.19393,21.81147],[80.19399,21.81165],[80.19404,21.81176],[80.19414,21.81206],[80.19422,21.81235],[80.19424,21.81247],[80.19428,21.81265],[80.19433,21.81294],[80.19436,21.81324],[80.19437,21.81353],[80.19436,21.81382],[80.19434,21.81412],[80.1943,21.81441],[80.19424,21.81467],[80.19424,21.81471],[80.19416,21.815],[80.19407,21.81529],[80.19399,21.81548],[80.19395,21.81559],[80.19381,21.81588],[80.19374,21.81602],[80.19365,21.81618],[80.19349,21.81643],[80.19346,21.81647],[80.19324,21.81676],[80.19324,21.81677],[80.19299,21.81706],[80.19298,21.81706],[80.19273,21.81732],[80.19269,21.81735],[80.19248,21.81754],[80.19233,21.81765],[80.19223,21.81772],[80.19197,21.81788],[80.19186,21.81794],[80.19172,21.81802],[80.19147,21.81813],[80.19122,21.81821],[80.19113,21.81824],[80.19097,21.81828],[80.19071,21.81833],[80.19046,21.81837],[80.19021,21.81839],[80.18996,21.8184],[80.18971,21.81839],[80.18945,21.81838],[80.1892,21.81834],[80.18895,21.81829],[80.18873,21.81824],[80.1887,21.81823],[80.18845,21.81815],[80.18819,21.81804],[80.18802,21.81794],[80.18794,21.8179],[80.18769,21.81772],[80.18761,21.81765],[80.18744,21.8175],[80.18729,21.81735],[80.18718,21.81726],[80.18699,21.81706],[80.18693,21.81701],[80.18668,21.8168],[80.18662,21.81676],[80.18643,21.81665],[80.18618,21.81655],[80.18605,21.81647],[80.18592,21.81632],[80.18577,21.81618],[80.18567,21.81608],[80.18543,21.81588],[80.18542,21.81588],[80.18517,21.81572],[80.18492,21.81561],[80.18485,21.81559],[80.18466,21.81554],[80.18441,21.81552],[80.18416,21.81553],[80.18391,21.81557],[80.18383,21.81559],[80.18366,21.81563],[80.1834,21.81572],[80.18315,21.81582],[80.18297,21.81588],[80.1829,21.8159],[80.18265,21.81596],[80.18239,21.81601],[80.18214,21.81603],[80.18189,21.81603],[80.18164,21.81602],[80.18139,21.81599],[80.18113,21.81597],[80.18088,21.81594],[80.18063,21.8159],[80.18051,21.81588],[80.18038,21.81586],[80.18013,21.81581],[80.17987,21.81575],[80.17962,21.81567],[80.17937,21.81559],[80.17936,21.81559],[80.17912,21.81551],[80.17887,21.81544],[80.17861,21.81538],[80.17836,21.81533],[80.17815,21.81529],[80.17811,21.81529],[80.17786,21.81526],[80.17761,21.81524],[80.17735,21.81523],[80.1771,21.81527],[80.17702,21.81529],[80.17685,21.81535],[80.1766,21.81544],[80.17634,21.81553],[80.17618,21.81559],[80.17609,21.81562],[80.17584,21.81571],[80.17559,21.8158],[80.17535,21.81588],[80.17534,21.81589],[80.17508,21.81596],[80.17483,21.81603],[80.17458,21.81609],[80.17433,21.81615],[80.17419,21.81618],[80.17408,21.8162],[80.17382,21.81625],[80.17357,21.81629],[80.17332,21.81632],[80.17307,21.81634],[80.17282,21.81636],[80.17256,21.81637],[80.17231,21.81638],[80.17206,21.81639],[80.17181,21.81639],[80.17155,21.81638],[80.1713,21.81638],[80.17105,21.81636],[80.1708,21.81635],[80.17055,21.81632],[80.17029,21.81628],[80.17004,21.81622],[80.16986,21.81618],[80.16979,21.81616],[80.16954,21.81609],[80.16929,21.81602],[80.16903,21.81595],[80.16878,21.81589],[80.16875,21.81588],[80.16853,21.81582],[80.16828,21.81575],[80.16803,21.81567],[80.16777,21.81559],[80.16775,21.81559],[80.16752,21.81549],[80.16727,21.81536],[80.16716,21.81529],[80.16702,21.81514],[80.1669,21.815],[80.16682,21.81471],[80.16681,21.81441],[80.16684,21.81412],[80.1669,21.81382],[80.16701,21.81353],[80.16702,21.81351],[80.16715,21.81324],[80.16727,21.81306],[80.16735,21.81294],[80.16752,21.81274],[80.1676,21.81265],[80.16777,21.81248],[80.16791,21.81235],[80.16803,21.81226],[80.16828,21.81207],[80.16829,21.81206],[80.16853,21.81191],[80.16876,21.81176],[80.16878,21.81175],[80.16903,21.81161],[80.16928,21.81147],[80.16929,21.81147],[80.16954,21.81134],[80.16979,21.81121],[80.16986,21.81118],[80.17004,21.81109],[80.17029,21.81097],[80.17045,21.81088],[80.17055,21.81083],[80.1708,21.81069],[80.17096,21.81059],[80.17105,21.81053],[80.1713,21.81037],[80.17141,21.81029],[80.17155,21.81019],[80.17179,21.81],[80.17181,21.80998],[80.17206,21.80976],[80.17211,21.80971],[80.17231,21.80951],[80.17241,21.80941],[80.17256,21.80924],[80.17268,21.80912],[80.17282,21.80896],[80.17293,21.80882],[80.17307,21.80865],[80.17317,21.80853],[80.17332,21.80836],[80.17343,21.80824],[80.17357,21.80809],[80.17372,21.80794],[80.17382,21.80785],[80.17406,21.80765],[80.17408,21.80764],[80.17433,21.80745],[80.17445,21.80735],[80.17458,21.80726],[80.17483,21.80709],[80.17488,21.80706],[80.17508,21.80693],[80.17534,21.80678],[80.17537,21.80676],[80.17559,21.80662],[80.17584,21.80647],[80.17584,21.80647],[80.17609,21.80631],[80.1763,21.80618],[80.17634,21.80614],[80.1766,21.80595],[80.17669,21.80588],[80.17685,21.80574],[80.177,21.80559],[80.1771,21.80547],[80.17724,21.80529],[80.17735,21.80512],[80.17742,21.805],[80.17756,21.80471],[80.17761,21.8046],[80.17768,21.80441],[80.1778,21.80412],[80.17786,21.804],[80.17795,21.80382],[80.17811,21.80354],[80.17811,21.80353],[80.17826,21.80324],[80.17836,21.80301],[80.17839,21.80294],[80.1785,21.80265],[80.17861,21.80235],[80.17861,21.80234],[80.17872,21.80206],[80.17885,21.80176],[80.17887,21.80172],[80.17899,21.80147],[80.17912,21.80125],[80.17917,21.80118],[80.17937,21.80092],[80.1794,21.80088],[80.17962,21.80067],[80.17973,21.80059],[80.17987,21.80048],[80.18013,21.80032],[80.18017,21.80029],[80.18038,21.80015]],[[80.1801,21.80265],[80.17987,21.80288],[80.17983,21.80294],[80.1797,21.80324],[80.17962,21.80352],[80.17962,21.80353],[80.17961,21.80382],[80.17962,21.8039],[80.17968,21.80412],[80.17986,21.80441],[80.17987,21.80444],[80.18013,21.80463],[80.18038,21.80467],[80.18063,21.80465],[80.18088,21.80456],[80.18113,21.80442],[80.18114,21.80441],[80.18139,21.80418],[80.18144,21.80412],[80.18155,21.80382],[80.18156,21.80353],[80.18149,21.80324],[80.18139,21.80301],[80.18135,21.80294],[80.18113,21.8027],[80.18107,21.80265],[80.18088,21.80254],[80.18063,21.80248],[80.18038,21.8025],[80.18013,21.80263],[80.1801,21.80265]],[[80.17652,21.80735],[80.17634,21.80741],[80.17609,21.80752],[80.17585,21.80765],[80.17584,21.80765],[80.17559,21.8078],[80.17538,21.80794],[80.17534,21.80798],[80.17508,21.80819],[80.17503,21.80824],[80.17483,21.80843],[80.17474,21.80853],[80.17458,21.8087],[80.17446,21.80882],[80.17433,21.80895],[80.17416,21.80912],[80.17408,21.8092],[80.17387,21.80941],[80.17382,21.80946],[80.17358,21.80971],[80.17357,21.80972],[80.17332,21.80997],[80.17329,21.81],[80.17307,21.81023],[80.17301,21.81029],[80.17282,21.8105],[80.17273,21.81059],[80.17256,21.81077],[80.17245,21.81088],[80.17231,21.81102],[80.17215,21.81118],[80.17206,21.81128],[80.17189,21.81147],[80.17181,21.81159],[80.17166,21.81176],[80.17155,21.81188],[80.1714,21.81206],[80.1713,21.81217],[80.17114,21.81235],[80.17105,21.81246],[80.17089,21.81265],[80.1708,21.81277],[80.17066,21.81294],[80.17055,21.8131],[80.17044,21.81324],[80.17029,21.81349],[80.17027,21.81353],[80.17015,21.81382],[80.17011,21.81412],[80.17016,21.81441],[80.17029,21.81469],[80.1703,21.81471],[80.17054,21.815],[80.17055,21.815],[80.1708,21.8152],[80.17095,21.81529],[80.17105,21.81534],[80.1713,21.8154],[80.17155,21.81542],[80.17181,21.81541],[80.17206,21.8154],[80.17231,21.81538],[80.17256,21.81536],[80.17282,21.81534],[80.17307,21.81531],[80.17324,21.81529],[80.17332,21.81528],[80.17357,21.81525],[80.17382,21.81522],[80.17408,21.81518],[80.17433,21.81514],[80.17458,21.8151],[80.17483,21.81506],[80.17506,21.815],[80.17508,21.81499],[80.17534,21.81491],[80.17559,21.81483],[80.17584,21.81476],[80.17602,21.81471],[80.17609,21.81468],[80.17634,21.81461],[80.1766,21.81453],[80.17685,21.81446],[80.177,21.81441],[80.1771,21.81438],[80.17735,21.81432],[80.17761,21.81427],[80.17786,21.81423],[80.17811,21.81419],[80.17836,21.81416],[80.17861,21.81413],[80.17869,21.81412],[80.17887,21.8141],[80.17912,21.81407],[80.17937,21.81405],[80.17962,21.81403],[80.17987,21.81401],[80.18013,21.814],[80.18038,21.81397],[80.18063,21.81393],[80.18088,21.81388],[80.18113,21.81382],[80.18113,21.81382],[80.18139,21.81376],[80.18164,21.81369],[80.18189,21.81361],[80.18214,21.81354],[80.18217,21.81353],[80.18239,21.81345],[80.18265,21.81335],[80.18284,21.81324],[80.1829,21.8132],[80.18315,21.81298],[80.18319,21.81294],[80.1834,21.8127],[80.18345,21.81265],[80.18365,21.81235],[80.18366,21.81233],[80.18376,21.81206],[80.18381,21.81176],[80.18381,21.81147],[80.18377,21.81118],[80.18369,21.81088],[80.18366,21.81081],[80.18356,21.81059],[80.1834,21.81036],[80.18335,21.81029],[80.18315,21.8101],[80.18302,21.81],[80.1829,21.80992],[80.18265,21.80977],[80.18251,21.80971],[80.18239,21.80965],[80.18214,21.80955],[80.18189,21.80946],[80.18175,21.80941],[80.18164,21.80937],[80.18139,21.80927],[80.18113,21.80916],[80.18104,21.80912],[80.18088,21.80903],[80.18063,21.80887],[80.18057,21.80882],[80.18038,21.80866],[80.18022,21.80853],[80.18013,21.80844],[80.1799,21.80824],[80.17987,21.80821],[80.17962,21.80801],[80.17951,21.80794],[80.17937,21.80786],[80.17912,21.80774],[80.17887,21.80766],[80.17883,21.80765],[80.17861,21.80758],[80.17836,21.80745],[80.17819,21.80735],[80.17811,21.80728],[80.17786,21.80718],[80.17761,21.80715],[80.17735,21.80715],[80.1771,21.80719],[80.17685,21.80725],[80.1766,21.80732],[80.17652,21.80735]],[[80.1895,21.81147],[80.18945,21.81147],[80.1892,21.81151],[80.18895,21.81157],[80.1887,21.81166],[80.18845,21.81176],[80.18845,21.81177],[80.18819,21.81191],[80.18798,21.81206],[80.18794,21.81209],[80.18769,21.81234],[80.18768,21.81235],[80.18746,21.81265],[80.18744,21.8127],[80.18731,21.81294],[80.18721,21.81324],[80.18718,21.81337],[80.18715,21.81353],[80.18713,21.81382],[80.18717,21.81412],[80.18718,21.81416],[80.18725,21.81441],[80.18737,21.81471],[80.18744,21.81484],[80.18752,21.815],[80.18769,21.81524],[80.18773,21.81529],[80.18794,21.81551],[80.18803,21.81559],[80.18819,21.81571],[80.18845,21.81586],[80.18849,21.81588],[80.1887,21.81598],[80.18895,21.81606],[80.1892,21.81612],[80.18945,21.81614],[80.18971,21.81614],[80.18996,21.81611],[80.19021,21.81606],[80.19046,21.81597],[80.19065,21.81588],[80.19071,21.81585],[80.19097,21.8157],[80.1911,21.81559],[80.19122,21.81549],[80.19141,21.81529],[80.19147,21.81522],[80.19162,21.815],[80.19172,21.81482],[80.19178,21.81471],[80.19189,21.81441],[80.19196,21.81412],[80.19197,21.81404],[80.19201,21.81382],[80.19202,21.81353],[80.192,21.81324],[80.19197,21.81309],[80.19195,21.81294],[80.19187,21.81265],[80.19174,21.81235],[80.19172,21.81232],[80.19152,21.81206],[80.19147,21.81201],[80.19122,21.81181],[80.19115,21.81176],[80.19097,21.81167],[80.19071,21.81157],[80.19046,21.81151],[80.19021,21.81147],[80.19019,21.81147],[80.18996,21.81146],[80.18971,21.81146],[80.1895,21.81147]]],[[[80.16601,21.82168],[80.16626,21.82164],[80.16651,21.82162],[80.16676,21.82162],[80.16702,21.82164],[80.16727,21.82165],[80.16752,21.82167],[80.16777,21.82169],[80.16803,21.82171],[80.16828,21.82172],[80.16853,21.82173],[80.16878,21.82174],[80.16903,21.82176],[80.16911,21.82176],[80.16929,21.82179],[80.16954,21.82182],[80.16979,21.82187],[80.17004,21.82193],[80.17029,21.82204],[80.17033,21.82206],[80.17055,21.82229],[80.1706,21.82235],[80.17071,21.82265],[80.17077,21.82294],[80.17079,21.82324],[80.17079,21.82353],[80.17078,21.82382],[80.17076,21.82412],[80.17075,21.82441],[80.17074,21.82471],[80.17071,21.825],[80.17067,21.82529],[80.17059,21.82559],[80.17055,21.82571],[80.17047,21.82588],[80.17029,21.82616],[80.17028,21.82618],[80.17004,21.82646],[80.17003,21.82647],[80.16979,21.82667],[80.16959,21.82676],[80.16954,21.82679],[80.16929,21.82684],[80.16903,21.82683],[80.16878,21.82678],[80.16872,21.82676],[80.16853,21.82672],[80.16828,21.82665],[80.16803,21.82655],[80.16785,21.82647],[80.16777,21.82644],[80.16752,21.82631],[80.16731,21.82618],[80.16727,21.82615],[80.16702,21.82597],[80.16691,21.82588],[80.16676,21.82576],[80.16659,21.82559],[80.16651,21.82551],[80.16632,21.82529],[80.16626,21.82522],[80.1661,21.825],[80.16601,21.82487],[80.16591,21.82471],[80.16576,21.82442],[80.16575,21.82441],[80.16562,21.82412],[80.16552,21.82382],[80.1655,21.82378],[80.16543,21.82353],[80.16536,21.82324],[80.16533,21.82294],[80.16532,21.82265],[80.16536,21.82235],[80.16548,21.82206],[80.1655,21.82203],[80.16576,21.82179],[80.1658,21.82176],[80.16601,21.82168]]],[[[80.18416,21.82287],[80.18441,21.82281],[80.18466,21.82277],[80.18492,21.82275],[80.18517,21.82276],[80.18542,21.82278],[80.18567,21.82282],[80.18592,21.82288],[80.18618,21.82293],[80.18622,21.82294],[80.18643,21.823],[80.18668,21.82309],[80.18693,21.8232],[80.18699,21.82324],[80.18718,21.82336],[80.18737,21.82353],[80.18744,21.82363],[80.18758,21.82382],[80.18769,21.82404],[80.18773,21.82412],[80.18784,21.82441],[80.18791,21.82471],[80.18794,21.82491],[80.18796,21.825],[80.188,21.82529],[80.18802,21.82559],[80.18802,21.82588],[80.18799,21.82618],[80.18794,21.82643],[80.18793,21.82647],[80.18785,21.82676],[80.18774,21.82706],[80.18769,21.82716],[80.18759,21.82735],[80.18744,21.82759],[80.1874,21.82765],[80.18718,21.8279],[80.18715,21.82794],[80.18693,21.82815],[80.18683,21.82824],[80.18668,21.82835],[80.18643,21.82851],[80.18639,21.82853],[80.18618,21.82864],[80.18592,21.82875],[80.18569,21.82882],[80.18567,21.82883],[80.18542,21.8289],[80.18517,21.82896],[80.18492,21.829],[80.18466,21.82903],[80.18441,21.82904],[80.18416,21.82904],[80.18391,21.82902],[80.18366,21.82899],[80.1834,21.82895],[80.18315,21.82888],[80.18296,21.82882],[80.1829,21.82881],[80.18265,21.82873],[80.18239,21.82866],[80.18214,21.8286],[80.18189,21.82853],[80.18188,21.82853],[80.18164,21.82848],[80.18139,21.82842],[80.18113,21.82835],[80.18088,21.82826],[80.1808,21.82824],[80.18063,21.82818],[80.18038,21.82811],[80.18013,21.82808],[80.17987,21.82809],[80.17962,21.82818],[80.17953,21.82824],[80.17937,21.82832],[80.17912,21.82844],[80.17888,21.82853],[80.17887,21.82854],[80.17861,21.82861],[80.17836,21.82866],[80.17811,21.82868],[80.17786,21.82862],[80.17771,21.82853],[80.17764,21.82824],[80.17774,21.82794],[80.17786,21.82775],[80.17791,21.82765],[80.17811,21.82742],[80.17816,21.82735],[80.17836,21.82716],[80.17845,21.82706],[80.17861,21.82691],[80.17876,21.82676],[80.17887,21.82667],[80.17902,21.82647],[80.17912,21.82633],[80.1792,21.82618],[80.17937,21.82592],[80.1794,21.82588],[80.17962,21.82562],[80.17965,21.82559],[80.17987,21.8254],[80.18001,21.82529],[80.18013,21.82522],[80.18038,21.82506],[80.18047,21.825],[80.18063,21.82491],[80.18088,21.82478],[80.181,21.82471],[80.18113,21.82464],[80.18139,21.82449],[80.18149,21.82441],[80.18164,21.82432],[80.18189,21.82415],[80.18193,21.82412],[80.18214,21.82398],[80.18236,21.82382],[80.18239,21.8238],[80.18265,21.82364],[80.18282,21.82353],[80.1829,21.82348],[80.18315,21.82333],[80.18332,21.82324],[80.1834,21.82319],[80.18366,21.82307],[80.18391,21.82296],[80.18395,21.82294],[80.18416,21.82287]],[[80.18459,21.82441],[80.18466,21.82442],[80.18467,21.82441],[80.18466,21.82441],[80.18459,21.82441]]]],"type":"MultiPolygon"},"properties":{"fill":"#21918c","fill-opacity":0.9,"stroke":"#21918c","stroke-opacity":1,"stroke-width":1,"title":"47.50-48.00 "},"type":"Feature"},{"geometry":{"coordinates":[[[[80.18013,21.80263],[80.18038,21.8025],[80.18063,21.80248],[80.18088,21.80254],[80.18107,21.80265],[80.18113,21.8027],[80.18135,21.80294],[80.18139,21.80301],[80.18149,21.80324],[80.18156,21.80353],[80.18155,21.80382],[80.18144,21.80412],[80.18139,21.80418],[80.18114,21.80441],[80.18113,21.80442],[80.18088,21.80456],[80.18063,21.80465],[80.18038,21.80467],[80.18013,21.80463],[80.17987,21.80444],[80.17986,21.80441],[80.17968,21.80412],[80.17962,21.8039],[80.17961,21.80382],[80.17962,21.80353],[80.17962,21.80352],[80.1797,21.80324],[80.17983,21.80294],[80.17987,21.80288],[80.1801,21.80265],[80.18013,21.80263]]],[[[80.1766,21.80732],[80.17685,21.80725],[80.1771,21.80719],[80.17735,21.80715],[80.17761,21.80715],[80.17786,21.80718],[80.17811,21.80728],[80.17819,21.80735],[80.17836,21.80745],[80.17861,21.80758],[80.17883,21.80765],[80.17887,21.80766],[80.17912,21.80774],[80.17937,21.80786],[80.17951,21.80794],[80.17962,21.80801],[80.17987,21.80821],[80.1799,21.80824],[80.18013,21.80844],[80.18022,21.80853],[80.18038,21.80866],[80.18057,21.80882],[80.18063,21.80887],[80.18088,21.80903],[80.18104,21.80912],[80.18113,21.80916],[80.18139,21.80927],[80.18164,21.80937],[80.18175,21.80941],[80.18189,21.80946],[80.18214,21.80955],[80.18239,21.80965],[80.18251,21.80971],[80.18265,21.80977],[80.1829,21.80992],[80.18302,21.81],[80.18315,21.8101],[80.18335,21.81029],[80.1834,21.81036],[80.18356,21.81059],[80.18366,21.81081],[80.18369,21.81088],[80.18377,21.81118],[80.18381,21.81147],[80.18381,21.81176],[80.18376,21.81206],[80.18366,21.81233],[80.18365,21.81235],[80.18345,21.81265],[80.1834,21.8127],[80.18319,21.81294],[80.18315,21.81298],[80.1829,21.8132],[80.18284,21.81324],[80.18265,21.81335],[80.18239,21.81345],[80.18217,21.81353],[80.18214,21.81354],[80.18189,21.81361],[80.18164,21.81369],[80.18139,21.81376],[80.18113,21.81382],[80.18113,21.81382],[80.18088,21.81388],[80.18063,21.81393],[80.18038,21.81397],[80.18013,21.814],[80.17987,21.81401],[80.17962,21.81403],[80.17937,21.81405],[80.17912,21.81407],[80.17887,21.8141],[80.17869,21.81412],[80.17861,21.81413],[80.17836,21.81416],[80.17811,21.81419],[80.17786,21.81423],[80.17761,21.81427],[80.17735,21.81432],[80.1771,21.81438],[80.177,21.81441],[80.17685,21.81446],[80.1766,21.81453],[80.17634,21.81461],[80.17609,21.81468],[80.17602,21.81471],[80.17584,21.81476],[80.17559,21.81483],[80.17534,21.81491],[80.17508,21.81499],[80.17506,21.815],[80.17483,21.81506],[80.17458,21.8151],[80.17433,21.81514],[80.17408,21.81518],[80.17382,21.81522],[80.17357,21.81525],[80.17332,21.81528],[80.17324,21.81529],[80.17307,21.81531],[80.17282,21.81534],[80.17256,21.81536],[80.17231,21.81538],[80.17206,21.8154],[80.17181,21.81541],[80.17155,21.81542],[80.1713,21.8154],[80.17105,21.81534],[80.17095,21.81529],[80.1708,21.8152],[80.17055,21.815],[80.17054,21.815],[80.1703,21.81471],[80.17029,21.81469],[80.17016,21.81441],[80.17011,21.81412],[80.17015,21.81382],[80.17027,21.81353],[80.17029,21.81349],[80.17044,21.81324],[80.17055,21.8131],[80.17066,21.81294],[80.1708,21.81277],[80.17089,21.81265],[80.17105,21.81246],[80.17114,21.81235],[80.1713,21.81217],[80.1714,21.81206],[80.17155,21.81188],[80.17166,21.81176],[80.17181,21.81159],[80.17189,21.81147],[80.17206,21.81128],[80.17215,21.81118],[80.17231,21.81102],[80.17245,21.81088],[80.17256,21.81077],[80.17273,21.81059],[80.17282,21.8105],[80.17301,21.81029],[80.17307,21.81023],[80.17329,21.81],[80.17332,21.80997],[80.17357,21.80972],[80.17358,21.80971],[80.17382,21.80946],[80.17387,21.80941],[80.17408,21.8092],[80.17416,21.80912],[80.17433,21.80895],[80.17446,21.80882],[80.17458,21.8087],[80.17474,21.80853],[80.17483,21.80843],[80.17503,21.80824],[80.17508,21.80819],[80.17534,21.80798],[80.17538,21.80794],[80.17559,21.8078],[80.17584,21.80765],[80.17585,21.80765],[80.17609,21.80752],[80.17634,21.80741],[80.17652,21.80735],[80.1766,21.80732]],[[80.1763,21.80853],[80.17609,21.80868],[80.17591,21.80882],[80.17584,21.80889],[80.17559,21.80912],[80.17559,21.80912],[80.17534,21.80939],[80.17531,21.80941],[80.17508,21.80966],[80.17503,21.80971],[80.17483,21.80991],[80.17474,21.81],[80.17458,21.81017],[80.17446,21.81029],[80.17433,21.81046],[80.17421,21.81059],[80.17408,21.81078],[80.174,21.81088],[80.17382,21.81116],[80.17381,21.81118],[80.17364,21.81147],[80.17357,21.8116],[80.17347,21.81176],[80.17332,21.81206],[80.17332,21.81206],[80.17318,21.81235],[80.17307,21.81262],[80.17305,21.81265],[80.17294,21.81294],[80.17284,21.81324],[80.17284,21.81353],[80.17307,21.81363],[80.17332,21.81369],[80.17357,21.81374],[80.17382,21.81378],[80.17408,21.81382],[80.17409,21.81382],[80.17433,21.81385],[80.17458,21.81388],[80.17483,21.81391],[80.17508,21.81393],[80.17534,21.81394],[80.17559,21.81395],[80.17584,21.81394],[80.17609,21.81392],[80.17634,21.81387],[80.17655,21.81382],[80.1766,21.81381],[80.17685,21.81373],[80.1771,21.81362],[80.17731,21.81353],[80.17735,21.81351],[80.17761,21.81338],[80.17786,21.81325],[80.17788,21.81324],[80.17811,21.8131],[80.17836,21.81295],[80.17838,21.81294],[80.17861,21.81278],[80.17881,21.81265],[80.17887,21.81261],[80.17912,21.81241],[80.1792,21.81235],[80.17937,21.8122],[80.17954,21.81206],[80.17962,21.81196],[80.17983,21.81176],[80.17987,21.81169],[80.18,21.81147],[80.18003,21.81118],[80.17993,21.81088],[80.17987,21.81081],[80.17975,21.81059],[80.17962,21.81043],[80.17953,21.81029],[80.17937,21.81009],[80.17931,21.81],[80.17912,21.80976],[80.17908,21.80971],[80.17887,21.80944],[80.17885,21.80941],[80.17861,21.80913],[80.17861,21.80912],[80.17836,21.80886],[80.17832,21.80882],[80.17811,21.80865],[80.17795,21.80853],[80.17786,21.80847],[80.17761,21.80834],[80.17735,21.80827],[80.1771,21.80826],[80.17685,21.8083],[80.1766,21.80838],[80.17634,21.8085],[80.1763,21.80853]]],[[[80.18971,21.81146],[80.18996,21.81146],[80.19019,21.81147],[80.19021,21.81147],[80.19046,21.81151],[80.19071,21.81157],[80.19097,21.81167],[80.19115,21.81176],[80.19122,21.81181],[80.19147,21.81201],[80.19152,21.81206],[80.19172,21.81232],[80.19174,21.81235],[80.19187,21.81265],[80.19195,21.81294],[80.19197,21.81309],[80.192,21.81324],[80.19202,21.81353],[80.19201,21.81382],[80.19197,21.81404],[80.19196,21.81412],[80.19189,21.81441],[80.19178,21.81471],[80.19172,21.81482],[80.19162,21.815],[80.19147,21.81522],[80.19141,21.81529],[80.19122,21.81549],[80.1911,21.81559],[80.19097,21.8157],[80.19071,21.81585],[80.19065,21.81588],[80.19046,21.81597],[80.19021,21.81606],[80.18996,21.81611],[80.18971,21.81614],[80.18945,21.81614],[80.1892,21.81612],[80.18895,21.81606],[80.1887,21.81598],[80.18849,21.81588],[80.18845,21.81586],[80.18819,21.81571],[80.18803,21.81559],[80.18794,21.81551],[80.18773,21.81529],[80.18769,21.81524],[80.18752,21.815],[80.18744,21.81484],[80.18737,21.81471],[80.18725,21.81441],[80.18718,21.81416],[80.18717,21.81412],[80.18713,21.81382],[80.18715,21.81353],[80.18718,21.81337],[80.18721,21.81324],[80.18731,21.81294],[80.18744,21.8127],[80.18746,21.81265],[80.18768,21.81235],[80.18769,21.81234],[80.18794,21.81209],[80.18798,21.81206],[80.18819,21.81191],[80.18845,21.81177],[80.18845,21.81176],[80.1887,21.81166],[80.18895,21.81157],[80.1892,21.81151],[80.18945,21.81147],[80.1895,21.81147],[80.18971,21.81146]],[[80.18889,21.81294],[80.1887,21.81314],[80.18863,21.81324],[80.18854,21.81353],[80.18856,21.81382],[80.18869,21.81412],[80.1887,21.81413],[80.18895,21.81436],[80.18907,21.81441],[80.1892,21.81446],[80.18945,21.81448],[80.18971,21.81443],[80.18974,21.81441],[80.18996,21.81428],[80.19011,21.81412],[80.19021,21.81394],[80.19026,21.81382],[80.1903,21.81353],[80.19022,21.81324],[80.19021,21.81322],[80.18998,21.81294],[80.18996,21.81292],[80.18971,21.81281],[80.18945,21.81276],[80.1892,21.81279],[80.18895,21.8129],[80.18889,21.81294]]],[[[80.18466,21.82441],[80.18467,21.82441],[80.18466,21.82442],[80.18459,21.82441],[80.18466,21.82441]]]],"type":"MultiPolygon"},"properties":{"fill":"#2db27d","fill-opacity":0.9,"stroke":"#2db27d","stroke-opacity":1,"stroke-width":1,"title":"48.00-48.50 "},"type":"Feature"},{"geometry":{"coordinates":[[[[80.17634,21.8085],[80.1766,21.80838],[80.17685,21.8083],[80.1771,21.80826],[80.17735,21.80827],[80.17761,21.80834],[80.17786,21.80847],[80.17795,21.80853],[80.17811,21.80865],[80.17832,21.80882],[80.17836,21.80886],[80.17861,21.80912],[80.17861,21.80913],[80.17885,21.80941],[80.17887,21.80944],[80.17908,21.80971],[80.17912,21.80976],[80.17931,21.81],[80.17937,21.81009],[80.17953,21.81029],[80.17962,21.81043],[80.17975,21.81059],[80.17987,21.81081],[80.17993,21.81088],[80.18003,21.81118],[80.18,21.81147],[80.17987,21.81169],[80.17983,21.81176],[80.17962,21.81196],[80.17954,21.81206],[80.17937,21.8122],[80.1792,21.81235],[80.17912,21.81241],[80.17887,21.81261],[80.17881,21.81265],[80.17861,21.81278],[80.17838,21.81294],[80.17836,21.81295],[80.17811,21.8131],[80.17788,21.81324],[80.17786,21.81325],[80.17761,21.81338],[80.17735,21.81351],[80.17731,21.81353],[80.1771,21.81362],[80.17685,21.81373],[80.1766,21.81381],[80.17655,21.81382],[80.17634,21.81387],[80.17609,21.81392],[80.17584,21.81394],[80.17559,21.81395],[80.17534,21.81394],[80.17508,21.81393],[80.17483,21.81391],[80.17458,21.81388],[80.17433,21.81385],[80.17409,21.81382],[80.17408,21.81382],[80.17382,21.81378],[80.17357,21.81374],[80.17332,21.81369],[80.17307,21.81363],[80.17284,21.81353],[80.17284,21.81324],[80.17294,21.81294],[80.17305,21.81265],[80.17307,21.81262],[80.17318,21.81235],[80.17332,21.81206],[80.17332,21.81206],[80.17347,21.81176],[80.17357,21.8116],[80.17364,21.81147],[80.17381,21.81118],[80.17382,21.81116],[80.174,21.81088],[80.17408,21.81078],[80.17421,21.81059],[80.17433,21.81046],[80.17446,21.81029],[80.17458,21.81017],[80.17474,21.81],[80.17483,21.80991],[80.17503,21.80971],[80.17508,21.80966],[80.17531,21.80941],[80.17534,21.80939],[80.17559,21.80912],[80.17559,21.80912],[80.17584,21.80889],[80.17591,21.80882],[80.17609,21.80868],[80.1763,21.80853],[80.17634,21.8085]],[[80.17646,21.81088],[80.17634,21.8109],[80.17609,21.81103],[80.1759,21.81118],[80.17584,21.81121],[80.17559,21.81143],[80.17555,21.81147],[80.17535,21.81176],[80.17534,21.8118],[80.17525,21.81206],[80.17525,21.81235],[80.17534,21.81257],[80.17536,21.81265],[80.17559,21.8129],[80.17562,21.81294],[80.17584,21.81307],[80.17609,21.81317],[80.17634,21.81318],[80.1766,21.81305],[80.17674,21.81294],[80.17685,21.81276],[80.17693,21.81265],[80.17705,21.81235],[80.1771,21.8121],[80.17711,21.81206],[80.17713,21.81176],[80.1771,21.81148],[80.1771,21.81147],[80.17697,21.81118],[80.17685,21.81099],[80.17665,21.81088],[80.1766,21.81086],[80.17646,21.81088]]],[[[80.18895,21.8129],[80.1892,21.81279],[80.18945,21.81276],[80.18971,21.81281],[80.18996,21.81292],[80.18998,21.81294],[80.19021,21.81322],[80.19022,21.81324],[80.1903,21.81353],[80.19026,21.81382],[80.19021,21.81394],[80.19011,21.81412],[80.18996,21.81428],[80.18974,21.81441],[80.18971,21.81443],[80.18945,21.81448],[80.1892,21.81446],[80.18907,21.81441],[80.18895,21.81436],[80.1887,21.81413],[80.18869,21.81412],[80.18856,21.81382],[80.18854,21.81353],[80.18863,21.81324],[80.1887,21.81314],[80.18889,21.81294],[80.18895,21.8129]]]],"type":"MultiPolygon"},"properties":{"fill":"#73d056","fill-opacity":0.9,"stroke":"#73d056","stroke-opacity":1,"stroke-width":1,"title":"48.50-49.00 "},"type":"Feature"},{"geometry":{"coordinates":[[[[80.1766,21.81086],[80.17665,21.81088],[80.17685,21.81099],[80.17697,21.81118],[80.1771,21.81147],[80.1771,21.81148],[80.17713,21.81176],[80.17711,21.81206],[80.1771,21.8121],[80.17705,21.81235],[80.17693,21.81265],[80.17685,21.81276],[80.17674,21.81294],[80.1766,21.81305],[80.17634,21.81318],[80.17609,21.81317],[80.17584,21.81307],[80.17562,21.81294],[80.17559,21.8129],[80.17536,21.81265],[80.17534,21.81257],[80.17525,21.81235],[80.17525,21.81206],[80.17534,21.8118],[80.17535,21.81176],[80.17555,21.81147],[80.17559,21.81143],[80.17584,21.81121],[80.1759,21.81118],[80.17609,21.81103],[80.17634,21.8109],[80.17646,21.81088],[80.1766,21.81086]]]],"type":"MultiPolygon"},"properties":{"fill":"#d0e11c","fill-opacity":0.9,"stroke":"#d0e11c","stroke-opacity":1,"stroke-width":1,"title":"49.00-49.50 "},"type":"Feature"}],"type":"FeatureCollection"}