{"features":[{"geometry":{"coordinates":[[[[79.68966,21.54515],[79.68992,21.54518],[79.69014,21.54529],[79.69017,21.54531],[79.69032,21.54555],[79.69031,21.5458],[79.69017,21.54594],[79.68992,21.54598],[79.68966,21.5459],[79.68955,21.5458],[79.68941,21.54563],[79.68937,21.54555],[79.68941,21.54531],[79.68942,21.54529],[79.68966,21.54515]]]],"type":"MultiPolygon"},"properties":{"fill":"#481f70","fill-opacity":0.9,"stroke":"#481f70","stroke-opacity":1,"stroke-width":1,"title":"37.60-38.40 "},"type":"Feature"},{"geometry":{"coordinates":[[[[79.68941,21.54468],[79.68966,21.54462],[79.68992,21.54462],[79.69017,21.54469],[79.69036,21.54479],[79.69042,21.54482],[79.69065,21.54504],[79.69067,21.54507],[79.6908,21.54529],[79.69087,21.54555],[79.69087,21.5458],[79.69079,21.54605],[79.69067,21.54622],[79.6906,21.5463],[79.69042,21.54646],[79.69022,21.54655],[79.69017,21.54658],[79.68992,21.54664],[79.68966,21.54661],[79.68957,21.54655],[79.68941,21.54647],[79.68923,21.5463],[79.68916,21.54622],[79.68904,21.54605],[79.68892,21.5458],[79.68891,21.54576],[79.68886,21.54555],[79.68888,21.54529],[79.68891,21.54523],[79.68898,21.54504],[79.68916,21.54484],[79.68923,21.54479],[79.68941,21.54468]],[[79.68942,21.54529],[79.68941,21.54531],[79.68937,21.54555],[79.68941,21.54563],[79.68955,21.5458],[79.68966,21.5459],[79.68992,21.54598],[79.69017,21.54594],[79.69031,21.5458],[79.69032,21.54555],[79.69017,21.54531],[79.69014,21.54529],[79.68992,21.54518],[79.68966,21.54515],[79.68942,21.54529]]],[[[79.67706,21.54548],[79.67731,21.54548],[79.6774,21.54555],[79.67756,21.5458],[79.67753,21.54605],[79.67732,21.5463],[79.67731,21.54631],[79.67706,21.54633],[79.67701,21.5463],[79.67681,21.54611],[79.67677,21.54605],[79.67676,21.5458],[79.67681,21.54571],[79.67695,21.54555],[79.67706,21.54548]]],[[[79.68361,21.54624],[79.68366,21.5463],[79.68361,21.54636],[79.68352,21.5463],[79.68361,21.54624]]],[[[79.69269,21.55208],[79.69281,21.5521],[79.69294,21.55214],[79.6931,21.55235],[79.69314,21.55261],[79.69313,21.55286],[79.69313,21.55311],[79.69319,21.55321],[79.69323,21.55336],[79.69334,21.55361],[79.6934,21.55387],[79.69323,21.55412],[79.69319,21.55415],[79.69317,21.55412],[79.69294,21.55394],[79.6929,21.55387],[79.69287,21.55361],[79.69286,21.55336],[79.69278,21.55311],[79.69269,21.55303],[79.69261,21.55286],[79.69247,21.55261],[79.69245,21.55235],[79.69265,21.5521],[79.69269,21.55208]]],[[[79.69345,21.55483],[79.69351,21.55487],[79.6937,21.55494],[79.69381,21.55513],[79.69387,21.55538],[79.6937,21.55563],[79.6937,21.55563],[79.69368,21.55563],[79.69345,21.55561],[79.69327,21.55538],[79.69328,21.55513],[79.69341,21.55487],[79.69345,21.55483]]],[[[79.69118,21.56335],[79.6913,21.56345],[79.69118,21.56363],[79.69103,21.56345],[79.69118,21.56335]]],[[[79.67731,21.56365],[79.67756,21.56356],[79.67782,21.56351],[79.67807,21.5635],[79.67832,21.5635],[79.67857,21.56351],[79.67882,21.5636],[79.67891,21.5637],[79.67888,21.56395],[79.67882,21.56402],[79.6786,21.5642],[79.67857,21.56422],[79.67832,21.56439],[79.67823,21.56445],[79.67807,21.56455],[79.67782,21.56466],[79.67768,21.56471],[79.67756,21.56474],[79.67731,21.56476],[79.67706,21.56471],[79.67705,21.56471],[79.67681,21.5645],[79.67677,21.56445],[79.67673,21.5642],[79.67681,21.56403],[79.67685,21.56395],[79.67706,21.56377],[79.6772,21.5637],[79.67731,21.56365]]]],"type":"MultiPolygon"},"properties":{"fill":"#3b518b","fill-opacity":0.9,"stroke":"#3b518b","stroke-opacity":1,"stroke-width":1,"title":"38.40-39.20 "},"type":"Feature"},{"geometry":{"coordinates":[[[[79.68941,21.54373],[79.68966,21.54372],[79.68992,21.54375],[79.69,21.54378],[79.69017,21.54381],[79.69042,21.54388],[79.69067,21.54402],[79.69069,21.54403],[79.69092,21.54416],[79.69108,21.54429],[79.69118,21.54437],[79.69136,21.54454],[79.69143,21.54463],[79.69156,21.54479],[79.69168,21.54502],[79.6917,21.54504],[79.69179,21.54529],[79.69178,21.54555],[79.69173,21.5458],[79.69168,21.54594],[79.69165,21.54605],[79.69157,21.5463],[79.69146,21.54655],[79.69143,21.54663],[79.69133,21.54681],[79.69118,21.54706],[79.69118,21.54706],[79.69106,21.54731],[79.691,21.54756],[79.69097,21.54782],[79.69093,21.54807],[79.69092,21.5481],[79.69091,21.54832],[79.69089,21.54857],[79.69081,21.54882],[79.69067,21.54906],[79.69067,21.54908],[79.69053,21.54933],[79.69042,21.54951],[79.69038,21.54958],[79.69023,21.54983],[79.69017,21.54992],[79.69003,21.55008],[79.68992,21.55022],[79.68975,21.55034],[79.68966,21.55041],[79.68941,21.55037],[79.68937,21.55034],[79.68916,21.55021],[79.68902,21.55008],[79.68891,21.55],[79.68873,21.54983],[79.68866,21.54976],[79.68848,21.54958],[79.6884,21.54947],[79.68829,21.54933],[79.68817,21.54908],[79.68815,21.54887],[79.68815,21.54882],[79.68814,21.54857],[79.68813,21.54832],[79.68813,21.54807],[79.68813,21.54782],[79.68815,21.54761],[79.68815,21.54756],[79.68818,21.54731],[79.68823,21.54706],[79.68831,21.54681],[79.68827,21.54655],[79.68816,21.5463],[79.68815,21.54629],[79.68801,21.54605],[79.68794,21.5458],[79.68791,21.54555],[79.68791,21.54529],[79.68794,21.54504],[79.68801,21.54479],[79.68815,21.54454],[79.68815,21.54454],[79.68833,21.54429],[79.6884,21.54421],[79.68862,21.54403],[79.68866,21.54401],[79.68891,21.54386],[79.68916,21.54379],[79.68921,21.54378],[79.68941,21.54373]],[[79.68923,21.54479],[79.68916,21.54484],[79.68898,21.54504],[79.68891,21.54523],[79.68888,21.54529],[79.68886,21.54555],[79.68891,21.54576],[79.68892,21.5458],[79.68904,21.54605],[79.68916,21.54622],[79.68923,21.5463],[79.68941,21.54647],[79.68957,21.54655],[79.68966,21.54661],[79.68992,21.54664],[79.69017,21.54658],[79.69022,21.54655],[79.69042,21.54646],[79.6906,21.5463],[79.69067,21.54622],[79.69079,21.54605],[79.69087,21.5458],[79.69087,21.54555],[79.6908,21.54529],[79.69067,21.54507],[79.69065,21.54504],[79.69042,21.54482],[79.69036,21.54479],[79.69017,21.54469],[79.68992,21.54462],[79.68966,21.54462],[79.68941,21.54468],[79.68923,21.54479]]],[[[79.67706,21.54423],[79.67731,21.54423],[79.67756,21.54428],[79.67759,21.54429],[79.67782,21.54434],[79.67807,21.54449],[79.67811,21.54454],[79.67824,21.54479],[79.67829,21.54504],[79.67829,21.54529],[79.67828,21.54555],[79.67826,21.5458],[79.67822,21.54605],[79.67818,21.5463],[79.67814,21.54655],[79.67807,21.54681],[79.67807,21.54684],[79.67801,21.54706],[79.678,21.54731],[79.67807,21.5475],[79.67811,21.54756],[79.67832,21.54773],[79.67847,21.54782],[79.67857,21.54791],[79.6788,21.54807],[79.67882,21.5482],[79.67885,21.54832],[79.67882,21.54849],[79.67882,21.54857],[79.67878,21.54882],[79.67871,21.54908],[79.67861,21.54933],[79.67867,21.54958],[79.67882,21.54972],[79.67894,21.54983],[79.67908,21.55002],[79.67911,21.55008],[79.67918,21.55034],[79.67919,21.55059],[79.67917,21.55084],[79.67913,21.55109],[79.67908,21.55134],[79.67907,21.55134],[79.67902,21.5516],[79.67897,21.55185],[79.67889,21.5521],[79.67882,21.55229],[79.67878,21.55235],[79.67861,21.55261],[79.67857,21.55266],[79.67832,21.55281],[79.67807,21.55283],[79.67782,21.55277],[79.67756,21.55262],[79.67754,21.55261],[79.67731,21.55244],[79.6772,21.55235],[79.67706,21.55223],[79.67681,21.55211],[79.67655,21.55227],[79.67651,21.55235],[79.6763,21.55258],[79.67629,21.55261],[79.67605,21.55281],[79.676,21.55286],[79.6758,21.55302],[79.67567,21.55311],[79.67555,21.5532],[79.67529,21.55335],[79.67528,21.55336],[79.67504,21.55349],[79.67479,21.55357],[79.67454,21.55358],[79.67429,21.5535],[79.6741,21.55336],[79.67403,21.5533],[79.67386,21.55311],[79.67378,21.55299],[79.67369,21.55286],[79.67359,21.55261],[79.67355,21.55235],[79.67354,21.5521],[79.67356,21.55185],[79.67362,21.5516],[79.67374,21.55134],[79.67378,21.55128],[79.67391,21.55109],[79.67403,21.55097],[79.67419,21.55084],[79.67429,21.55077],[79.67454,21.55064],[79.6747,21.55059],[79.67479,21.55055],[79.67504,21.55044],[79.67529,21.55034],[79.6753,21.55034],[79.67542,21.55008],[79.67548,21.54983],[79.67555,21.54968],[79.67558,21.54958],[79.67566,21.54933],[79.67572,21.54908],[79.67578,21.54882],[79.6758,21.54875],[79.67583,21.54857],[79.67589,21.54832],[79.67597,21.54807],[79.67605,21.54792],[79.67611,21.54782],[79.67628,21.54756],[79.6762,21.54731],[79.67605,21.54713],[79.67599,21.54706],[79.6758,21.54681],[79.6758,21.5468],[79.67565,21.54655],[79.67558,21.5463],[79.67555,21.54608],[79.67554,21.54605],[79.67554,21.5458],[79.67555,21.54574],[79.67557,21.54555],[79.67563,21.54529],[79.67577,21.54504],[79.6758,21.545],[79.67595,21.54479],[79.67605,21.54469],[79.67624,21.54454],[79.6763,21.54449],[79.67655,21.54436],[79.67681,21.54429],[79.67681,21.54429],[79.67706,21.54423]],[[79.67695,21.54555],[79.67681,21.54571],[79.67676,21.5458],[79.67677,21.54605],[79.67681,21.54611],[79.67701,21.5463],[79.67706,21.54633],[79.67731,21.54631],[79.67732,21.5463],[79.67753,21.54605],[79.67756,21.5458],[79.6774,21.54555],[79.67731,21.54548],[79.67706,21.54548],[79.67695,21.54555]]],[[[79.68311,21.54475],[79.68336,21.54469],[79.68361,21.54468],[79.68387,21.54471],[79.68408,21.54479],[79.68412,21.5448],[79.68437,21.54491],[79.68455,21.54504],[79.68462,21.5451],[79.68481,21.54529],[79.68487,21.54539],[79.68498,21.54555],[79.68508,21.5458],[79.68513,21.54601],[79.68514,21.54605],[79.68516,21.5463],[79.68514,21.54655],[79.68513,21.54658],[79.68507,21.54681],[79.68494,21.54706],[79.68487,21.54714],[79.68475,21.54731],[79.68462,21.54744],[79.68447,21.54756],[79.68437,21.54764],[79.68412,21.54778],[79.684,21.54782],[79.68387,21.54787],[79.68361,21.5479],[79.68336,21.54784],[79.68332,21.54782],[79.68311,21.54773],[79.68286,21.54764],[79.68261,21.54759],[79.68235,21.54758],[79.6821,21.54762],[79.68185,21.54771],[79.68163,21.54782],[79.6816,21.54783],[79.68134,21.54794],[79.68109,21.54807],[79.68109,21.54807],[79.68084,21.54821],[79.68064,21.54832],[79.68059,21.54836],[79.68034,21.54847],[79.68008,21.54845],[79.67983,21.54841],[79.67958,21.54832],[79.67958,21.54832],[79.67933,21.54814],[79.67925,21.54807],[79.67933,21.54795],[79.67937,21.54782],[79.67955,21.54756],[79.67958,21.54754],[79.67971,21.54731],[79.67983,21.54716],[79.6799,21.54706],[79.68007,21.54681],[79.68008,21.54679],[79.68022,21.54655],[79.68034,21.54632],[79.68035,21.5463],[79.68049,21.54605],[79.68059,21.54586],[79.68065,21.5458],[79.68084,21.54559],[79.68104,21.54555],[79.68109,21.54553],[79.68134,21.54552],[79.68153,21.54555],[79.6816,21.54555],[79.68185,21.54558],[79.68192,21.54555],[79.6821,21.54545],[79.68229,21.54529],[79.68235,21.54523],[79.68255,21.54504],[79.68261,21.545],[79.68286,21.54485],[79.68302,21.54479],[79.68311,21.54475]],[[79.68352,21.5463],[79.68361,21.54636],[79.68366,21.5463],[79.68361,21.54624],[79.68352,21.5463]]],[[[79.69471,21.54664],[79.69496,21.54661],[79.69521,21.54667],[79.69546,21.54679],[79.69549,21.54681],[79.69571,21.54695],[79.69583,21.54706],[79.69597,21.54723],[79.69603,21.54731],[79.69616,21.54756],[79.69622,21.5478],[79.69622,21.54782],[79.69626,21.54807],[79.69625,21.54832],[79.69622,21.54842],[79.69619,21.54857],[79.69609,21.54882],[79.69597,21.54901],[79.69592,21.54908],[79.69571,21.54928],[79.69565,21.54933],[79.69546,21.54946],[79.69521,21.54956],[79.69513,21.54958],[79.69496,21.54963],[79.69471,21.54965],[79.69445,21.54962],[79.69435,21.54958],[79.6942,21.54954],[79.69395,21.54943],[79.69374,21.54933],[79.6937,21.54931],[79.69345,21.54921],[79.69319,21.5492],[79.69305,21.54933],[79.69294,21.54941],[79.69269,21.54945],[79.69244,21.5494],[79.69224,21.54933],[79.69218,21.54931],[79.69193,21.54918],[79.69178,21.54908],[79.69168,21.54896],[79.69157,21.54882],[79.69151,21.54857],[79.69157,21.54832],[79.69168,21.54818],[79.69193,21.54809],[79.69218,21.54812],[79.69244,21.54819],[79.69269,21.54829],[79.69283,21.54832],[79.69294,21.54837],[79.69309,21.54832],[79.69319,21.54829],[79.69344,21.54807],[79.69345,21.54806],[79.69365,21.54782],[79.6937,21.54776],[79.69384,21.54756],[79.69395,21.54742],[79.69404,21.54731],[79.6942,21.54711],[79.69425,21.54706],[79.69445,21.54684],[79.69451,21.54681],[79.69471,21.54664]]],[[[79.69269,21.55084],[79.69294,21.55076],[79.69319,21.55076],[79.6934,21.55084],[79.69345,21.55086],[79.6937,21.551],[79.69381,21.55109],[79.69395,21.55123],[79.69405,21.55134],[79.6942,21.5516],[79.6942,21.55161],[79.69432,21.55185],[79.69437,21.5521],[79.6944,21.55235],[79.69444,21.55261],[79.69445,21.55268],[79.69452,21.55286],[79.69462,21.55311],[79.69469,21.55336],[79.69471,21.55344],[79.69475,21.55361],[79.69478,21.55387],[79.69484,21.55412],[79.69491,21.55437],[79.69496,21.55449],[79.69504,21.55462],[79.69515,21.55487],[79.6952,21.55513],[79.69521,21.55524],[79.69523,21.55538],[79.69521,21.55557],[79.69521,21.55563],[79.69516,21.55588],[79.69506,21.55613],[79.69496,21.55629],[79.6949,21.55639],[79.69471,21.5566],[79.69466,21.55664],[79.69445,21.5568],[79.69425,21.55689],[79.6942,21.55692],[79.69395,21.55701],[79.6937,21.55704],[79.69345,21.55704],[79.69319,21.55699],[79.69299,21.55689],[79.69294,21.55687],[79.6927,21.55664],[79.69269,21.55663],[79.69254,21.55639],[79.69244,21.55615],[79.69243,21.55613],[79.69234,21.55588],[79.69227,21.55563],[79.6922,21.55538],[79.69218,21.55532],[79.69211,21.55513],[79.69201,21.55487],[79.69193,21.55469],[79.69188,21.55462],[79.69171,21.55437],[79.69168,21.5543],[79.69157,21.55412],[79.69152,21.55387],[79.69148,21.55361],[79.69143,21.55342],[79.6914,21.55336],[79.69129,21.55311],[79.6912,21.55286],[79.69118,21.55275],[79.69113,21.55261],[79.6911,21.55235],[79.69118,21.5521],[79.69118,21.5521],[79.69131,21.55185],[79.69143,21.55172],[79.69153,21.5516],[79.69168,21.55146],[79.69182,21.55134],[79.69193,21.55126],[79.69218,21.55109],[79.69218,21.55109],[79.69244,21.55094],[79.69268,21.55084],[79.69269,21.55084]],[[79.69265,21.5521],[79.69245,21.55235],[79.69247,21.55261],[79.69261,21.55286],[79.69269,21.55303],[79.69278,21.55311],[79.69286,21.55336],[79.69287,21.55361],[79.6929,21.55387],[79.69294,21.55394],[79.69317,21.55412],[79.69319,21.55415],[79.69323,21.55412],[79.6934,21.55387],[79.69334,21.55361],[79.69323,21.55336],[79.69319,21.55321],[79.69313,21.55311],[79.69313,21.55286],[79.69314,21.55261],[79.6931,21.55235],[79.69294,21.55214],[79.69281,21.5521],[79.69269,21.55208],[79.69265,21.5521]],[[79.69341,21.55487],[79.69328,21.55513],[79.69327,21.55538],[79.69345,21.55561],[79.69368,21.55563],[79.6937,21.55563],[79.6937,21.55563],[79.69387,21.55538],[79.69381,21.55513],[79.6937,21.55494],[79.69351,21.55487],[79.69345,21.55483],[79.69341,21.55487]]],[[[79.6758,21.55557],[79.67605,21.55549],[79.6763,21.55545],[79.67655,21.55543],[79.67681,21.55545],[79.67706,21.55551],[79.67728,21.55563],[79.67731,21.55564],[79.67756,21.55583],[79.67761,21.55588],[79.67781,21.55613],[79.67782,21.55615],[79.67795,21.55639],[79.67802,21.55664],[79.67805,21.55689],[79.67805,21.55714],[79.678,21.55739],[79.67791,21.55765],[79.67782,21.5578],[79.67775,21.5579],[79.67756,21.55811],[79.67752,21.55815],[79.67731,21.55831],[79.67711,21.5584],[79.67706,21.55843],[79.67681,21.55852],[79.67655,21.55855],[79.6763,21.55854],[79.67605,21.55848],[79.67587,21.5584],[79.6758,21.55838],[79.67555,21.55822],[79.67546,21.55815],[79.67529,21.55798],[79.67523,21.5579],[79.67508,21.55765],[79.67504,21.55754],[79.67498,21.55739],[79.67492,21.55714],[79.67492,21.55689],[79.67495,21.55664],[79.67504,21.5564],[79.67504,21.55639],[79.67516,21.55613],[79.67529,21.55597],[79.67537,21.55588],[79.67555,21.55572],[79.6757,21.55563],[79.6758,21.55557]]],[[[79.69042,21.5586],[79.69067,21.55846],[79.69092,21.55842],[79.69118,21.55843],[79.69143,21.55847],[79.69168,21.55855],[79.6919,21.55866],[79.69193,21.55868],[79.69215,21.55891],[79.69218,21.55897],[79.69228,21.55916],[79.69234,21.55941],[79.69234,21.55966],[79.69218,21.55991],[79.69218,21.55992],[79.69193,21.56013],[79.69189,21.56017],[79.69168,21.56029],[79.69143,21.56042],[79.69143,21.56042],[79.69118,21.56052],[79.69092,21.5606],[79.69067,21.56065],[79.69042,21.56061],[79.69018,21.56042],[79.69017,21.5604],[79.69004,21.56017],[79.68999,21.55992],[79.69,21.55966],[79.69003,21.55941],[79.6901,21.55916],[79.69017,21.55898],[79.6902,21.55891],[79.69037,21.55866],[79.69042,21.5586]]],[[[79.67403,21.56159],[79.67429,21.56158],[79.67454,21.56162],[79.67479,21.56164],[79.67504,21.56166],[79.67529,21.56168],[79.67555,21.56167],[79.6758,21.56161],[79.67605,21.56152],[79.6763,21.56144],[79.67655,21.56147],[79.67681,21.56164],[79.67687,21.56168],[79.67706,21.56186],[79.67717,21.56193],[79.67731,21.56208],[79.67744,21.56218],[79.67756,21.56228],[79.67782,21.56234],[79.67807,21.56232],[79.67832,21.56226],[79.67854,21.56218],[79.67857,21.56217],[79.67882,21.56208],[79.67908,21.56205],[79.67933,21.56205],[79.67958,21.56209],[79.67983,21.56218],[79.67983,21.56219],[79.68008,21.56229],[79.68028,21.56244],[79.68034,21.5625],[79.68048,21.56269],[79.68057,21.56294],[79.68059,21.56308],[79.68061,21.56319],[79.68061,21.56345],[79.68059,21.56352],[79.68057,21.5637],[79.68051,21.56395],[79.68041,21.5642],[79.68034,21.56431],[79.68026,21.56445],[79.68008,21.56468],[79.68006,21.56471],[79.67983,21.56493],[79.67979,21.56496],[79.67958,21.56512],[79.67939,21.56521],[79.67933,21.56525],[79.67908,21.56536],[79.67882,21.56543],[79.6787,21.56546],[79.67857,21.56551],[79.67832,21.56562],[79.67808,21.56571],[79.67807,21.56572],[79.67782,21.56585],[79.67756,21.56591],[79.67731,21.56594],[79.67706,21.56594],[79.67681,21.56591],[79.67655,21.56583],[79.67634,21.56571],[79.6763,21.5657],[79.67605,21.56557],[79.67587,21.56546],[79.6758,21.56542],[79.67555,21.56529],[79.67529,21.56522],[79.67527,21.56521],[79.67504,21.56515],[79.67479,21.56501],[79.67472,21.56496],[79.67454,21.56478],[79.67448,21.56471],[79.67434,21.56445],[79.67429,21.56425],[79.67427,21.5642],[79.67421,21.56395],[79.67413,21.5637],[79.67403,21.56345],[79.67403,21.56345],[79.67391,21.56319],[79.67381,21.56294],[79.67378,21.56285],[79.67371,21.56269],[79.67367,21.56244],[79.67367,21.56218],[79.67372,21.56193],[79.67378,21.56181],[79.67388,21.56168],[79.67403,21.56159]],[[79.6772,21.5637],[79.67706,21.56377],[79.67685,21.56395],[79.67681,21.56403],[79.67673,21.5642],[79.67677,21.56445],[79.67681,21.5645],[79.67705,21.56471],[79.67706,21.56471],[79.67731,21.56476],[79.67756,21.56474],[79.67768,21.56471],[79.67782,21.56466],[79.67807,21.56455],[79.67823,21.56445],[79.67832,21.56439],[79.67857,21.56422],[79.6786,21.5642],[79.67882,21.56402],[79.67888,21.56395],[79.67891,21.5637],[79.67882,21.5636],[79.67857,21.56351],[79.67832,21.5635],[79.67807,21.5635],[79.67782,21.56351],[79.67756,21.56356],[79.67731,21.56365],[79.6772,21.5637]]],[[[79.69042,21.56205],[79.69067,21.56202],[79.69092,21.56205],[79.69118,21.56211],[79.69142,21.56218],[79.69143,21.56219],[79.69168,21.56225],[79.69193,21.56232],[79.69218,21.56235],[79.69244,21.56234],[79.69269,21.56229],[79.69294,21.5622],[79.693,21.56218],[79.69319,21.56212],[79.69345,21.56207],[79.6937,21.56208],[79.69393,21.56218],[79.69395,21.5622],[79.6941,21.56244],[79.69416,21.56269],[79.69418,21.56294],[79.69415,21.56319],[79.69409,21.56345],[79.69401,21.5637],[79.69395,21.56389],[79.69394,21.56395],[79.69387,21.5642],[79.69381,21.56445],[79.69374,21.56471],[79.6937,21.56481],[79.69365,21.56496],[79.69349,21.56521],[79.69345,21.56526],[79.69323,21.56546],[79.69319,21.56549],[79.69294,21.56564],[79.69269,21.56571],[79.6926,21.56571],[79.69244,21.56573],[79.69225,21.56571],[79.69218,21.56571],[79.69193,21.56565],[79.69168,21.56561],[79.69143,21.5656],[79.69118,21.56564],[79.69092,21.5657],[79.69086,21.56571],[79.69067,21.56577],[79.69042,21.5658],[79.69017,21.56577],[79.68999,21.56571],[79.68992,21.56569],[79.68966,21.56557],[79.68953,21.56546],[79.68941,21.56535],[79.68929,21.56521],[79.68916,21.56497],[79.68915,21.56496],[79.68906,21.56471],[79.68903,21.56445],[79.68904,21.5642],[79.6891,21.56395],[79.68916,21.56383],[79.6892,21.5637],[79.6893,21.56345],[79.68941,21.56325],[79.68944,21.56319],[79.68956,21.56294],[79.68966,21.56279],[79.68973,21.56269],[79.68992,21.56245],[79.68993,21.56244],[79.69017,21.5622],[79.69019,21.56218],[79.69042,21.56205]],[[79.69103,21.56345],[79.69118,21.56363],[79.6913,21.56345],[79.69118,21.56335],[79.69103,21.56345]]]],"type":"MultiPolygon"},"properties":{"fill":"#287c8e","fill-opacity":0.9,"stroke":"#287c8e","stroke-opacity":1,"stroke-width":1,"title":"39.20-40.00 "},"type":"Feature"},{"geometry":{"coordinates":[[[[79.67025,21.54],[79.6705,21.54],[79.67076,21.54],[79.67101,21.54],[79.67126,21.54],[79.67151,21.54],[79.67176,21.54],[79.67202,21.54],[79.67227,21.54],[79.67252,21.54],[79.67277,21.54],[79.67303,21.54],[79.67328,21.54],[79.67353,21.54],[79.67378,21.54],[79.67403,21.54],[79.67429,21.54],[79.67454,21.54],[79.67479,21.54],[79.67504,21.54],[79.67529,21.54],[79.67555,21.54],[79.6758,21.54],[79.67605,21.54],[79.6763,21.54],[79.67655,21.54],[79.67681,21.54],[79.67706,21.54],[79.67731,21.54],[79.67756,21.54],[79.67782,21.54],[79.67807,21.54],[79.67832,21.54],[79.67857,21.54],[79.67882,21.54],[79.67908,21.54],[79.67933,21.54],[79.67958,21.54],[79.67983,21.54],[79.68008,21.54],[79.68034,21.54],[79.68059,21.54],[79.68084,21.54],[79.68109,21.54],[79.68134,21.54],[79.6816,21.54],[79.68185,21.54],[79.6821,21.54],[79.68235,21.54],[79.68261,21.54],[79.68286,21.54],[79.68311,21.54],[79.68336,21.54],[79.68361,21.54],[79.68387,21.54],[79.68412,21.54],[79.68437,21.54],[79.68462,21.54],[79.68487,21.54],[79.68513,21.54],[79.68538,21.54],[79.68563,21.54],[79.68588,21.54],[79.68613,21.54],[79.68639,21.54],[79.68664,21.54],[79.68689,21.54],[79.68714,21.54],[79.68739,21.54],[79.68765,21.54],[79.6879,21.54],[79.68815,21.54],[79.6884,21.54],[79.68866,21.54],[79.68891,21.54],[79.68916,21.54],[79.68941,21.54],[79.68966,21.54],[79.68992,21.54],[79.69017,21.54],[79.69042,21.54],[79.69067,21.54],[79.69092,21.54],[79.69118,21.54],[79.69143,21.54],[79.69168,21.54],[79.69193,21.54],[79.69218,21.54],[79.69244,21.54],[79.69269,21.54],[79.69294,21.54],[79.69319,21.54],[79.69345,21.54],[79.6937,21.54],[79.69395,21.54],[79.6942,21.54],[79.69445,21.54],[79.69471,21.54],[79.69496,21.54],[79.69521,21.54],[79.69546,21.54],[79.69571,21.54],[79.69597,21.54],[79.69622,21.54],[79.69647,21.54],[79.69672,21.54],[79.69697,21.54],[79.69723,21.54],[79.69748,21.54],[79.69773,21.54],[79.69798,21.54],[79.69824,21.54],[79.69849,21.54],[79.69874,21.54],[79.69899,21.54],[79.69924,21.54],[79.6995,21.54],[79.69975,21.54],[79.7,21.54],[79.7,21.54025],[79.7,21.5405],[79.7,21.54076],[79.7,21.54101],[79.7,21.54126],[79.7,21.54151],[79.7,21.54176],[79.7,21.54202],[79.7,21.54227],[79.7,21.54252],[79.7,21.54277],[79.7,21.54303],[79.7,21.54328],[79.7,21.54353],[79.7,21.54378],[79.7,21.54403],[79.7,21.54429],[79.7,21.54454],[79.7,21.54479],[79.7,21.54504],[79.7,21.54529],[79.7,21.54555],[79.7,21.5458],[79.7,21.54605],[79.7,21.5463],[79.7,21.54655],[79.7,21.54681],[79.7,21.54706],[79.7,21.54731],[79.7,21.54756],[79.7,21.54782],[79.7,21.54807],[79.7,21.54832],[79.7,21.54857],[79.7,21.54882],[79.7,21.54908],[79.7,21.54933],[79.7,21.54958],[79.7,21.54983],[79.7,21.55008],[79.7,21.55034],[79.7,21.55059],[79.7,21.55084],[79.7,21.55109],[79.7,21.55134],[79.7,21.5516],[79.7,21.55185],[79.7,21.5521],[79.7,21.55235],[79.7,21.55261],[79.7,21.55286],[79.7,21.55311],[79.7,21.55336],[79.7,21.55361],[79.7,21.55387],[79.7,21.55412],[79.7,21.55437],[79.7,21.55462],[79.7,21.55487],[79.7,21.55513],[79.7,21.55538],[79.7,21.55563],[79.7,21.55588],[79.7,21.55613],[79.7,21.55639],[79.7,21.55664],[79.7,21.55689],[79.7,21.55714],[79.7,21.55739],[79.7,21.55765],[79.7,21.5579],[79.7,21.55815],[79.7,21.5584],[79.7,21.55866],[79.7,21.55891],[79.7,21.55916],[79.7,21.55941],[79.7,21.55966],[79.7,21.55992],[79.7,21.56017],[79.7,21.56042],[79.7,21.56067],[79.7,21.56092],[79.7,21.56118],[79.7,21.56143],[79.7,21.56168],[79.7,21.56193],[79.7,21.56218],[79.7,21.56244],[79.7,21.56269],[79.7,21.56294],[79.7,21.56319],[79.7,21.56345],[79.7,21.5637],[79.7,21.56395],[79.7,21.5642],[79.7,21.56445],[79.7,21.56471],[79.7,21.56496],[79.7,21.56521],[79.7,21.56546],[79.7,21.56571],[79.7,21.56597],[79.7,21.56622],[79.7,21.56647],[79.7,21.56672],[79.7,21.56697],[79.7,21.56723],[79.7,21.56748],[79.7,21.56773],[79.7,21.56798],[79.7,21.56824],[79.7,21.56849],[79.7,21.56874],[79.7,21.56899],[79.7,21.56924],[79.7,21.5695],[79.7,21.56975],[79.7,21.57],[79.69975,21.57],[79.6995,21.57],[79.69924,21.57],[79.69899,21.57],[79.69874,21.57],[79.69849,21.57],[79.69824,21.57],[79.69798,21.57],[79.69773,21.57],[79.69748,21.57],[79.69723,21.57],[79.69697,21.57],[79.69672,21.57],[79.69647,21.57],[79.69622,21.57],[79.69597,21.57],[79.69571,21.57],[79.69546,21.57],[79.69521,21.57],[79.69496,21.57],[79.69471,21.57],[79.69445,21.57],[79.6942,21.57],[79.69395,21.57],[79.6937,21.57],[79.69345,21.57],[79.69319,21.57],[79.69294,21.57],[79.69269,21.57],[79.69244,21.57],[79.69218,21.57],[79.69193,21.57],[79.69168,21.57],[79.69143,21.57],[79.69118,21.57],[79.69092,21.57],[79.69067,21.57],[79.69042,21.57],[79.69017,21.57],[79.68992,21.57],[79.68966,21.57],[79.68941,21.57],[79.68916,21.57],[79.68891,21.57],[79.68866,21.57],[79.6884,21.57],[79.68815,21.57],[79.6879,21.57],[79.68765,21.57],[79.68739,21.57],[79.68714,21.57],[79.68689,21.57],[79.68664,21.57],[79.68639,21.57],[79.68613,21.57],[79.68588,21.57],[79.68563,21.57],[79.68538,21.57],[79.68513,21.57],[79.68487,21.57],[79.68462,21.57],[79.68437,21.57],[79.68412,21.57],[79.68387,21.57],[79.68361,21.57],[79.68336,21.57],[79.68311,21.57],[79.68286,21.57],[79.68261,21.57],[79.68235,21.57],[79.6821,21.57],[79.68185,21.57],[79.6816,21.57],[79.68134,21.57],[79.68109,21.57],[79.68084,21.57],[79.68059,21.57],[79.68034,21.57],[79.68008,21.57],[79.67983,21.57],[79.67958,21.57],[79.67933,21.57],[79.67908,21.57],[79.67882,21.57],[79.67857,21.57],[79.67832,21.57],[79.67807,21.57],[79.67782,21.57],[79.67756,21.57],[79.67731,21.57],[79.67706,21.57],[79.67681,21.57],[79.67655,21.57],[79.6763,21.57],[79.67605,21.57],[79.6758,21.57],[79.67555,21.57],[79.67529,21.57],[79.67504,21.57],[79.67479,21.57],[79.67454,21.57],[79.67429,21.57],[79.67403,21.57],[79.67378,21.57],[79.67353,21.57],[79.67328,21.57],[79.67303,21.57],[79.67277,21.57],[79.67252,21.57],[79.67227,21.57],[79.67202,21.57],[79.67176,21.57],[79.67151,21.57],[79.67126,21.57],[79.67101,21.57],[79.67076,21.57],[79.6705,21.57],[79.67025,21.57],[79.67,21.57],[79.67,21.56975],[79.67,21.5695],[79.67,21.56924],[79.67,21.56899],[79.67,21.56874],[79.67,21.56849],[79.67,21.56824],[79.67,21.56798],[79.67,21.56773],[79.67,21.56748],[79.67,21.56723],[79.67,21.56697],[79.67,21.56672],[79.67,21.56647],[79.67,21.56622],[79.67,21.56597],[79.67,21.56571],[79.67,21.56546],[79.67,21.56521],[79.67,21.56496],[79.67,21.56471],[79.67,21.56445],[79.67,21.5642],[79.67,21.56395],[79.67,21.5637],[79.67,21.56345],[79.67,21.56319],[79.67,21.56294],[79.67,21.56269],[79.67,21.56244],[79.67,21.56218],[79.67,21.56193],[79.67,21.56168],[79.67,21.56143],[79.67,21.56118],[79.67,21.56092],[79.67,21.56067],[79.67,21.56042],[79.67,21.56017],[79.67,21.55992],[79.67,21.55966],[79.67,21.55941],[79.67,21.55916],[79.67,21.55891],[79.67,21.55866],[79.67,21.5584],[79.67,21.55815],[79.67,21.5579],[79.67,21.55765],[79.67,21.55739],[79.67,21.55714],[79.67,21.55689],[79.67,21.55664],[79.67,21.55639],[79.67,21.55613],[79.67,21.55588],[79.67,21.55563],[79.67,21.55538],[79.67,21.55513],[79.67,21.55487],[79.67,21.55462],[79.67,21.55437],[79.67,21.55412],[79.67,21.55387],[79.67,21.55361],[79.67,21.55336],[79.67,21.55311],[79.67,21.55286],[79.67,21.55261],[79.67,21.55235],[79.67,21.5521],[79.67,21.55185],[79.67,21.5516],[79.67,21.55134],[79.67,21.55109],[79.67,21.55084],[79.67,21.55059],[79.67,21.55034],[79.67,21.55008],[79.67,21.54983],[79.67,21.54958],[79.67,21.54933],[79.67,21.54908],[79.67,21.54882],[79.67,21.54857],[79.67,21.54832],[79.67,21.54807],[79.67,21.54782],[79.67,21.54756],[79.67,21.54731],[79.67,21.54706],[79.67,21.54681],[79.67,21.54655],[79.67,21.5463],[79.67,21.54605],[79.67,21.5458],[79.67,21.54555],[79.67,21.54529],[79.67,21.54504],[79.67,21.54479],[79.67,21.54454],[79.67,21.54429],[79.67,21.54403],[79.67,21.54378],[79.67,21.54353],[79.67,21.54328],[79.67,21.54303],[79.67,21.54277],[79.67,21.54252],[79.67,21.54227],[79.67,21.54202],[79.67,21.54176],[79.67,21.54151],[79.67,21.54126],[79.67,21.54101],[79.67,21.54076],[79.67,21.5405],[79.67,21.54025],[79.67,21.54],[79.67025,21.54]],[[79.68921,21.54378],[79.68916,21.54379],[79.68891,21.54386],[79.68866,21.54401],[79.68862,21.54403],[79.6884,21.54421],[79.68833,21.54429],[79.68815,21.54454],[79.68815,21.54454],[79.68801,21.54479],[79.68794,21.54504],[79.68791,21.54529],[79.68791,21.54555],[79.68794,21.5458],[79.68801,21.54605],[79.68815,21.54629],[79.68816,21.5463],[79.68827,21.54655],[79.68831,21.54681],[79.68823,21.54706],[79.68818,21.54731],[79.68815,21.54756],[79.68815,21.54761],[79.68813,21.54782],[79.68813,21.54807],[79.68813,21.54832],[79.68814,21.54857],[79.68815,21.54882],[79.68815,21.54887],[79.68817,21.54908],[79.68829,21.54933],[79.6884,21.54947],[79.68848,21.54958],[79.68866,21.54976],[79.68873,21.54983],[79.68891,21.55],[79.68902,21.55008],[79.68916,21.55021],[79.68937,21.55034],[79.68941,21.55037],[79.68966,21.55041],[79.68975,21.55034],[79.68992,21.55022],[79.69003,21.55008],[79.69017,21.54992],[79.69023,21.54983],[79.69038,21.54958],[79.69042,21.54951],[79.69053,21.54933],[79.69067,21.54908],[79.69067,21.54906],[79.69081,21.54882],[79.69089,21.54857],[79.69091,21.54832],[79.69092,21.5481],[79.69093,21.54807],[79.69097,21.54782],[79.691,21.54756],[79.69106,21.54731],[79.69118,21.54706],[79.69118,21.54706],[79.69133,21.54681],[79.69143,21.54663],[79.69146,21.54655],[79.69157,21.5463],[79.69165,21.54605],[79.69168,21.54594],[79.69173,21.5458],[79.69178,21.54555],[79.69179,21.54529],[79.6917,21.54504],[79.69168,21.54502],[79.69156,21.54479],[79.69143,21.54463],[79.69136,21.54454],[79.69118,21.54437],[79.69108,21.54429],[79.69092,21.54416],[79.69069,21.54403],[79.69067,21.54402],[79.69042,21.54388],[79.69017,21.54381],[79.69,21.54378],[79.68992,21.54375],[79.68966,21.54372],[79.68941,21.54373],[79.68921,21.54378]],[[79.67681,21.54429],[79.67681,21.54429],[79.67655,21.54436],[79.6763,21.54449],[79.67624,21.54454],[79.67605,21.54469],[79.67595,21.54479],[79.6758,21.545],[79.67577,21.54504],[79.67563,21.54529],[79.67557,21.54555],[79.67555,21.54574],[79.67554,21.5458],[79.67554,21.54605],[79.67555,21.54608],[79.67558,21.5463],[79.67565,21.54655],[79.6758,21.5468],[79.6758,21.54681],[79.67599,21.54706],[79.67605,21.54713],[79.6762,21.54731],[79.67628,21.54756],[79.67611,21.54782],[79.67605,21.54792],[79.67597,21.54807],[79.67589,21.54832],[79.67583,21.54857],[79.6758,21.54875],[79.67578,21.54882],[79.67572,21.54908],[79.67566,21.54933],[79.67558,21.54958],[79.67555,21.54968],[79.67548,21.54983],[79.67542,21.55008],[79.6753,21.55034],[79.67529,21.55034],[79.67504,21.55044],[79.67479,21.55055],[79.6747,21.55059],[79.67454,21.55064],[79.67429,21.55077],[79.67419,21.55084],[79.67403,21.55097],[79.67391,21.55109],[79.67378,21.55128],[79.67374,21.55134],[79.67362,21.5516],[79.67356,21.55185],[79.67354,21.5521],[79.67355,21.55235],[79.67359,21.55261],[79.67369,21.55286],[79.67378,21.55299],[79.67386,21.55311],[79.67403,21.5533],[79.6741,21.55336],[79.67429,21.5535],[79.67454,21.55358],[79.67479,21.55357],[79.67504,21.55349],[79.67528,21.55336],[79.67529,21.55335],[79.67555,21.5532],[79.67567,21.55311],[79.6758,21.55302],[79.676,21.55286],[79.67605,21.55281],[79.67629,21.55261],[79.6763,21.55258],[79.67651,21.55235],[79.67655,21.55227],[79.67681,21.55211],[79.67706,21.55223],[79.6772,21.55235],[79.67731,21.55244],[79.67754,21.55261],[79.67756,21.55262],[79.67782,21.55277],[79.67807,21.55283],[79.67832,21.55281],[79.67857,21.55266],[79.67861,21.55261],[79.67878,21.55235],[79.67882,21.55229],[79.67889,21.5521],[79.67897,21.55185],[79.67902,21.5516],[79.67907,21.55134],[79.67908,21.55134],[79.67913,21.55109],[79.67917,21.55084],[79.67919,21.55059],[79.67918,21.55034],[79.67911,21.55008],[79.67908,21.55002],[79.67894,21.54983],[79.67882,21.54972],[79.67867,21.54958],[79.67861,21.54933],[79.67871,21.54908],[79.67878,21.54882],[79.67882,21.54857],[79.67882,21.54849],[79.67885,21.54832],[79.67882,21.5482],[79.6788,21.54807],[79.67857,21.54791],[79.67847,21.54782],[79.67832,21.54773],[79.67811,21.54756],[79.67807,21.5475],[79.678,21.54731],[79.67801,21.54706],[79.67807,21.54684],[79.67807,21.54681],[79.67814,21.54655],[79.67818,21.5463],[79.67822,21.54605],[79.67826,21.5458],[79.67828,21.54555],[79.67829,21.54529],[79.67829,21.54504],[79.67824,21.54479],[79.67811,21.54454],[79.67807,21.54449],[79.67782,21.54434],[79.67759,21.54429],[79.67756,21.54428],[79.67731,21.54423],[79.67706,21.54423],[79.67681,21.54429]],[[79.68302,21.54479],[79.68286,21.54485],[79.68261,21.545],[79.68255,21.54504],[79.68235,21.54523],[79.68229,21.54529],[79.6821,21.54545],[79.68192,21.54555],[79.68185,21.54558],[79.6816,21.54555],[79.68153,21.54555],[79.68134,21.54552],[79.68109,21.54553],[79.68104,21.54555],[79.68084,21.54559],[79.68065,21.5458],[79.68059,21.54586],[79.68049,21.54605],[79.68035,21.5463],[79.68034,21.54632],[79.68022,21.54655],[79.68008,21.54679],[79.68007,21.54681],[79.6799,21.54706],[79.67983,21.54716],[79.67971,21.54731],[79.67958,21.54754],[79.67955,21.54756],[79.67937,21.54782],[79.67933,21.54795],[79.67925,21.54807],[79.67933,21.54814],[79.67958,21.54832],[79.67958,21.54832],[79.67983,21.54841],[79.68008,21.54845],[79.68034,21.54847],[79.68059,21.54836],[79.68064,21.54832],[79.68084,21.54821],[79.68109,21.54807],[79.68109,21.54807],[79.68134,21.54794],[79.6816,21.54783],[79.68163,21.54782],[79.68185,21.54771],[79.6821,21.54762],[79.68235,21.54758],[79.68261,21.54759],[79.68286,21.54764],[79.68311,21.54773],[79.68332,21.54782],[79.68336,21.54784],[79.68361,21.5479],[79.68387,21.54787],[79.684,21.54782],[79.68412,21.54778],[79.68437,21.54764],[79.68447,21.54756],[79.68462,21.54744],[79.68475,21.54731],[79.68487,21.54714],[79.68494,21.54706],[79.68507,21.54681],[79.68513,21.54658],[79.68514,21.54655],[79.68516,21.5463],[79.68514,21.54605],[79.68513,21.54601],[79.68508,21.5458],[79.68498,21.54555],[79.68487,21.54539],[79.68481,21.54529],[79.68462,21.5451],[79.68455,21.54504],[79.68437,21.54491],[79.68412,21.5448],[79.68408,21.54479],[79.68387,21.54471],[79.68361,21.54468],[79.68336,21.54469],[79.68311,21.54475],[79.68302,21.54479]],[[79.69451,21.54681],[79.69445,21.54684],[79.69425,21.54706],[79.6942,21.54711],[79.69404,21.54731],[79.69395,21.54742],[79.69384,21.54756],[79.6937,21.54776],[79.69365,21.54782],[79.69345,21.54806],[79.69344,21.54807],[79.69319,21.54829],[79.69309,21.54832],[79.69294,21.54837],[79.69283,21.54832],[79.69269,21.54829],[79.69244,21.54819],[79.69218,21.54812],[79.69193,21.54809],[79.69168,21.54818],[79.69157,21.54832],[79.69151,21.54857],[79.69157,21.54882],[79.69168,21.54896],[79.69178,21.54908],[79.69193,21.54918],[79.69218,21.54931],[79.69224,21.54933],[79.69244,21.5494],[79.69269,21.54945],[79.69294,21.54941],[79.69305,21.54933],[79.69319,21.5492],[79.69345,21.54921],[79.6937,21.54931],[79.69374,21.54933],[79.69395,21.54943],[79.6942,21.54954],[79.69435,21.54958],[79.69445,21.54962],[79.69471,21.54965],[79.69496,21.54963],[79.69513,21.54958],[79.69521,21.54956],[79.69546,21.54946],[79.69565,21.54933],[79.69571,21.54928],[79.69592,21.54908],[79.69597,21.54901],[79.69609,21.54882],[79.69619,21.54857],[79.69622,21.54842],[79.69625,21.54832],[79.69626,21.54807],[79.69622,21.54782],[79.69622,21.5478],[79.69616,21.54756],[79.69603,21.54731],[79.69597,21.54723],[79.69583,21.54706],[79.69571,21.54695],[79.69549,21.54681],[79.69546,21.54679],[79.69521,21.54667],[79.69496,21.54661],[79.69471,21.54664],[79.69451,21.54681]],[[79.68195,21.54857],[79.68185,21.5486],[79.6816,21.5488],[79.68158,21.54882],[79.68144,21.54908],[79.68138,21.54933],[79.68138,21.54958],[79.68143,21.54983],[79.68157,21.55008],[79.6816,21.55012],[79.68185,21.5502],[79.6821,21.55016],[79.68227,21.55008],[79.68235,21.55005],[79.68261,21.54987],[79.68264,21.54983],[79.68282,21.54958],[79.68286,21.54948],[79.6829,21.54933],[79.68288,21.54908],[79.68286,21.54901],[79.68277,21.54882],[79.68261,21.54866],[79.68243,21.54857],[79.68235,21.54854],[79.6821,21.54853],[79.68195,21.54857]],[[79.68487,21.55034],[79.68487,21.55034],[79.68477,21.55059],[79.68483,21.55084],[79.68487,21.5509],[79.68513,21.55107],[79.68538,21.55106],[79.68561,21.55084],[79.68563,21.55076],[79.68566,21.55059],[79.68563,21.55051],[79.68555,21.55034],[79.68538,21.55021],[79.68513,21.55018],[79.68487,21.55034]],[[79.68742,21.55059],[79.68739,21.55066],[79.68735,21.55084],[79.68739,21.55093],[79.68765,21.55107],[79.6879,21.55104],[79.68808,21.55084],[79.68802,21.55059],[79.6879,21.55047],[79.68765,21.55043],[79.68742,21.55059]],[[79.69268,21.55084],[79.69244,21.55094],[79.69218,21.55109],[79.69218,21.55109],[79.69193,21.55126],[79.69182,21.55134],[79.69168,21.55146],[79.69153,21.5516],[79.69143,21.55172],[79.69131,21.55185],[79.69118,21.5521],[79.69118,21.5521],[79.6911,21.55235],[79.69113,21.55261],[79.69118,21.55275],[79.6912,21.55286],[79.69129,21.55311],[79.6914,21.55336],[79.69143,21.55342],[79.69148,21.55361],[79.69152,21.55387],[79.69157,21.55412],[79.69168,21.5543],[79.69171,21.55437],[79.69188,21.55462],[79.69193,21.55469],[79.69201,21.55487],[79.69211,21.55513],[79.69218,21.55532],[79.6922,21.55538],[79.69227,21.55563],[79.69234,21.55588],[79.69243,21.55613],[79.69244,21.55615],[79.69254,21.55639],[79.69269,21.55663],[79.6927,21.55664],[79.69294,21.55687],[79.69299,21.55689],[79.69319,21.55699],[79.69345,21.55704],[79.6937,21.55704],[79.69395,21.55701],[79.6942,21.55692],[79.69425,21.55689],[79.69445,21.5568],[79.69466,21.55664],[79.69471,21.5566],[79.6949,21.55639],[79.69496,21.55629],[79.69506,21.55613],[79.69516,21.55588],[79.69521,21.55563],[79.69521,21.55557],[79.69523,21.55538],[79.69521,21.55524],[79.6952,21.55513],[79.69515,21.55487],[79.69504,21.55462],[79.69496,21.55449],[79.69491,21.55437],[79.69484,21.55412],[79.69478,21.55387],[79.69475,21.55361],[79.69471,21.55344],[79.69469,21.55336],[79.69462,21.55311],[79.69452,21.55286],[79.69445,21.55268],[79.69444,21.55261],[79.6944,21.55235],[79.69437,21.5521],[79.69432,21.55185],[79.6942,21.55161],[79.6942,21.5516],[79.69405,21.55134],[79.69395,21.55123],[79.69381,21.55109],[79.6937,21.551],[79.69345,21.55086],[79.6934,21.55084],[79.69319,21.55076],[79.69294,21.55076],[79.69269,21.55084],[79.69268,21.55084]],[[79.6838,21.55311],[79.68361,21.55319],[79.6834,21.55336],[79.68336,21.55339],[79.68311,21.55361],[79.68311,21.55361],[79.68286,21.55386],[79.68285,21.55387],[79.68262,21.55412],[79.68261,21.55413],[79.68242,21.55437],[79.68235,21.5545],[79.68229,21.55462],[79.68224,21.55487],[79.68226,21.55513],[79.68235,21.55535],[79.68237,21.55538],[79.68258,21.55563],[79.68261,21.55565],[79.68286,21.55579],[79.68311,21.55585],[79.68336,21.55584],[79.68361,21.55578],[79.68387,21.55568],[79.68397,21.55563],[79.68412,21.55556],[79.68437,21.5554],[79.68441,21.55538],[79.68462,21.55523],[79.68475,21.55513],[79.68487,21.55502],[79.68502,21.55487],[79.68513,21.55474],[79.68522,21.55462],[79.68533,21.55437],[79.68537,21.55412],[79.68535,21.55387],[79.68526,21.55361],[79.68513,21.55343],[79.68506,21.55336],[79.68487,21.55321],[79.68465,21.55311],[79.68462,21.5531],[79.68437,21.55304],[79.68412,21.55303],[79.68387,21.55308],[79.6838,21.55311]],[[79.6757,21.55563],[79.67555,21.55572],[79.67537,21.55588],[79.67529,21.55597],[79.67516,21.55613],[79.67504,21.55639],[79.67504,21.5564],[79.67495,21.55664],[79.67492,21.55689],[79.67492,21.55714],[79.67498,21.55739],[79.67504,21.55754],[79.67508,21.55765],[79.67523,21.5579],[79.67529,21.55798],[79.67546,21.55815],[79.67555,21.55822],[79.6758,21.55838],[79.67587,21.5584],[79.67605,21.55848],[79.6763,21.55854],[79.67655,21.55855],[79.67681,21.55852],[79.67706,21.55843],[79.67711,21.5584],[79.67731,21.55831],[79.67752,21.55815],[79.67756,21.55811],[79.67775,21.5579],[79.67782,21.5578],[79.67791,21.55765],[79.678,21.55739],[79.67805,21.55714],[79.67805,21.55689],[79.67802,21.55664],[79.67795,21.55639],[79.67782,21.55615],[79.67781,21.55613],[79.67761,21.55588],[79.67756,21.55583],[79.67731,21.55564],[79.67728,21.55563],[79.67706,21.55551],[79.67681,21.55545],[79.67655,21.55543],[79.6763,21.55545],[79.67605,21.55549],[79.6758,21.55557],[79.6757,21.55563]],[[79.68545,21.55613],[79.68538,21.55618],[79.68517,21.55639],[79.68513,21.55645],[79.68502,21.55664],[79.68495,21.55689],[79.68491,21.55714],[79.6849,21.55739],[79.6849,21.55765],[79.68487,21.55784],[79.68487,21.5579],[79.68479,21.55815],[79.68469,21.5584],[79.68464,21.55866],[79.68469,21.55891],[79.68487,21.55912],[79.68497,21.55916],[79.68513,21.55921],[79.68538,21.55917],[79.6854,21.55916],[79.68563,21.55894],[79.68565,21.55891],[79.68576,21.55866],[79.68588,21.5584],[79.68588,21.5584],[79.68607,21.55815],[79.68613,21.5581],[79.68634,21.5579],[79.68639,21.55786],[79.68659,21.55765],[79.68664,21.55759],[79.6868,21.55739],[79.68689,21.5572],[79.68691,21.55714],[79.68695,21.55689],[79.68692,21.55664],[79.68689,21.55658],[79.68679,21.55639],[79.68664,21.55621],[79.68653,21.55613],[79.68639,21.55605],[79.68613,21.55598],[79.68588,21.55598],[79.68563,21.55604],[79.68545,21.55613]],[[79.6812,21.55689],[79.68109,21.55695],[79.68091,21.55714],[79.68084,21.55727],[79.68077,21.55739],[79.68069,21.55765],[79.68062,21.5579],[79.6806,21.55815],[79.68082,21.5584],[79.68084,21.55841],[79.68089,21.5584],[79.68109,21.55834],[79.68134,21.55819],[79.6814,21.55815],[79.6816,21.55799],[79.68168,21.5579],[79.68185,21.55767],[79.68186,21.55765],[79.68194,21.55739],[79.68191,21.55714],[79.68185,21.55703],[79.6817,21.55689],[79.6816,21.55683],[79.68134,21.55682],[79.6812,21.55689]],[[79.69037,21.55866],[79.6902,21.55891],[79.69017,21.55898],[79.6901,21.55916],[79.69003,21.55941],[79.69,21.55966],[79.68999,21.55992],[79.69004,21.56017],[79.69017,21.5604],[79.69018,21.56042],[79.69042,21.56061],[79.69067,21.56065],[79.69092,21.5606],[79.69118,21.56052],[79.69143,21.56042],[79.69143,21.56042],[79.69168,21.56029],[79.69189,21.56017],[79.69193,21.56013],[79.69218,21.55992],[79.69218,21.55991],[79.69234,21.55966],[79.69234,21.55941],[79.69228,21.55916],[79.69218,21.55897],[79.69215,21.55891],[79.69193,21.55868],[79.6919,21.55866],[79.69168,21.55855],[79.69143,21.55847],[79.69118,21.55843],[79.69092,21.55842],[79.69067,21.55846],[79.69042,21.5586],[79.69037,21.55866]],[[79.6773,21.56042],[79.67714,21.56067],[79.67731,21.56088],[79.67756,21.56087],[79.6777,21.56067],[79.67756,21.56043],[79.6775,21.56042],[79.67731,21.56041],[79.6773,21.56042]],[[79.67388,21.56168],[79.67378,21.56181],[79.67372,21.56193],[79.67367,21.56218],[79.67367,21.56244],[79.67371,21.56269],[79.67378,21.56285],[79.67381,21.56294],[79.67391,21.56319],[79.67403,21.56345],[79.67403,21.56345],[79.67413,21.5637],[79.67421,21.56395],[79.67427,21.5642],[79.67429,21.56425],[79.67434,21.56445],[79.67448,21.56471],[79.67454,21.56478],[79.67472,21.56496],[79.67479,21.56501],[79.67504,21.56515],[79.67527,21.56521],[79.67529,21.56522],[79.67555,21.56529],[79.6758,21.56542],[79.67587,21.56546],[79.67605,21.56557],[79.6763,21.5657],[79.67634,21.56571],[79.67655,21.56583],[79.67681,21.56591],[79.67706,21.56594],[79.67731,21.56594],[79.67756,21.56591],[79.67782,21.56585],[79.67807,21.56572],[79.67808,21.56571],[79.67832,21.56562],[79.67857,21.56551],[79.6787,21.56546],[79.67882,21.56543],[79.67908,21.56536],[79.67933,21.56525],[79.67939,21.56521],[79.67958,21.56512],[79.67979,21.56496],[79.67983,21.56493],[79.68006,21.56471],[79.68008,21.56468],[79.68026,21.56445],[79.68034,21.56431],[79.68041,21.5642],[79.68051,21.56395],[79.68057,21.5637],[79.68059,21.56352],[79.68061,21.56345],[79.68061,21.56319],[79.68059,21.56308],[79.68057,21.56294],[79.68048,21.56269],[79.68034,21.5625],[79.68028,21.56244],[79.68008,21.56229],[79.67983,21.56219],[79.67983,21.56218],[79.67958,21.56209],[79.67933,21.56205],[79.67908,21.56205],[79.67882,21.56208],[79.67857,21.56217],[79.67854,21.56218],[79.67832,21.56226],[79.67807,21.56232],[79.67782,21.56234],[79.67756,21.56228],[79.67744,21.56218],[79.67731,21.56208],[79.67717,21.56193],[79.67706,21.56186],[79.67687,21.56168],[79.67681,21.56164],[79.67655,21.56147],[79.6763,21.56144],[79.67605,21.56152],[79.6758,21.56161],[79.67555,21.56167],[79.67529,21.56168],[79.67504,21.56166],[79.67479,21.56164],[79.67454,21.56162],[79.67429,21.56158],[79.67403,21.56159],[79.67388,21.56168]],[[79.69019,21.56218],[79.69017,21.5622],[79.68993,21.56244],[79.68992,21.56245],[79.68973,21.56269],[79.68966,21.56279],[79.68956,21.56294],[79.68944,21.56319],[79.68941,21.56325],[79.6893,21.56345],[79.6892,21.5637],[79.68916,21.56383],[79.6891,21.56395],[79.68904,21.5642],[79.68903,21.56445],[79.68906,21.56471],[79.68915,21.56496],[79.68916,21.56497],[79.68929,21.56521],[79.68941,21.56535],[79.68953,21.56546],[79.68966,21.56557],[79.68992,21.56569],[79.68999,21.56571],[79.69017,21.56577],[79.69042,21.5658],[79.69067,21.56577],[79.69086,21.56571],[79.69092,21.5657],[79.69118,21.56564],[79.69143,21.5656],[79.69168,21.56561],[79.69193,21.56565],[79.69218,21.56571],[79.69225,21.56571],[79.69244,21.56573],[79.6926,21.56571],[79.69269,21.56571],[79.69294,21.56564],[79.69319,21.56549],[79.69323,21.56546],[79.69345,21.56526],[79.69349,21.56521],[79.69365,21.56496],[79.6937,21.56481],[79.69374,21.56471],[79.69381,21.56445],[79.69387,21.5642],[79.69394,21.56395],[79.69395,21.56389],[79.69401,21.5637],[79.69409,21.56345],[79.69415,21.56319],[79.69418,21.56294],[79.69416,21.56269],[79.6941,21.56244],[79.69395,21.5622],[79.69393,21.56218],[79.6937,21.56208],[79.69345,21.56207],[79.69319,21.56212],[79.693,21.56218],[79.69294,21.5622],[79.69269,21.56229],[79.69244,21.56234],[79.69218,21.56235],[79.69193,21.56232],[79.69168,21.56225],[79.69143,21.56219],[79.69142,21.56218],[79.69118,21.56211],[79.69092,21.56205],[79.69067,21.56202],[79.69042,21.56205],[79.69019,21.56218]]]],"type":"MultiPolygon"},"properties":{"fill":"#20a486","fill-opacity":0.9,"stroke":"#20a486","stroke-opacity":1,"stroke-width":1,"title":"40.00-40.80 "},"type":"Feature"},{"geometry":{"coordinates":[[[[79.6821,21.54853],[79.68235,21.54854],[79.68243,21.54857],[79.68261,21.54866],[79.68277,21.54882],[79.68286,21.54901],[79.68288,21.54908],[79.6829,21.54933],[79.68286,21.54948],[79.68282,21.54958],[79.68264,21.54983],[79.68261,21.54987],[79.68235,21.55005],[79.68227,21.55008],[79.6821,21.55016],[79.68185,21.5502],[79.6816,21.55012],[79.68157,21.55008],[79.68143,21.54983],[79.68138,21.54958],[79.68138,21.54933],[79.68144,21.54908],[79.68158,21.54882],[79.6816,21.5488],[79.68185,21.5486],[79.68195,21.54857],[79.6821,21.54853]]],[[[79.68513,21.55018],[79.68538,21.55021],[79.68555,21.55034],[79.68563,21.55051],[79.68566,21.55059],[79.68563,21.55076],[79.68561,21.55084],[79.68538,21.55106],[79.68513,21.55107],[79.68487,21.5509],[79.68483,21.55084],[79.68477,21.55059],[79.68487,21.55034],[79.68487,21.55034],[79.68513,21.55018]]],[[[79.68765,21.55043],[79.6879,21.55047],[79.68802,21.55059],[79.68808,21.55084],[79.6879,21.55104],[79.68765,21.55107],[79.68739,21.55093],[79.68735,21.55084],[79.68739,21.55066],[79.68742,21.55059],[79.68765,21.55043]]],[[[79.68387,21.55308],[79.68412,21.55303],[79.68437,21.55304],[79.68462,21.5531],[79.68465,21.55311],[79.68487,21.55321],[79.68506,21.55336],[79.68513,21.55343],[79.68526,21.55361],[79.68535,21.55387],[79.68537,21.55412],[79.68533,21.55437],[79.68522,21.55462],[79.68513,21.55474],[79.68502,21.55487],[79.68487,21.55502],[79.68475,21.55513],[79.68462,21.55523],[79.68441,21.55538],[79.68437,21.5554],[79.68412,21.55556],[79.68397,21.55563],[79.68387,21.55568],[79.68361,21.55578],[79.68336,21.55584],[79.68311,21.55585],[79.68286,21.55579],[79.68261,21.55565],[79.68258,21.55563],[79.68237,21.55538],[79.68235,21.55535],[79.68226,21.55513],[79.68224,21.55487],[79.68229,21.55462],[79.68235,21.5545],[79.68242,21.55437],[79.68261,21.55413],[79.68262,21.55412],[79.68285,21.55387],[79.68286,21.55386],[79.68311,21.55361],[79.68311,21.55361],[79.68336,21.55339],[79.6834,21.55336],[79.68361,21.55319],[79.6838,21.55311],[79.68387,21.55308]],[[79.68371,21.55387],[79.68361,21.55393],[79.68336,21.55411],[79.68335,21.55412],[79.68311,21.55431],[79.68306,21.55437],[79.68287,21.55462],[79.68286,21.55465],[79.6828,21.55487],[79.68286,21.55507],[79.68288,21.55513],[79.68311,21.5553],[79.68336,21.55533],[79.68361,21.55526],[79.68387,21.55513],[79.68388,21.55513],[79.68412,21.55497],[79.68426,21.55487],[79.68437,21.5548],[79.68458,21.55462],[79.68462,21.55458],[79.68477,21.55437],[79.68482,21.55412],[79.68472,21.55387],[79.68462,21.55377],[79.68437,21.55367],[79.68412,21.55369],[79.68387,21.55378],[79.68371,21.55387]]],[[[79.68563,21.55604],[79.68588,21.55598],[79.68613,21.55598],[79.68639,21.55605],[79.68653,21.55613],[79.68664,21.55621],[79.68679,21.55639],[79.68689,21.55658],[79.68692,21.55664],[79.68695,21.55689],[79.68691,21.55714],[79.68689,21.5572],[79.6868,21.55739],[79.68664,21.55759],[79.68659,21.55765],[79.68639,21.55786],[79.68634,21.5579],[79.68613,21.5581],[79.68607,21.55815],[79.68588,21.5584],[79.68588,21.5584],[79.68576,21.55866],[79.68565,21.55891],[79.68563,21.55894],[79.6854,21.55916],[79.68538,21.55917],[79.68513,21.55921],[79.68497,21.55916],[79.68487,21.55912],[79.68469,21.55891],[79.68464,21.55866],[79.68469,21.5584],[79.68479,21.55815],[79.68487,21.5579],[79.68487,21.55784],[79.6849,21.55765],[79.6849,21.55739],[79.68491,21.55714],[79.68495,21.55689],[79.68502,21.55664],[79.68513,21.55645],[79.68517,21.55639],[79.68538,21.55618],[79.68545,21.55613],[79.68563,21.55604]],[[79.68578,21.55664],[79.68563,21.55676],[79.68556,21.55689],[79.68559,21.55714],[79.68563,21.55721],[79.68588,21.55732],[79.68613,21.55723],[79.68623,21.55714],[79.68638,21.55689],[79.68622,21.55664],[79.68613,21.55659],[79.68588,21.55659],[79.68578,21.55664]]],[[[79.68134,21.55682],[79.6816,21.55683],[79.6817,21.55689],[79.68185,21.55703],[79.68191,21.55714],[79.68194,21.55739],[79.68186,21.55765],[79.68185,21.55767],[79.68168,21.5579],[79.6816,21.55799],[79.6814,21.55815],[79.68134,21.55819],[79.68109,21.55834],[79.68089,21.5584],[79.68084,21.55841],[79.68082,21.5584],[79.6806,21.55815],[79.68062,21.5579],[79.68069,21.55765],[79.68077,21.55739],[79.68084,21.55727],[79.68091,21.55714],[79.68109,21.55695],[79.6812,21.55689],[79.68134,21.55682]]],[[[79.67731,21.56041],[79.6775,21.56042],[79.67756,21.56043],[79.6777,21.56067],[79.67756,21.56087],[79.67731,21.56088],[79.67714,21.56067],[79.6773,21.56042],[79.67731,21.56041]]]],"type":"MultiPolygon"},"properties":{"fill":"#5cc863","fill-opacity":0.9,"stroke":"#5cc863","stroke-opacity":1,"stroke-width":1,"title":"40.80-41.60 "},"type":"Feature"},{"geometry":{"coordinates":[[[[79.68387,21.55378],[79.68412,21.55369],[79.68437,21.55367],[79.68462,21.55377],[79.68472,21.55387],[79.68482,21.55412],[79.68477,21.55437],[79.68462,21.55458],[79.68458,21.55462],[79.68437,21.5548],[79.68426,21.55487],[79.68412,21.55497],[79.68388,21.55513],[79.68387,21.55513],[79.68361,21.55526],[79.68336,21.55533],[79.68311,21.5553],[79.68288,21.55513],[79.68286,21.55507],[79.6828,21.55487],[79.68286,21.55465],[79.68287,21.55462],[79.68306,21.55437],[79.68311,21.55431],[79.68335,21.55412],[79.68336,21.55411],[79.68361,21.55393],[79.68371,21.55387],[79.68387,21.55378]]],[[[79.68588,21.55659],[79.68613,21.55659],[79.68622,21.55664],[79.68638,21.55689],[79.68623,21.55714],[79.68613,21.55723],[79.68588,21.55732],[79.68563,21.55721],[79.68559,21.55714],[79.68556,21.55689],[79.68563,21.55676],[79.68578,21.55664],[79.68588,21.55659]]]],"type":"MultiPolygon"},"properties":{"fill":"#c8e020","fill-opacity":0.9,"stroke":"#c8e020","stroke-opacity":1,"stroke-width":1,"title":"41.60-42.40 "},"type":"Feature"}],"type":"FeatureCollection"}