{"features":[{"geometry":{"coordinates":[[[[79.18319,21.45325],[79.1833,21.45336],[79.18319,21.45347],[79.18308,21.45336],[79.18319,21.45325]]]],"type":"MultiPolygon"},"properties":{"fill":"#481b6d","fill-opacity":0.9,"stroke":"#481b6d","stroke-opacity":1,"stroke-width":1,"title":"35.00-36.00 "},"type":"Feature"},{"geometry":{"coordinates":[[[[79.18319,21.45303],[79.18353,21.45336],[79.18319,21.4537],[79.18286,21.45336],[79.18319,21.45303]],[[79.18308,21.45336],[79.18319,21.45347],[79.1833,21.45336],[79.18319,21.45325],[79.18308,21.45336]]]],"type":"MultiPolygon"},"properties":{"fill":"#3f4788","fill-opacity":0.9,"stroke":"#3f4788","stroke-opacity":1,"stroke-width":1,"title":"36.00-37.00 "},"type":"Feature"},{"geometry":{"coordinates":[[[[79.18319,21.4528],[79.18375,21.45336],[79.18319,21.45392],[79.18263,21.45336],[79.18319,21.4528]],[[79.18286,21.45336],[79.18319,21.4537],[79.18353,21.45336],[79.18319,21.45303],[79.18286,21.45336]]],[[[79.19496,21.46675],[79.19502,21.46681],[79.19496,21.46686],[79.1949,21.46681],[79.19496,21.46675]]]],"type":"MultiPolygon"},"properties":{"fill":"#2e6e8e","fill-opacity":0.9,"stroke":"#2e6e8e","stroke-opacity":1,"stroke-width":1,"title":"37.00-38.00 "},"type":"Feature"},{"geometry":{"coordinates":[[[[79.18319,21.45258],[79.18398,21.45336],[79.18319,21.45415],[79.18241,21.45336],[79.18319,21.45258]],[[79.18263,21.45336],[79.18319,21.45392],[79.18375,21.45336],[79.18319,21.4528],[79.18263,21.45336]]],[[[79.17311,21.45607],[79.17376,21.45672],[79.17311,21.45738],[79.17246,21.45672],[79.17311,21.45607]]],[[[79.18655,21.45953],[79.18711,21.46008],[79.18655,21.46064],[79.186,21.46008],[79.18655,21.45953]]],[[[79.19496,21.46612],[79.19564,21.46681],[79.19496,21.46749],[79.19427,21.46681],[79.19496,21.46612]],[[79.1949,21.46681],[79.19496,21.46686],[79.19502,21.46681],[79.19496,21.46675],[79.1949,21.46681]]],[[[79.12941,21.46827],[79.12963,21.46849],[79.12941,21.4687],[79.1292,21.46849],[79.12941,21.46827]]],[[[79.10588,21.47972],[79.10642,21.48025],[79.10588,21.48079],[79.10535,21.48025],[79.10588,21.47972]]],[[[79.11597,21.53057],[79.11607,21.53067],[79.11597,21.53078],[79.11586,21.53067],[79.11597,21.53057]]],[[[79.12101,21.54019],[79.12158,21.54076],[79.12101,21.54132],[79.12044,21.54076],[79.12101,21.54019]]],[[[79.12941,21.54356],[79.12997,21.54412],[79.12941,21.54467],[79.12885,21.54412],[79.12941,21.54356]]],[[[79.11597,21.54636],[79.11624,21.54664],[79.11597,21.54692],[79.11567,21.54664],[79.11597,21.54636]]]],"type":"MultiPolygon"},"properties":{"fill":"#21918c","fill-opacity":0.9,"stroke":"#21918c","stroke-opacity":1,"stroke-width":1,"title":"38.00-39.00 "},"type":"Feature"},{"geometry":{"coordinates":[[[[79.10084,21.45],[79.10168,21.45],[79.10252,21.45],[79.10336,21.45],[79.1042,21.45],[79.10504,21.45],[79.10588,21.45],[79.10672,21.45],[79.10756,21.45],[79.1084,21.45],[79.10924,21.45],[79.11008,21.45],[79.11092,21.45],[79.11176,21.45],[79.11261,21.45],[79.11345,21.45],[79.11429,21.45],[79.11513,21.45],[79.11597,21.45],[79.11681,21.45],[79.11765,21.45],[79.11849,21.45],[79.11933,21.45],[79.12017,21.45],[79.12101,21.45],[79.12185,21.45],[79.12269,21.45],[79.12353,21.45],[79.12437,21.45],[79.12521,21.45],[79.12605,21.45],[79.12689,21.45],[79.12773,21.45],[79.12857,21.45],[79.12941,21.45],[79.13025,21.45],[79.13109,21.45],[79.13193,21.45],[79.13277,21.45],[79.13361,21.45],[79.13445,21.45],[79.13529,21.45],[79.13613,21.45],[79.13697,21.45],[79.13782,21.45],[79.13866,21.45],[79.1395,21.45],[79.14034,21.45],[79.14118,21.45],[79.14202,21.45],[79.14286,21.45],[79.1437,21.45],[79.14454,21.45],[79.14538,21.45],[79.14622,21.45],[79.14706,21.45],[79.1479,21.45],[79.14874,21.45],[79.14958,21.45],[79.15042,21.45],[79.15126,21.45],[79.1521,21.45],[79.15294,21.45],[79.15378,21.45],[79.15462,21.45],[79.15546,21.45],[79.1563,21.45],[79.15714,21.45],[79.15798,21.45],[79.15882,21.45],[79.15966,21.45],[79.1605,21.45],[79.16134,21.45],[79.16218,21.45],[79.16303,21.45],[79.16387,21.45],[79.16471,21.45],[79.16555,21.45],[79.16639,21.45],[79.16723,21.45],[79.16807,21.45],[79.16891,21.45],[79.16975,21.45],[79.17059,21.45],[79.17143,21.45],[79.17227,21.45],[79.17311,21.45],[79.17395,21.45],[79.17479,21.45],[79.17563,21.45],[79.17647,21.45],[79.17731,21.45],[79.17815,21.45],[79.17899,21.45],[79.17983,21.45],[79.18067,21.45],[79.18151,21.45],[79.18235,21.45],[79.18319,21.45],[79.18403,21.45],[79.18487,21.45],[79.18571,21.45],[79.18655,21.45],[79.18739,21.45],[79.18824,21.45],[79.18908,21.45],[79.18992,21.45],[79.19076,21.45],[79.1916,21.45],[79.19244,21.45],[79.19328,21.45],[79.19412,21.45],[79.19496,21.45],[79.1958,21.45],[79.19664,21.45],[79.19748,21.45],[79.19832,21.45],[79.19916,21.45],[79.2,21.45],[79.2,21.45084],[79.2,21.45168],[79.2,21.45252],[79.2,21.45336],[79.2,21.4542],[79.2,21.45504],[79.2,21.45588],[79.2,21.45672],[79.2,21.45756],[79.2,21.4584],[79.2,21.45924],[79.2,21.46008],[79.2,21.46092],[79.2,21.46176],[79.2,21.46261],[79.2,21.46345],[79.2,21.46429],[79.2,21.46513],[79.2,21.46597],[79.2,21.46681],[79.2,21.46765],[79.2,21.46849],[79.2,21.46933],[79.2,21.47017],[79.2,21.47101],[79.2,21.47185],[79.2,21.47269],[79.2,21.47353],[79.2,21.47437],[79.2,21.47521],[79.2,21.47605],[79.2,21.47689],[79.2,21.47773],[79.2,21.47857],[79.2,21.47941],[79.2,21.48025],[79.2,21.48109],[79.2,21.48193],[79.2,21.48277],[79.2,21.48361],[79.2,21.48445],[79.2,21.48529],[79.2,21.48613],[79.2,21.48697],[79.2,21.48782],[79.2,21.48866],[79.2,21.4895],[79.2,21.49034],[79.2,21.49118],[79.2,21.49202],[79.2,21.49286],[79.2,21.4937],[79.2,21.49454],[79.2,21.49538],[79.2,21.49622],[79.2,21.49706],[79.2,21.4979],[79.2,21.49874],[79.2,21.49958],[79.2,21.50042],[79.2,21.50126],[79.2,21.5021],[79.2,21.50294],[79.2,21.50378],[79.2,21.50462],[79.2,21.50546],[79.2,21.5063],[79.2,21.50714],[79.2,21.50798],[79.2,21.50882],[79.2,21.50966],[79.2,21.5105],[79.2,21.51134],[79.2,21.51218],[79.2,21.51303],[79.2,21.51387],[79.2,21.51471],[79.2,21.51555],[79.2,21.51639],[79.2,21.51723],[79.2,21.51807],[79.2,21.51891],[79.2,21.51975],[79.2,21.52059],[79.2,21.52143],[79.2,21.52227],[79.2,21.52311],[79.2,21.52395],[79.2,21.52479],[79.2,21.52563],[79.2,21.52647],[79.2,21.52731],[79.2,21.52815],[79.2,21.52899],[79.2,21.52983],[79.2,21.53067],[79.2,21.53151],[79.2,21.53235],[79.2,21.53319],[79.2,21.53403],[79.2,21.53487],[79.2,21.53571],[79.2,21.53655],[79.2,21.53739],[79.2,21.53824],[79.2,21.53908],[79.2,21.53992],[79.2,21.54076],[79.2,21.5416],[79.2,21.54244],[79.2,21.54328],[79.2,21.54412],[79.2,21.54496],[79.2,21.5458],[79.2,21.54664],[79.2,21.54748],[79.2,21.54832],[79.2,21.54916],[79.2,21.55],[79.19916,21.55],[79.19832,21.55],[79.19748,21.55],[79.19664,21.55],[79.1958,21.55],[79.19496,21.55],[79.19412,21.55],[79.19328,21.55],[79.19244,21.55],[79.1916,21.55],[79.19076,21.55],[79.18992,21.55],[79.18908,21.55],[79.18824,21.55],[79.18739,21.55],[79.18655,21.55],[79.18571,21.55],[79.18487,21.55],[79.18403,21.55],[79.18319,21.55],[79.18235,21.55],[79.18151,21.55],[79.18067,21.55],[79.17983,21.55],[79.17899,21.55],[79.17815,21.55],[79.17731,21.55],[79.17647,21.55],[79.17563,21.55],[79.17479,21.55],[79.17395,21.55],[79.17311,21.55],[79.17227,21.55],[79.17143,21.55],[79.17059,21.55],[79.16975,21.55],[79.16891,21.55],[79.16807,21.55],[79.16723,21.55],[79.16639,21.55],[79.16555,21.55],[79.16471,21.55],[79.16387,21.55],[79.16303,21.55],[79.16218,21.55],[79.16134,21.55],[79.1605,21.55],[79.15966,21.55],[79.15882,21.55],[79.15798,21.55],[79.15714,21.55],[79.1563,21.55],[79.15546,21.55],[79.15462,21.55],[79.15378,21.55],[79.15294,21.55],[79.1521,21.55],[79.15126,21.55],[79.15042,21.55],[79.14958,21.55],[79.14874,21.55],[79.1479,21.55],[79.14706,21.55],[79.14622,21.55],[79.14538,21.55],[79.14454,21.55],[79.1437,21.55],[79.14286,21.55],[79.14202,21.55],[79.14118,21.55],[79.14034,21.55],[79.1395,21.55],[79.13866,21.55],[79.13782,21.55],[79.13697,21.55],[79.13613,21.55],[79.13529,21.55],[79.13445,21.55],[79.13361,21.55],[79.13277,21.55],[79.13193,21.55],[79.13109,21.55],[79.13025,21.55],[79.12941,21.55],[79.12857,21.55],[79.12773,21.55],[79.12689,21.55],[79.12605,21.55],[79.12521,21.55],[79.12437,21.55],[79.12353,21.55],[79.12269,21.55],[79.12185,21.55],[79.12101,21.55],[79.12017,21.55],[79.11933,21.55],[79.11849,21.55],[79.11765,21.55],[79.11681,21.55],[79.11597,21.55],[79.11513,21.55],[79.11429,21.55],[79.11345,21.55],[79.11261,21.55],[79.11176,21.55],[79.11092,21.55],[79.11008,21.55],[79.10924,21.55],[79.1084,21.55],[79.10756,21.55],[79.10672,21.55],[79.10588,21.55],[79.10504,21.55],[79.1042,21.55],[79.10336,21.55],[79.10252,21.55],[79.10168,21.55],[79.10084,21.55],[79.1,21.55],[79.1,21.54916],[79.1,21.54832],[79.1,21.54748],[79.1,21.54664],[79.1,21.5458],[79.1,21.54496],[79.1,21.54412],[79.1,21.54328],[79.1,21.54244],[79.1,21.5416],[79.1,21.54076],[79.1,21.53992],[79.1,21.53908],[79.1,21.53824],[79.1,21.53739],[79.1,21.53655],[79.1,21.53571],[79.1,21.53487],[79.1,21.53403],[79.1,21.53319],[79.1,21.53235],[79.1,21.53151],[79.1,21.53067],[79.1,21.52983],[79.1,21.52899],[79.1,21.52815],[79.1,21.52731],[79.1,21.52647],[79.1,21.52563],[79.1,21.52479],[79.1,21.52395],[79.1,21.52311],[79.1,21.52227],[79.1,21.52143],[79.1,21.52059],[79.1,21.51975],[79.1,21.51891],[79.1,21.51807],[79.1,21.51723],[79.1,21.51639],[79.1,21.51555],[79.1,21.51471],[79.1,21.51387],[79.1,21.51303],[79.1,21.51218],[79.1,21.51134],[79.1,21.5105],[79.1,21.50966],[79.1,21.50882],[79.1,21.50798],[79.1,21.50714],[79.1,21.5063],[79.1,21.50546],[79.1,21.50462],[79.1,21.50378],[79.1,21.50294],[79.1,21.5021],[79.1,21.50126],[79.1,21.50042],[79.1,21.49958],[79.1,21.49874],[79.1,21.4979],[79.1,21.49706],[79.1,21.49622],[79.1,21.49538],[79.1,21.49454],[79.1,21.4937],[79.1,21.49286],[79.1,21.49202],[79.1,21.49118],[79.1,21.49034],[79.1,21.4895],[79.1,21.48866],[79.1,21.48782],[79.1,21.48697],[79.1,21.48613],[79.1,21.48529],[79.1,21.48445],[79.1,21.48361],[79.1,21.48277],[79.1,21.48193],[79.1,21.48109],[79.1,21.48025],[79.1,21.47941],[79.1,21.47857],[79.1,21.47773],[79.1,21.47689],[79.1,21.47605],[79.1,21.47521],[79.1,21.47437],[79.1,21.47353],[79.1,21.47269],[79.1,21.47185],[79.1,21.47101],[79.1,21.47017],[79.1,21.46933],[79.1,21.46849],[79.1,21.46765],[79.1,21.46681],[79.1,21.46597],[79.1,21.46513],[79.1,21.46429],[79.1,21.46345],[79.1,21.46261],[79.1,21.46176],[79.1,21.46092],[79.1,21.46008],[79.1,21.45924],[79.1,21.4584],[79.1,21.45756],[79.1,21.45672],[79.1,21.45588],[79.1,21.45504],[79.1,21.4542],[79.1,21.45336],[79.1,21.45252],[79.1,21.45168],[79.1,21.45084],[79.1,21.45],[79.10084,21.45]],[[79.18241,21.45336],[79.18319,21.45415],[79.18398,21.45336],[79.18319,21.45258],[79.18241,21.45336]],[[79.17246,21.45672],[79.17311,21.45738],[79.17376,21.45672],[79.17311,21.45607],[79.17246,21.45672]],[[79.186,21.46008],[79.18655,21.46064],[79.18711,21.46008],[79.18655,21.45953],[79.186,21.46008]],[[79.19427,21.46681],[79.19496,21.46749],[79.19564,21.46681],[79.19496,21.46612],[79.19427,21.46681]],[[79.1292,21.46849],[79.12941,21.4687],[79.12963,21.46849],[79.12941,21.46827],[79.1292,21.46849]],[[79.15111,21.46933],[79.15126,21.46947],[79.15141,21.46933],[79.15126,21.46918],[79.15111,21.46933]],[[79.10535,21.48025],[79.10588,21.48079],[79.10642,21.48025],[79.10588,21.47972],[79.10535,21.48025]],[[79.12992,21.48109],[79.13025,21.48142],[79.13058,21.48109],[79.13025,21.48076],[79.12992,21.48109]],[[79.14274,21.50462],[79.14286,21.50474],[79.14297,21.50462],[79.14286,21.50451],[79.14274,21.50462]],[[79.14481,21.50966],[79.14538,21.51023],[79.14594,21.50966],[79.14538,21.5091],[79.14481,21.50966]],[[79.11823,21.51639],[79.11849,21.51664],[79.11874,21.51639],[79.11849,21.51613],[79.11823,21.51639]],[[79.11586,21.53067],[79.11597,21.53078],[79.11607,21.53067],[79.11597,21.53057],[79.11586,21.53067]],[[79.12044,21.54076],[79.12101,21.54132],[79.12158,21.54076],[79.12101,21.54019],[79.12044,21.54076]],[[79.12885,21.54412],[79.12941,21.54467],[79.12997,21.54412],[79.12941,21.54356],[79.12885,21.54412]],[[79.11567,21.54664],[79.11597,21.54692],[79.11624,21.54664],[79.11597,21.54636],[79.11567,21.54664]]]],"type":"MultiPolygon"},"properties":{"fill":"#2db27d","fill-opacity":0.9,"stroke":"#2db27d","stroke-opacity":1,"stroke-width":1,"title":"39.00-40.00 "},"type":"Feature"},{"geometry":{"coordinates":[[[[79.15126,21.46918],[79.15141,21.46933],[79.15126,21.46947],[79.15111,21.46933],[79.15126,21.46918]]],[[[79.13025,21.48076],[79.13058,21.48109],[79.13025,21.48142],[79.12992,21.48109],[79.13025,21.48076]]],[[[79.14286,21.50451],[79.14297,21.50462],[79.14286,21.50474],[79.14274,21.50462],[79.14286,21.50451]]],[[[79.14538,21.5091],[79.14594,21.50966],[79.14538,21.51023],[79.14481,21.50966],[79.14538,21.5091]],[[79.14518,21.50966],[79.14538,21.50986],[79.14558,21.50966],[79.14538,21.50947],[79.14518,21.50966]]],[[[79.11849,21.51613],[79.11874,21.51639],[79.11849,21.51664],[79.11823,21.51639],[79.11849,21.51613]]]],"type":"MultiPolygon"},"properties":{"fill":"#73d056","fill-opacity":0.9,"stroke":"#73d056","stroke-opacity":1,"stroke-width":1,"title":"40.00-41.00 "},"type":"Feature"},{"geometry":{"coordinates":[[[[79.14538,21.50947],[79.14558,21.50966],[79.14538,21.50986],[79.14518,21.50966],[79.14538,21.50947]]]],"type":"MultiPolygon"},"properties":{"fill":"#d0e11c","fill-opacity":0.9,"stroke":"#d0e11c","stroke-opacity":1,"stroke-width":1,"title":"41.00-42.00 "},"type":"Feature"}],"type":"FeatureCollection"}