{"features":[{"geometry":{"coordinates":[[[[80.46134,21.97417],[80.46137,21.9742],[80.46134,21.97438],[80.46125,21.9742],[80.46134,21.97417]]]],"type":"MultiPolygon"},"properties":{"fill":"#481769","fill-opacity":0.9,"stroke":"#481769","stroke-opacity":1,"stroke-width":1,"title":"37.20-37.80 "},"type":"Feature"},{"geometry":{"coordinates":[[[[80.47471,21.95927],[80.47496,21.95923],[80.47521,21.95924],[80.47546,21.9593],[80.47552,21.95933],[80.47571,21.95942],[80.47595,21.95958],[80.47597,21.9596],[80.47618,21.95983],[80.47622,21.9599],[80.47632,21.96008],[80.47641,21.96034],[80.47645,21.96059],[80.47644,21.96084],[80.47638,21.96109],[80.47625,21.96134],[80.47622,21.96139],[80.47604,21.9616],[80.47597,21.96167],[80.47578,21.96185],[80.47571,21.96191],[80.47546,21.96205],[80.47521,21.96209],[80.47496,21.96207],[80.47471,21.96202],[80.47445,21.96193],[80.47429,21.96185],[80.4742,21.9618],[80.47395,21.9616],[80.47394,21.9616],[80.47377,21.96134],[80.4737,21.96112],[80.47369,21.96109],[80.47365,21.96084],[80.47364,21.96059],[80.47368,21.96034],[80.4737,21.96027],[80.47376,21.96008],[80.4739,21.95983],[80.47395,21.95976],[80.47412,21.95958],[80.4742,21.95951],[80.47445,21.95936],[80.47455,21.95933],[80.47471,21.95927]]],[[[80.45983,21.97281],[80.46008,21.97274],[80.46034,21.9727],[80.46059,21.97269],[80.46084,21.97271],[80.46109,21.97274],[80.46134,21.9728],[80.4616,21.97289],[80.46169,21.97294],[80.46185,21.97303],[80.46206,21.97319],[80.4621,21.97323],[80.46229,21.97345],[80.46235,21.97354],[80.46244,21.9737],[80.46254,21.97395],[80.4626,21.9742],[80.46261,21.97425],[80.46262,21.97445],[80.46261,21.97463],[80.4626,21.97471],[80.46253,21.97496],[80.46241,21.97521],[80.46235,21.9753],[80.46221,21.97546],[80.4621,21.97556],[80.46185,21.9757],[80.46182,21.97571],[80.4616,21.97578],[80.46134,21.9758],[80.46109,21.97576],[80.46095,21.97571],[80.46084,21.97567],[80.46059,21.97551],[80.46053,21.97546],[80.46034,21.97523],[80.46032,21.97521],[80.4602,21.97496],[80.46015,21.97471],[80.46012,21.97445],[80.46008,21.97442],[80.4599,21.9742],[80.45983,21.9741],[80.45971,21.97395],[80.45958,21.97371],[80.45957,21.9737],[80.45948,21.97345],[80.45947,21.97319],[80.45958,21.97295],[80.45959,21.97294],[80.45983,21.97281]],[[80.46125,21.9742],[80.46134,21.97438],[80.46137,21.9742],[80.46134,21.97417],[80.46125,21.9742]]]],"type":"MultiPolygon"},"properties":{"fill":"#424086","fill-opacity":0.9,"stroke":"#424086","stroke-opacity":1,"stroke-width":1,"title":"37.80-38.40 "},"type":"Feature"},{"geometry":{"coordinates":[[[[80.47445,21.95751],[80.47471,21.95744],[80.47496,21.95741],[80.47521,21.9574],[80.47546,21.95741],[80.47571,21.95744],[80.47597,21.9575],[80.47615,21.95756],[80.47622,21.95759],[80.47647,21.95769],[80.47672,21.9578],[80.47676,21.95782],[80.47697,21.95793],[80.47718,21.95807],[80.47723,21.9581],[80.47748,21.95831],[80.47749,21.95832],[80.47773,21.95857],[80.47774,21.95857],[80.47793,21.95882],[80.47798,21.9589],[80.47809,21.95908],[80.47821,21.95933],[80.47824,21.95938],[80.47831,21.95958],[80.47839,21.95983],[80.47844,21.96008],[80.47847,21.96034],[80.47848,21.96059],[80.47847,21.96084],[80.47844,21.96109],[80.47838,21.96134],[80.47831,21.9616],[80.47824,21.96178],[80.47821,21.96185],[80.47808,21.9621],[80.47798,21.96225],[80.47792,21.96235],[80.47773,21.96259],[80.47772,21.96261],[80.4775,21.96286],[80.47748,21.96288],[80.47734,21.96311],[80.47723,21.96336],[80.47723,21.96338],[80.47713,21.96361],[80.47702,21.96387],[80.47697,21.96397],[80.4769,21.96412],[80.47679,21.96437],[80.47672,21.96455],[80.47669,21.96462],[80.4766,21.96487],[80.47653,21.96513],[80.47648,21.96538],[80.47647,21.96546],[80.47645,21.96563],[80.47643,21.96588],[80.47643,21.96613],[80.47645,21.96639],[80.47647,21.96651],[80.47649,21.96664],[80.47656,21.96689],[80.47662,21.96714],[80.47664,21.96739],[80.47663,21.96765],[80.47658,21.9679],[80.4765,21.96815],[80.47647,21.96823],[80.47639,21.9684],[80.47626,21.96866],[80.47622,21.96873],[80.47611,21.96891],[80.47597,21.96912],[80.47593,21.96916],[80.47573,21.96941],[80.47571,21.96944],[80.47552,21.96966],[80.47546,21.96973],[80.4753,21.96992],[80.47521,21.97002],[80.4751,21.97017],[80.47496,21.97041],[80.47495,21.97042],[80.47484,21.97067],[80.47474,21.97092],[80.47471,21.97104],[80.47466,21.97118],[80.47459,21.97143],[80.47452,21.97168],[80.47445,21.97188],[80.47444,21.97193],[80.47436,21.97218],[80.47427,21.97244],[80.4742,21.97265],[80.47419,21.97269],[80.4741,21.97294],[80.47401,21.97319],[80.47395,21.97332],[80.4739,21.97345],[80.47377,21.9737],[80.4737,21.97383],[80.47363,21.97395],[80.47347,21.9742],[80.47345,21.97424],[80.47329,21.97445],[80.47319,21.97458],[80.47309,21.97471],[80.47294,21.97487],[80.47286,21.97496],[80.47269,21.97512],[80.47258,21.97521],[80.47244,21.97533],[80.47224,21.97546],[80.47218,21.97549],[80.47193,21.97563],[80.47171,21.97571],[80.47168,21.97573],[80.47143,21.97579],[80.47118,21.97582],[80.47092,21.97581],[80.47067,21.97577],[80.47053,21.97571],[80.47042,21.97568],[80.47017,21.97555],[80.47005,21.97546],[80.46992,21.97536],[80.46977,21.97521],[80.46966,21.9751],[80.46956,21.97496],[80.46941,21.97472],[80.4694,21.97471],[80.46928,21.97445],[80.46918,21.9742],[80.46916,21.97413],[80.4691,21.97395],[80.46904,21.9737],[80.46897,21.97345],[80.46892,21.97319],[80.46891,21.97314],[80.46887,21.97294],[80.46883,21.97269],[80.4688,21.97244],[80.46879,21.97218],[80.46883,21.97193],[80.46891,21.97175],[80.46894,21.97168],[80.46906,21.97143],[80.46916,21.97126],[80.46921,21.97118],[80.46937,21.97092],[80.46941,21.97088],[80.46961,21.97067],[80.46966,21.97064],[80.46992,21.97055],[80.47017,21.97046],[80.47028,21.97042],[80.47042,21.97038],[80.47067,21.97029],[80.47092,21.97021],[80.47106,21.97017],[80.47118,21.97013],[80.47143,21.97006],[80.47168,21.96998],[80.47187,21.96992],[80.47193,21.96989],[80.47218,21.96978],[80.4724,21.96966],[80.47244,21.96964],[80.47269,21.96941],[80.47269,21.96941],[80.47284,21.96916],[80.47291,21.96891],[80.47294,21.96872],[80.47296,21.96866],[80.47303,21.9684],[80.47304,21.96815],[80.47301,21.9679],[80.47294,21.96771],[80.47293,21.96765],[80.47284,21.96739],[80.47273,21.96714],[80.47269,21.967],[80.47267,21.96689],[80.47268,21.96664],[80.47269,21.96656],[80.47272,21.96639],[80.47277,21.96613],[80.4728,21.96588],[80.47281,21.96563],[80.47281,21.96538],[80.47278,21.96513],[80.47275,21.96487],[80.47271,21.96462],[80.47269,21.96455],[80.47263,21.96437],[80.47254,21.96412],[80.47244,21.96387],[80.47244,21.96386],[80.47233,21.96361],[80.47225,21.96336],[80.47218,21.96312],[80.47218,21.96311],[80.47213,21.96286],[80.4721,21.96261],[80.47207,21.96235],[80.47205,21.9621],[80.47204,21.96185],[80.47204,21.9616],[80.47206,21.96134],[80.47209,21.96109],[80.47215,21.96084],[80.47218,21.96059],[80.47219,21.96059],[80.47222,21.96034],[80.47227,21.96008],[80.47233,21.95983],[80.47241,21.95958],[80.47244,21.95952],[80.47251,21.95933],[80.47265,21.95908],[80.47269,21.95901],[80.47282,21.95882],[80.47294,21.95867],[80.47303,21.95857],[80.47319,21.95842],[80.47331,21.95832],[80.47345,21.95821],[80.4736,21.95807],[80.4737,21.95795],[80.47386,21.95782],[80.47395,21.95774],[80.4742,21.9576],[80.4743,21.95756],[80.47445,21.95751]],[[80.47455,21.95933],[80.47445,21.95936],[80.4742,21.95951],[80.47412,21.95958],[80.47395,21.95976],[80.4739,21.95983],[80.47376,21.96008],[80.4737,21.96027],[80.47368,21.96034],[80.47364,21.96059],[80.47365,21.96084],[80.47369,21.96109],[80.4737,21.96112],[80.47377,21.96134],[80.47394,21.9616],[80.47395,21.9616],[80.4742,21.9618],[80.47429,21.96185],[80.47445,21.96193],[80.47471,21.96202],[80.47496,21.96207],[80.47521,21.96209],[80.47546,21.96205],[80.47571,21.96191],[80.47578,21.96185],[80.47597,21.96167],[80.47604,21.9616],[80.47622,21.96139],[80.47625,21.96134],[80.47638,21.96109],[80.47644,21.96084],[80.47645,21.96059],[80.47641,21.96034],[80.47632,21.96008],[80.47622,21.9599],[80.47618,21.95983],[80.47597,21.9596],[80.47595,21.95958],[80.47571,21.95942],[80.47552,21.95933],[80.47546,21.9593],[80.47521,21.95924],[80.47496,21.95923],[80.47471,21.95927],[80.47455,21.95933]]],[[[80.45756,21.96078],[80.45782,21.96073],[80.45807,21.96074],[80.45832,21.96081],[80.45842,21.96084],[80.45857,21.96092],[80.45882,21.96107],[80.45886,21.96109],[80.45908,21.96134],[80.45908,21.96134],[80.4592,21.9616],[80.45926,21.96185],[80.4593,21.9621],[80.45933,21.96235],[80.45933,21.96236],[80.45934,21.96261],[80.45935,21.96286],[80.45936,21.96311],[80.45937,21.96336],[80.45937,21.96361],[80.45936,21.96387],[80.45934,21.96412],[80.45933,21.9642],[80.4593,21.96437],[80.45924,21.96462],[80.45917,21.96487],[80.4591,21.96513],[80.45908,21.96524],[80.45904,21.96538],[80.45897,21.96563],[80.45891,21.96588],[80.45884,21.96613],[80.45882,21.96622],[80.45878,21.96639],[80.45871,21.96664],[80.45866,21.96689],[80.45862,21.96714],[80.45859,21.96739],[80.45857,21.96764],[80.45857,21.96765],[80.45855,21.9679],[80.45852,21.96815],[80.4585,21.9684],[80.45848,21.96866],[80.45847,21.96891],[80.4585,21.96916],[80.45857,21.9694],[80.45858,21.96941],[80.45872,21.96966],[80.45882,21.96979],[80.45894,21.96992],[80.45908,21.97003],[80.45924,21.97017],[80.45933,21.97023],[80.45958,21.97041],[80.4596,21.97042],[80.45983,21.97057],[80.46,21.97067],[80.46008,21.97071],[80.46034,21.97085],[80.46048,21.97092],[80.46059,21.97098],[80.46084,21.97111],[80.46095,21.97118],[80.46109,21.97125],[80.46134,21.97139],[80.46144,21.97143],[80.4616,21.97149],[80.46185,21.97156],[80.4621,21.97165],[80.46217,21.97168],[80.46235,21.97176],[80.46261,21.97191],[80.46264,21.97193],[80.46286,21.9721],[80.46295,21.97218],[80.46311,21.97235],[80.46318,21.97244],[80.46335,21.97269],[80.46336,21.9727],[80.46349,21.97294],[80.4636,21.97319],[80.46361,21.97323],[80.4637,21.97345],[80.46378,21.9737],[80.46384,21.97395],[80.46387,21.97404],[80.4639,21.9742],[80.46395,21.97445],[80.46399,21.97471],[80.46402,21.97496],[80.46403,21.97521],[80.46403,21.97546],[80.46402,21.97571],[80.46398,21.97597],[80.46392,21.97622],[80.46387,21.97638],[80.46383,21.97647],[80.46371,21.97672],[80.46361,21.97687],[80.46354,21.97697],[80.46336,21.97717],[80.4633,21.97723],[80.46311,21.97738],[80.46294,21.97748],[80.46286,21.97753],[80.46261,21.97763],[80.46235,21.9777],[80.46215,21.97773],[80.4621,21.97774],[80.46185,21.97775],[80.4616,21.97773],[80.46157,21.97773],[80.46134,21.97771],[80.46109,21.97766],[80.46084,21.97761],[80.46059,21.97754],[80.46038,21.97748],[80.46034,21.97746],[80.46008,21.97738],[80.45983,21.97728],[80.4597,21.97723],[80.45958,21.97718],[80.45933,21.97706],[80.45914,21.97697],[80.45908,21.97694],[80.45882,21.97682],[80.45864,21.97672],[80.45857,21.97669],[80.45832,21.97656],[80.45815,21.97647],[80.45807,21.97643],[80.45782,21.9763],[80.45766,21.97622],[80.45756,21.97617],[80.45731,21.97605],[80.45715,21.97597],[80.45706,21.97592],[80.45681,21.9758],[80.45663,21.97571],[80.45655,21.97568],[80.4563,21.97555],[80.45614,21.97546],[80.45605,21.97541],[80.4558,21.97526],[80.45571,21.97521],[80.45555,21.97509],[80.45537,21.97496],[80.45529,21.97489],[80.4551,21.97471],[80.45504,21.97464],[80.45488,21.97445],[80.45479,21.97429],[80.45475,21.9742],[80.45467,21.97395],[80.45464,21.9737],[80.45465,21.97345],[80.45469,21.97319],[80.45473,21.97294],[80.45475,21.97269],[80.45476,21.97244],[80.45475,21.97218],[80.45474,21.97193],[80.45476,21.97168],[80.45479,21.97152],[80.45481,21.97143],[80.45486,21.97118],[80.45489,21.97092],[80.45491,21.97067],[80.45492,21.97042],[80.4549,21.97017],[80.45487,21.96992],[80.45482,21.96966],[80.45479,21.96954],[80.45476,21.96941],[80.45469,21.96916],[80.45461,21.96891],[80.45454,21.96867],[80.45453,21.96866],[80.45446,21.9684],[80.45439,21.96815],[80.45434,21.9679],[80.45432,21.96765],[80.45433,21.96739],[80.45438,21.96714],[80.45446,21.96689],[80.45454,21.96674],[80.45459,21.96664],[80.45476,21.96639],[80.45479,21.96635],[80.45498,21.96613],[80.45504,21.96602],[80.45516,21.96588],[80.45504,21.96572],[80.455,21.96563],[80.45482,21.96538],[80.45479,21.96533],[80.45466,21.96513],[80.45454,21.96491],[80.45452,21.96487],[80.45438,21.96462],[80.45429,21.96444],[80.45425,21.96437],[80.45413,21.96412],[80.45404,21.96387],[80.45403,21.96384],[80.45398,21.96361],[80.45394,21.96336],[80.45395,21.96311],[80.45399,21.96286],[80.45403,21.96274],[80.45408,21.96261],[80.45419,21.96235],[80.45429,21.96215],[80.45431,21.9621],[80.45446,21.96185],[80.45454,21.96175],[80.45468,21.9616],[80.45479,21.96149],[80.45499,21.96134],[80.45504,21.96131],[80.45529,21.96123],[80.45555,21.96123],[80.4558,21.96123],[80.45605,21.96121],[80.4563,21.96117],[80.45655,21.96112],[80.45664,21.96109],[80.45681,21.96105],[80.45706,21.96097],[80.45731,21.96087],[80.45737,21.96084],[80.45756,21.96078]],[[80.45959,21.97294],[80.45958,21.97295],[80.45947,21.97319],[80.45948,21.97345],[80.45957,21.9737],[80.45958,21.97371],[80.45971,21.97395],[80.45983,21.9741],[80.4599,21.9742],[80.46008,21.97442],[80.46012,21.97445],[80.46015,21.97471],[80.4602,21.97496],[80.46032,21.97521],[80.46034,21.97523],[80.46053,21.97546],[80.46059,21.97551],[80.46084,21.97567],[80.46095,21.97571],[80.46109,21.97576],[80.46134,21.9758],[80.4616,21.97578],[80.46182,21.97571],[80.46185,21.9757],[80.4621,21.97556],[80.46221,21.97546],[80.46235,21.9753],[80.46241,21.97521],[80.46253,21.97496],[80.4626,21.97471],[80.46261,21.97463],[80.46262,21.97445],[80.46261,21.97425],[80.4626,21.9742],[80.46254,21.97395],[80.46244,21.9737],[80.46235,21.97354],[80.46229,21.97345],[80.4621,21.97323],[80.46206,21.97319],[80.46185,21.97303],[80.46169,21.97294],[80.4616,21.97289],[80.46134,21.9728],[80.46109,21.97274],[80.46084,21.97271],[80.46059,21.97269],[80.46034,21.9727],[80.46008,21.97274],[80.45983,21.97281],[80.45959,21.97294]]]],"type":"MultiPolygon"},"properties":{"fill":"#33638d","fill-opacity":0.9,"stroke":"#33638d","stroke-opacity":1,"stroke-width":1,"title":"38.40-39.00 "},"type":"Feature"},{"geometry":{"coordinates":[[[[80.45025,21.95],[80.4505,21.95],[80.45076,21.95],[80.45101,21.95],[80.45126,21.95],[80.45151,21.95],[80.45176,21.95],[80.45202,21.95],[80.45227,21.95],[80.45252,21.95],[80.45277,21.95],[80.45303,21.95],[80.45328,21.95],[80.45353,21.95],[80.45378,21.95],[80.45403,21.95],[80.45429,21.95],[80.45454,21.95],[80.45479,21.95],[80.45504,21.95],[80.45529,21.95],[80.45555,21.95],[80.4558,21.95],[80.45605,21.95],[80.4563,21.95],[80.45655,21.95],[80.45681,21.95],[80.45706,21.95],[80.45731,21.95],[80.45756,21.95],[80.45782,21.95],[80.45807,21.95],[80.45832,21.95],[80.45857,21.95],[80.45882,21.95],[80.45908,21.95],[80.45933,21.95],[80.45958,21.95],[80.45983,21.95],[80.46008,21.95],[80.46034,21.95],[80.46059,21.95],[80.46084,21.95],[80.46109,21.95],[80.46134,21.95],[80.4616,21.95],[80.46185,21.95],[80.4621,21.95],[80.46235,21.95],[80.46261,21.95],[80.46286,21.95],[80.46311,21.95],[80.46336,21.95],[80.46361,21.95],[80.46387,21.95],[80.46412,21.95],[80.46437,21.95],[80.46462,21.95],[80.46487,21.95],[80.46513,21.95],[80.46538,21.95],[80.46563,21.95],[80.46588,21.95],[80.46613,21.95],[80.46639,21.95],[80.46664,21.95],[80.46689,21.95],[80.46714,21.95],[80.46739,21.95],[80.46765,21.95],[80.4679,21.95],[80.46815,21.95],[80.4684,21.95],[80.46866,21.95],[80.46891,21.95],[80.46916,21.95],[80.46941,21.95],[80.46966,21.95],[80.46992,21.95],[80.47017,21.95],[80.47042,21.95],[80.47067,21.95],[80.47092,21.95],[80.47118,21.95],[80.47143,21.95],[80.47168,21.95],[80.47193,21.95],[80.47218,21.95],[80.47244,21.95],[80.47269,21.95],[80.47294,21.95],[80.47319,21.95],[80.47345,21.95],[80.4737,21.95],[80.47395,21.95],[80.4742,21.95],[80.47445,21.95],[80.47471,21.95],[80.47496,21.95],[80.47521,21.95],[80.47546,21.95],[80.47571,21.95],[80.47597,21.95],[80.47622,21.95],[80.47647,21.95],[80.47672,21.95],[80.47697,21.95],[80.47723,21.95],[80.47748,21.95],[80.47773,21.95],[80.47798,21.95],[80.47824,21.95],[80.47849,21.95],[80.47874,21.95],[80.47899,21.95],[80.47924,21.95],[80.4795,21.95],[80.47975,21.95],[80.48,21.95],[80.48,21.95025],[80.48,21.9505],[80.48,21.95076],[80.48,21.95101],[80.48,21.95126],[80.48,21.95151],[80.48,21.95176],[80.48,21.95202],[80.48,21.95227],[80.48,21.95252],[80.48,21.95277],[80.48,21.95303],[80.48,21.95328],[80.48,21.95353],[80.48,21.95378],[80.48,21.95403],[80.48,21.95429],[80.48,21.95454],[80.48,21.95479],[80.48,21.95504],[80.48,21.95529],[80.48,21.95555],[80.48,21.9558],[80.48,21.95605],[80.48,21.9563],[80.48,21.95655],[80.48,21.95681],[80.48,21.95706],[80.48,21.95731],[80.48,21.95756],[80.48,21.95782],[80.48,21.95807],[80.48,21.95832],[80.48,21.95857],[80.48,21.95882],[80.48,21.95908],[80.48,21.95933],[80.48,21.95958],[80.48,21.95983],[80.48,21.96008],[80.48,21.96034],[80.48,21.96059],[80.48,21.96084],[80.48,21.96109],[80.48,21.96134],[80.48,21.9616],[80.48,21.96185],[80.48,21.9621],[80.48,21.96235],[80.48,21.96261],[80.48,21.96286],[80.48,21.96311],[80.48,21.96336],[80.48,21.96361],[80.48,21.96387],[80.48,21.96412],[80.48,21.96437],[80.48,21.96462],[80.48,21.96487],[80.48,21.96513],[80.48,21.96538],[80.48,21.96563],[80.48,21.96588],[80.48,21.96613],[80.48,21.96639],[80.48,21.96664],[80.48,21.96689],[80.48,21.96714],[80.48,21.96739],[80.48,21.96765],[80.48,21.9679],[80.48,21.96815],[80.48,21.9684],[80.48,21.96866],[80.48,21.96891],[80.48,21.96916],[80.48,21.96941],[80.48,21.96966],[80.48,21.96992],[80.48,21.97017],[80.48,21.97042],[80.48,21.97067],[80.48,21.97092],[80.48,21.97118],[80.48,21.97143],[80.48,21.97168],[80.48,21.97193],[80.48,21.97218],[80.48,21.97244],[80.48,21.97269],[80.48,21.97294],[80.48,21.97319],[80.48,21.97345],[80.48,21.9737],[80.48,21.97395],[80.48,21.9742],[80.48,21.97445],[80.48,21.97471],[80.48,21.97496],[80.48,21.97521],[80.48,21.97546],[80.48,21.97571],[80.48,21.97597],[80.48,21.97622],[80.48,21.97647],[80.48,21.97672],[80.48,21.97697],[80.48,21.97723],[80.48,21.97748],[80.48,21.97773],[80.48,21.97798],[80.48,21.97824],[80.48,21.97849],[80.48,21.97874],[80.48,21.97899],[80.48,21.97924],[80.48,21.9795],[80.48,21.97975],[80.48,21.98],[80.47975,21.98],[80.4795,21.98],[80.47924,21.98],[80.47899,21.98],[80.47874,21.98],[80.47849,21.98],[80.47824,21.98],[80.47798,21.98],[80.47773,21.98],[80.47748,21.98],[80.47723,21.98],[80.47697,21.98],[80.47672,21.98],[80.47647,21.98],[80.47622,21.98],[80.47597,21.98],[80.47571,21.98],[80.47546,21.98],[80.47521,21.98],[80.47496,21.98],[80.47471,21.98],[80.47445,21.98],[80.4742,21.98],[80.47395,21.98],[80.4737,21.98],[80.47345,21.98],[80.47319,21.98],[80.47294,21.98],[80.47269,21.98],[80.47244,21.98],[80.47218,21.98],[80.47193,21.98],[80.47168,21.98],[80.47143,21.98],[80.47118,21.98],[80.47092,21.98],[80.47067,21.98],[80.47042,21.98],[80.47017,21.98],[80.46992,21.98],[80.46966,21.98],[80.46941,21.98],[80.46916,21.98],[80.46891,21.98],[80.46866,21.98],[80.4684,21.98],[80.46815,21.98],[80.4679,21.98],[80.46765,21.98],[80.46739,21.98],[80.46714,21.98],[80.46689,21.98],[80.46664,21.98],[80.46639,21.98],[80.46613,21.98],[80.46588,21.98],[80.46563,21.98],[80.46538,21.98],[80.46513,21.98],[80.46487,21.98],[80.46462,21.98],[80.46437,21.98],[80.46412,21.98],[80.46387,21.98],[80.46361,21.98],[80.46336,21.98],[80.46311,21.98],[80.46286,21.98],[80.46261,21.98],[80.46235,21.98],[80.4621,21.98],[80.46185,21.98],[80.4616,21.98],[80.46134,21.98],[80.46109,21.98],[80.46084,21.98],[80.46059,21.98],[80.46034,21.98],[80.46008,21.98],[80.45983,21.98],[80.45958,21.98],[80.45933,21.98],[80.45908,21.98],[80.45882,21.98],[80.45857,21.98],[80.45832,21.98],[80.45807,21.98],[80.45782,21.98],[80.45756,21.98],[80.45731,21.98],[80.45706,21.98],[80.45681,21.98],[80.45655,21.98],[80.4563,21.98],[80.45605,21.98],[80.4558,21.98],[80.45555,21.98],[80.45529,21.98],[80.45504,21.98],[80.45479,21.98],[80.45454,21.98],[80.45429,21.98],[80.45403,21.98],[80.45378,21.98],[80.45353,21.98],[80.45328,21.98],[80.45303,21.98],[80.45277,21.98],[80.45252,21.98],[80.45227,21.98],[80.45202,21.98],[80.45176,21.98],[80.45151,21.98],[80.45126,21.98],[80.45101,21.98],[80.45076,21.98],[80.4505,21.98],[80.45025,21.98],[80.45,21.98],[80.45,21.97975],[80.45,21.9795],[80.45,21.97924],[80.45,21.97899],[80.45,21.97874],[80.45,21.97849],[80.45,21.97824],[80.45,21.97798],[80.45,21.97773],[80.45,21.97748],[80.45,21.97723],[80.45,21.97697],[80.45,21.97672],[80.45,21.97647],[80.45,21.97622],[80.45,21.97597],[80.45,21.97571],[80.45,21.97546],[80.45,21.97521],[80.45,21.97496],[80.45,21.97471],[80.45,21.97445],[80.45,21.9742],[80.45,21.97395],[80.45,21.9737],[80.45,21.97345],[80.45,21.97319],[80.45,21.97294],[80.45,21.97269],[80.45,21.97244],[80.45,21.97218],[80.45,21.97193],[80.45,21.97168],[80.45,21.97143],[80.45,21.97118],[80.45,21.97092],[80.45,21.97067],[80.45,21.97042],[80.45,21.97017],[80.45,21.96992],[80.45,21.96966],[80.45,21.96941],[80.45,21.96916],[80.45,21.96891],[80.45,21.96866],[80.45,21.9684],[80.45,21.96815],[80.45,21.9679],[80.45,21.96765],[80.45,21.96739],[80.45,21.96714],[80.45,21.96689],[80.45,21.96664],[80.45,21.96639],[80.45,21.96613],[80.45,21.96588],[80.45,21.96563],[80.45,21.96538],[80.45,21.96513],[80.45,21.96487],[80.45,21.96462],[80.45,21.96437],[80.45,21.96412],[80.45,21.96387],[80.45,21.96361],[80.45,21.96336],[80.45,21.96311],[80.45,21.96286],[80.45,21.96261],[80.45,21.96235],[80.45,21.9621],[80.45,21.96185],[80.45,21.9616],[80.45,21.96134],[80.45,21.96109],[80.45,21.96084],[80.45,21.96059],[80.45,21.96034],[80.45,21.96008],[80.45,21.95983],[80.45,21.95958],[80.45,21.95933],[80.45,21.95908],[80.45,21.95882],[80.45,21.95857],[80.45,21.95832],[80.45,21.95807],[80.45,21.95782],[80.45,21.95756],[80.45,21.95731],[80.45,21.95706],[80.45,21.95681],[80.45,21.95655],[80.45,21.9563],[80.45,21.95605],[80.45,21.9558],[80.45,21.95555],[80.45,21.95529],[80.45,21.95504],[80.45,21.95479],[80.45,21.95454],[80.45,21.95429],[80.45,21.95403],[80.45,21.95378],[80.45,21.95353],[80.45,21.95328],[80.45,21.95303],[80.45,21.95277],[80.45,21.95252],[80.45,21.95227],[80.45,21.95202],[80.45,21.95176],[80.45,21.95151],[80.45,21.95126],[80.45,21.95101],[80.45,21.95076],[80.45,21.9505],[80.45,21.95025],[80.45,21.95],[80.45025,21.95]],[[80.46734,21.95202],[80.46714,21.95203],[80.46689,21.95206],[80.46664,21.95209],[80.46639,21.95213],[80.46613,21.95217],[80.46588,21.95223],[80.4657,21.95227],[80.46563,21.95228],[80.46538,21.95235],[80.46513,21.95242],[80.46487,21.95249],[80.46477,21.95252],[80.46462,21.95257],[80.46437,21.95265],[80.46412,21.95274],[80.46402,21.95277],[80.46387,21.95283],[80.46361,21.95293],[80.46337,21.95303],[80.46336,21.95303],[80.46311,21.95313],[80.46286,21.95327],[80.46284,21.95328],[80.46261,21.95346],[80.46254,21.95353],[80.46235,21.95376],[80.46234,21.95378],[80.46222,21.95403],[80.46214,21.95429],[80.4621,21.95449],[80.46209,21.95454],[80.46206,21.95479],[80.46204,21.95504],[80.46203,21.95529],[80.46205,21.95555],[80.46209,21.9558],[80.4621,21.95588],[80.46213,21.95605],[80.46214,21.9563],[80.4621,21.95653],[80.4621,21.95655],[80.46201,21.95681],[80.46189,21.95706],[80.46185,21.95713],[80.46173,21.95731],[80.4616,21.9575],[80.46155,21.95756],[80.46135,21.95782],[80.46134,21.95782],[80.46119,21.95807],[80.46109,21.95825],[80.46106,21.95832],[80.46096,21.95857],[80.46087,21.95882],[80.46084,21.9589],[80.46078,21.95908],[80.46071,21.95933],[80.46067,21.95958],[80.46064,21.95983],[80.46062,21.96008],[80.46061,21.96034],[80.46061,21.96059],[80.46061,21.96084],[80.46061,21.96109],[80.46061,21.96134],[80.46061,21.9616],[80.46061,21.96185],[80.46061,21.9621],[80.46061,21.96235],[80.46061,21.96261],[80.46061,21.96286],[80.46061,21.96311],[80.46061,21.96336],[80.4606,21.96361],[80.46059,21.96386],[80.46059,21.96387],[80.46057,21.96412],[80.46054,21.96437],[80.46052,21.96462],[80.4605,21.96487],[80.46048,21.96513],[80.46045,21.96538],[80.46042,21.96563],[80.46041,21.96588],[80.46039,21.96613],[80.4604,21.96639],[80.46041,21.96664],[80.46045,21.96689],[80.46051,21.96714],[80.46058,21.96739],[80.46059,21.96741],[80.46067,21.96765],[80.46078,21.9679],[80.46084,21.96801],[80.46092,21.96815],[80.46109,21.96836],[80.46113,21.9684],[80.46134,21.96858],[80.46145,21.96866],[80.4616,21.96874],[80.46185,21.96887],[80.46194,21.96891],[80.4621,21.96899],[80.46235,21.96912],[80.46244,21.96916],[80.46261,21.96925],[80.46286,21.96937],[80.46296,21.96941],[80.46311,21.96949],[80.46336,21.96961],[80.46348,21.96966],[80.46361,21.96974],[80.46387,21.96988],[80.46394,21.96992],[80.46412,21.97005],[80.46427,21.97017],[80.46437,21.97028],[80.46448,21.97042],[80.46462,21.97064],[80.46464,21.97067],[80.46477,21.97092],[80.46486,21.97118],[80.46487,21.97123],[80.46494,21.97143],[80.46501,21.97168],[80.46505,21.97193],[80.46508,21.97218],[80.4651,21.97244],[80.46512,21.97269],[80.46513,21.9727],[80.46516,21.97294],[80.46522,21.97319],[80.4653,21.97345],[80.46538,21.97364],[80.4654,21.9737],[80.46555,21.97395],[80.46563,21.97409],[80.46572,21.9742],[80.46588,21.97441],[80.46594,21.97445],[80.46613,21.97466],[80.4662,21.97471],[80.46639,21.97486],[80.4666,21.97496],[80.46664,21.97498],[80.46681,21.97496],[80.46689,21.97495],[80.46705,21.97471],[80.46714,21.97453],[80.46716,21.97445],[80.46722,21.9742],[80.46726,21.97395],[80.46728,21.9737],[80.46729,21.97345],[80.46727,21.97319],[80.46723,21.97294],[80.46717,21.97269],[80.46714,21.97258],[80.4671,21.97244],[80.467,21.97218],[80.46691,21.97193],[80.46689,21.97188],[80.46679,21.97168],[80.46668,21.97143],[80.46664,21.97134],[80.46655,21.97118],[80.46644,21.97092],[80.46639,21.9708],[80.46632,21.97067],[80.46619,21.97042],[80.46613,21.97031],[80.46604,21.97017],[80.46588,21.96997],[80.46583,21.96992],[80.46566,21.96966],[80.46563,21.96956],[80.46559,21.96941],[80.46562,21.96916],[80.46563,21.96913],[80.46569,21.96891],[80.46577,21.96866],[80.46587,21.9684],[80.46588,21.96838],[80.46598,21.96815],[80.46609,21.9679],[80.46613,21.96781],[80.46626,21.96765],[80.46639,21.96748],[80.46651,21.96739],[80.46664,21.96731],[80.46685,21.96714],[80.46689,21.96711],[80.46705,21.96689],[80.46714,21.96674],[80.46719,21.96664],[80.46728,21.96639],[80.46736,21.96613],[80.46739,21.966],[80.46742,21.96588],[80.46748,21.96563],[80.46755,21.96538],[80.46763,21.96513],[80.46765,21.96507],[80.46772,21.96487],[80.46781,21.96462],[80.4679,21.96441],[80.46791,21.96437],[80.46801,21.96412],[80.46811,21.96387],[80.46815,21.96377],[80.46822,21.96361],[80.46833,21.96336],[80.4684,21.96319],[80.46845,21.96311],[80.46859,21.96286],[80.46866,21.96274],[80.46875,21.96261],[80.46891,21.96238],[80.46892,21.96235],[80.46911,21.9621],[80.46916,21.96203],[80.46931,21.96185],[80.46941,21.96174],[80.46955,21.9616],[80.46966,21.9615],[80.46984,21.96134],[80.46992,21.96127],[80.47013,21.96109],[80.47017,21.96106],[80.47042,21.96084],[80.47042,21.96084],[80.47063,21.96059],[80.47067,21.96051],[80.47075,21.96034],[80.47076,21.96008],[80.47067,21.95984],[80.47067,21.95983],[80.47047,21.95958],[80.47042,21.95953],[80.47026,21.95933],[80.47017,21.95913],[80.47015,21.95908],[80.47017,21.95894],[80.47018,21.95882],[80.47035,21.95857],[80.47042,21.95849],[80.47061,21.95832],[80.47067,21.95827],[80.47091,21.95807],[80.47092,21.95806],[80.47118,21.95784],[80.47121,21.95782],[80.47143,21.9576],[80.47147,21.95756],[80.47168,21.95733],[80.4717,21.95731],[80.47192,21.95706],[80.47193,21.95704],[80.47212,21.95681],[80.47218,21.95671],[80.47229,21.95655],[80.47244,21.95631],[80.47244,21.9563],[80.47256,21.95605],[80.47265,21.9558],[80.47269,21.95562],[80.47271,21.95555],[80.47272,21.95529],[80.47269,21.95504],[80.47269,21.95504],[80.47261,21.95479],[80.4725,21.95454],[80.47244,21.95442],[80.47237,21.95429],[80.47224,21.95403],[80.47218,21.95395],[80.47208,21.95378],[80.47193,21.9536],[80.47188,21.95353],[80.47168,21.95333],[80.47163,21.95328],[80.47143,21.9531],[80.47133,21.95303],[80.47118,21.95291],[80.47096,21.95277],[80.47092,21.95275],[80.47067,21.95261],[80.4705,21.95252],[80.47042,21.95248],[80.47017,21.95237],[80.46992,21.95228],[80.4699,21.95227],[80.46966,21.95219],[80.46941,21.95212],[80.46916,21.95207],[80.46891,21.95203],[80.46879,21.95202],[80.46866,21.952],[80.4684,21.95198],[80.46815,21.95198],[80.4679,21.95198],[80.46765,21.95199],[80.46739,21.95201],[80.46734,21.95202]],[[80.45495,21.95454],[80.45479,21.95458],[80.45454,21.95468],[80.45434,21.95479],[80.45429,21.95482],[80.45403,21.95499],[80.45398,21.95504],[80.45378,21.95522],[80.45371,21.95529],[80.45353,21.95552],[80.45351,21.95555],[80.45335,21.9558],[80.45328,21.95595],[80.45323,21.95605],[80.45313,21.9563],[80.45306,21.95655],[80.45303,21.95673],[80.45301,21.95681],[80.45298,21.95706],[80.45298,21.95731],[80.453,21.95756],[80.45303,21.95766],[80.45306,21.95782],[80.45316,21.95807],[80.45328,21.95828],[80.4533,21.95832],[80.4535,21.95857],[80.45353,21.9586],[80.45377,21.95882],[80.45378,21.95883],[80.45403,21.95901],[80.45413,21.95908],[80.45429,21.95916],[80.45454,21.95929],[80.45462,21.95933],[80.45479,21.9594],[80.45504,21.95949],[80.45526,21.95958],[80.45529,21.95959],[80.45555,21.95968],[80.4558,21.95976],[80.45605,21.95983],[80.45606,21.95983],[80.4563,21.95989],[80.45655,21.95992],[80.45681,21.95994],[80.45706,21.95992],[80.45731,21.95989],[80.45756,21.95983],[80.45757,21.95983],[80.45782,21.95975],[80.45807,21.95964],[80.45819,21.95958],[80.45832,21.95948],[80.45851,21.95933],[80.45857,21.95924],[80.45869,21.95908],[80.45878,21.95882],[80.45879,21.95857],[80.45873,21.95832],[80.4586,21.95807],[80.45857,21.95803],[80.45841,21.95782],[80.45832,21.95771],[80.45811,21.95756],[80.45807,21.95753],[80.45782,21.95742],[80.45756,21.95737],[80.45749,21.95731],[80.45753,21.95706],[80.45756,21.95688],[80.45758,21.95681],[80.45759,21.95655],[80.45756,21.95642],[80.45755,21.9563],[80.45744,21.95605],[80.45733,21.9558],[80.45731,21.95569],[80.45729,21.95555],[80.45719,21.95529],[80.45706,21.95511],[80.457,21.95504],[80.45681,21.95487],[80.45669,21.95479],[80.45655,21.9547],[80.4563,21.95458],[80.45615,21.95454],[80.45605,21.9545],[80.4558,21.95446],[80.45555,21.95445],[80.45529,21.95447],[80.45504,21.95451],[80.45495,21.95454]],[[80.4743,21.95756],[80.4742,21.9576],[80.47395,21.95774],[80.47386,21.95782],[80.4737,21.95795],[80.4736,21.95807],[80.47345,21.95821],[80.47331,21.95832],[80.47319,21.95842],[80.47303,21.95857],[80.47294,21.95867],[80.47282,21.95882],[80.47269,21.95901],[80.47265,21.95908],[80.47251,21.95933],[80.47244,21.95952],[80.47241,21.95958],[80.47233,21.95983],[80.47227,21.96008],[80.47222,21.96034],[80.47219,21.96059],[80.47218,21.96059],[80.47215,21.96084],[80.47209,21.96109],[80.47206,21.96134],[80.47204,21.9616],[80.47204,21.96185],[80.47205,21.9621],[80.47207,21.96235],[80.4721,21.96261],[80.47213,21.96286],[80.47218,21.96311],[80.47218,21.96312],[80.47225,21.96336],[80.47233,21.96361],[80.47244,21.96386],[80.47244,21.96387],[80.47254,21.96412],[80.47263,21.96437],[80.47269,21.96455],[80.47271,21.96462],[80.47275,21.96487],[80.47278,21.96513],[80.47281,21.96538],[80.47281,21.96563],[80.4728,21.96588],[80.47277,21.96613],[80.47272,21.96639],[80.47269,21.96656],[80.47268,21.96664],[80.47267,21.96689],[80.47269,21.967],[80.47273,21.96714],[80.47284,21.96739],[80.47293,21.96765],[80.47294,21.96771],[80.47301,21.9679],[80.47304,21.96815],[80.47303,21.9684],[80.47296,21.96866],[80.47294,21.96872],[80.47291,21.96891],[80.47284,21.96916],[80.47269,21.96941],[80.47269,21.96941],[80.47244,21.96964],[80.4724,21.96966],[80.47218,21.96978],[80.47193,21.96989],[80.47187,21.96992],[80.47168,21.96998],[80.47143,21.97006],[80.47118,21.97013],[80.47106,21.97017],[80.47092,21.97021],[80.47067,21.97029],[80.47042,21.97038],[80.47028,21.97042],[80.47017,21.97046],[80.46992,21.97055],[80.46966,21.97064],[80.46961,21.97067],[80.46941,21.97088],[80.46937,21.97092],[80.46921,21.97118],[80.46916,21.97126],[80.46906,21.97143],[80.46894,21.97168],[80.46891,21.97175],[80.46883,21.97193],[80.46879,21.97218],[80.4688,21.97244],[80.46883,21.97269],[80.46887,21.97294],[80.46891,21.97314],[80.46892,21.97319],[80.46897,21.97345],[80.46904,21.9737],[80.4691,21.97395],[80.46916,21.97413],[80.46918,21.9742],[80.46928,21.97445],[80.4694,21.97471],[80.46941,21.97472],[80.46956,21.97496],[80.46966,21.9751],[80.46977,21.97521],[80.46992,21.97536],[80.47005,21.97546],[80.47017,21.97555],[80.47042,21.97568],[80.47053,21.97571],[80.47067,21.97577],[80.47092,21.97581],[80.47118,21.97582],[80.47143,21.97579],[80.47168,21.97573],[80.47171,21.97571],[80.47193,21.97563],[80.47218,21.97549],[80.47224,21.97546],[80.47244,21.97533],[80.47258,21.97521],[80.47269,21.97512],[80.47286,21.97496],[80.47294,21.97487],[80.47309,21.97471],[80.47319,21.97458],[80.47329,21.97445],[80.47345,21.97424],[80.47347,21.9742],[80.47363,21.97395],[80.4737,21.97383],[80.47377,21.9737],[80.4739,21.97345],[80.47395,21.97332],[80.47401,21.97319],[80.4741,21.97294],[80.47419,21.97269],[80.4742,21.97265],[80.47427,21.97244],[80.47436,21.97218],[80.47444,21.97193],[80.47445,21.97188],[80.47452,21.97168],[80.47459,21.97143],[80.47466,21.97118],[80.47471,21.97104],[80.47474,21.97092],[80.47484,21.97067],[80.47495,21.97042],[80.47496,21.97041],[80.4751,21.97017],[80.47521,21.97002],[80.4753,21.96992],[80.47546,21.96973],[80.47552,21.96966],[80.47571,21.96944],[80.47573,21.96941],[80.47593,21.96916],[80.47597,21.96912],[80.47611,21.96891],[80.47622,21.96873],[80.47626,21.96866],[80.47639,21.9684],[80.47647,21.96823],[80.4765,21.96815],[80.47658,21.9679],[80.47663,21.96765],[80.47664,21.96739],[80.47662,21.96714],[80.47656,21.96689],[80.47649,21.96664],[80.47647,21.96651],[80.47645,21.96639],[80.47643,21.96613],[80.47643,21.96588],[80.47645,21.96563],[80.47647,21.96546],[80.47648,21.96538],[80.47653,21.96513],[80.4766,21.96487],[80.47669,21.96462],[80.47672,21.96455],[80.47679,21.96437],[80.4769,21.96412],[80.47697,21.96397],[80.47702,21.96387],[80.47713,21.96361],[80.47723,21.96338],[80.47723,21.96336],[80.47734,21.96311],[80.47748,21.96288],[80.4775,21.96286],[80.47772,21.96261],[80.47773,21.96259],[80.47792,21.96235],[80.47798,21.96225],[80.47808,21.9621],[80.47821,21.96185],[80.47824,21.96178],[80.47831,21.9616],[80.47838,21.96134],[80.47844,21.96109],[80.47847,21.96084],[80.47848,21.96059],[80.47847,21.96034],[80.47844,21.96008],[80.47839,21.95983],[80.47831,21.95958],[80.47824,21.95938],[80.47821,21.95933],[80.47809,21.95908],[80.47798,21.9589],[80.47793,21.95882],[80.47774,21.95857],[80.47773,21.95857],[80.47749,21.95832],[80.47748,21.95831],[80.47723,21.9581],[80.47718,21.95807],[80.47697,21.95793],[80.47676,21.95782],[80.47672,21.9578],[80.47647,21.95769],[80.47622,21.95759],[80.47615,21.95756],[80.47597,21.9575],[80.47571,21.95744],[80.47546,21.95741],[80.47521,21.9574],[80.47496,21.95741],[80.47471,21.95744],[80.47445,21.95751],[80.4743,21.95756]],[[80.45737,21.96084],[80.45731,21.96087],[80.45706,21.96097],[80.45681,21.96105],[80.45664,21.96109],[80.45655,21.96112],[80.4563,21.96117],[80.45605,21.96121],[80.4558,21.96123],[80.45555,21.96123],[80.45529,21.96123],[80.45504,21.96131],[80.45499,21.96134],[80.45479,21.96149],[80.45468,21.9616],[80.45454,21.96175],[80.45446,21.96185],[80.45431,21.9621],[80.45429,21.96215],[80.45419,21.96235],[80.45408,21.96261],[80.45403,21.96274],[80.45399,21.96286],[80.45395,21.96311],[80.45394,21.96336],[80.45398,21.96361],[80.45403,21.96384],[80.45404,21.96387],[80.45413,21.96412],[80.45425,21.96437],[80.45429,21.96444],[80.45438,21.96462],[80.45452,21.96487],[80.45454,21.96491],[80.45466,21.96513],[80.45479,21.96533],[80.45482,21.96538],[80.455,21.96563],[80.45504,21.96572],[80.45516,21.96588],[80.45504,21.96602],[80.45498,21.96613],[80.45479,21.96635],[80.45476,21.96639],[80.45459,21.96664],[80.45454,21.96674],[80.45446,21.96689],[80.45438,21.96714],[80.45433,21.96739],[80.45432,21.96765],[80.45434,21.9679],[80.45439,21.96815],[80.45446,21.9684],[80.45453,21.96866],[80.45454,21.96867],[80.45461,21.96891],[80.45469,21.96916],[80.45476,21.96941],[80.45479,21.96954],[80.45482,21.96966],[80.45487,21.96992],[80.4549,21.97017],[80.45492,21.97042],[80.45491,21.97067],[80.45489,21.97092],[80.45486,21.97118],[80.45481,21.97143],[80.45479,21.97152],[80.45476,21.97168],[80.45474,21.97193],[80.45475,21.97218],[80.45476,21.97244],[80.45475,21.97269],[80.45473,21.97294],[80.45469,21.97319],[80.45465,21.97345],[80.45464,21.9737],[80.45467,21.97395],[80.45475,21.9742],[80.45479,21.97429],[80.45488,21.97445],[80.45504,21.97464],[80.4551,21.97471],[80.45529,21.97489],[80.45537,21.97496],[80.45555,21.97509],[80.45571,21.97521],[80.4558,21.97526],[80.45605,21.97541],[80.45614,21.97546],[80.4563,21.97555],[80.45655,21.97568],[80.45663,21.97571],[80.45681,21.9758],[80.45706,21.97592],[80.45715,21.97597],[80.45731,21.97605],[80.45756,21.97617],[80.45766,21.97622],[80.45782,21.9763],[80.45807,21.97643],[80.45815,21.97647],[80.45832,21.97656],[80.45857,21.97669],[80.45864,21.97672],[80.45882,21.97682],[80.45908,21.97694],[80.45914,21.97697],[80.45933,21.97706],[80.45958,21.97718],[80.4597,21.97723],[80.45983,21.97728],[80.46008,21.97738],[80.46034,21.97746],[80.46038,21.97748],[80.46059,21.97754],[80.46084,21.97761],[80.46109,21.97766],[80.46134,21.97771],[80.46157,21.97773],[80.4616,21.97773],[80.46185,21.97775],[80.4621,21.97774],[80.46215,21.97773],[80.46235,21.9777],[80.46261,21.97763],[80.46286,21.97753],[80.46294,21.97748],[80.46311,21.97738],[80.4633,21.97723],[80.46336,21.97717],[80.46354,21.97697],[80.46361,21.97687],[80.46371,21.97672],[80.46383,21.97647],[80.46387,21.97638],[80.46392,21.97622],[80.46398,21.97597],[80.46402,21.97571],[80.46403,21.97546],[80.46403,21.97521],[80.46402,21.97496],[80.46399,21.97471],[80.46395,21.97445],[80.4639,21.9742],[80.46387,21.97404],[80.46384,21.97395],[80.46378,21.9737],[80.4637,21.97345],[80.46361,21.97323],[80.4636,21.97319],[80.46349,21.97294],[80.46336,21.9727],[80.46335,21.97269],[80.46318,21.97244],[80.46311,21.97235],[80.46295,21.97218],[80.46286,21.9721],[80.46264,21.97193],[80.46261,21.97191],[80.46235,21.97176],[80.46217,21.97168],[80.4621,21.97165],[80.46185,21.97156],[80.4616,21.97149],[80.46144,21.97143],[80.46134,21.97139],[80.46109,21.97125],[80.46095,21.97118],[80.46084,21.97111],[80.46059,21.97098],[80.46048,21.97092],[80.46034,21.97085],[80.46008,21.97071],[80.46,21.97067],[80.45983,21.97057],[80.4596,21.97042],[80.45958,21.97041],[80.45933,21.97023],[80.45924,21.97017],[80.45908,21.97003],[80.45894,21.96992],[80.45882,21.96979],[80.45872,21.96966],[80.45858,21.96941],[80.45857,21.9694],[80.4585,21.96916],[80.45847,21.96891],[80.45848,21.96866],[80.4585,21.9684],[80.45852,21.96815],[80.45855,21.9679],[80.45857,21.96765],[80.45857,21.96764],[80.45859,21.96739],[80.45862,21.96714],[80.45866,21.96689],[80.45871,21.96664],[80.45878,21.96639],[80.45882,21.96622],[80.45884,21.96613],[80.45891,21.96588],[80.45897,21.96563],[80.45904,21.96538],[80.45908,21.96524],[80.4591,21.96513],[80.45917,21.96487],[80.45924,21.96462],[80.4593,21.96437],[80.45933,21.9642],[80.45934,21.96412],[80.45936,21.96387],[80.45937,21.96361],[80.45937,21.96336],[80.45936,21.96311],[80.45935,21.96286],[80.45934,21.96261],[80.45933,21.96236],[80.45933,21.96235],[80.4593,21.9621],[80.45926,21.96185],[80.4592,21.9616],[80.45908,21.96134],[80.45908,21.96134],[80.45886,21.96109],[80.45882,21.96107],[80.45857,21.96092],[80.45842,21.96084],[80.45832,21.96081],[80.45807,21.96074],[80.45782,21.96073],[80.45756,21.96078],[80.45737,21.96084]],[[80.47008,21.96664],[80.46992,21.96673],[80.46966,21.96689],[80.46966,21.96689],[80.46941,21.96709],[80.46935,21.96714],[80.46916,21.96737],[80.46913,21.96739],[80.469,21.96765],[80.46895,21.9679],[80.46899,21.96815],[80.46916,21.96835],[80.46923,21.9684],[80.46941,21.96847],[80.46966,21.96852],[80.46992,21.96855],[80.47017,21.96856],[80.47042,21.96855],[80.47067,21.96852],[80.47092,21.96846],[80.47108,21.9684],[80.47118,21.96837],[80.47143,21.96824],[80.47155,21.96815],[80.47168,21.96807],[80.47188,21.9679],[80.47193,21.96786],[80.47212,21.96765],[80.47218,21.96759],[80.47228,21.96739],[80.47234,21.96714],[80.4722,21.96689],[80.47218,21.96687],[80.47193,21.96668],[80.47186,21.96664],[80.47168,21.96653],[80.47143,21.96645],[80.47118,21.96641],[80.47092,21.96641],[80.47067,21.96644],[80.47042,21.9665],[80.47017,21.9666],[80.47008,21.96664]]]],"type":"MultiPolygon"},"properties":{"fill":"#26818e","fill-opacity":0.9,"stroke":"#26818e","stroke-opacity":1,"stroke-width":1,"title":"39.00-39.60 "},"type":"Feature"},{"geometry":{"coordinates":[[[[80.46739,21.95201],[80.46765,21.95199],[80.4679,21.95198],[80.46815,21.95198],[80.4684,21.95198],[80.46866,21.952],[80.46879,21.95202],[80.46891,21.95203],[80.46916,21.95207],[80.46941,21.95212],[80.46966,21.95219],[80.4699,21.95227],[80.46992,21.95228],[80.47017,21.95237],[80.47042,21.95248],[80.4705,21.95252],[80.47067,21.95261],[80.47092,21.95275],[80.47096,21.95277],[80.47118,21.95291],[80.47133,21.95303],[80.47143,21.9531],[80.47163,21.95328],[80.47168,21.95333],[80.47188,21.95353],[80.47193,21.9536],[80.47208,21.95378],[80.47218,21.95395],[80.47224,21.95403],[80.47237,21.95429],[80.47244,21.95442],[80.4725,21.95454],[80.47261,21.95479],[80.47269,21.95504],[80.47269,21.95504],[80.47272,21.95529],[80.47271,21.95555],[80.47269,21.95562],[80.47265,21.9558],[80.47256,21.95605],[80.47244,21.9563],[80.47244,21.95631],[80.47229,21.95655],[80.47218,21.95671],[80.47212,21.95681],[80.47193,21.95704],[80.47192,21.95706],[80.4717,21.95731],[80.47168,21.95733],[80.47147,21.95756],[80.47143,21.9576],[80.47121,21.95782],[80.47118,21.95784],[80.47092,21.95806],[80.47091,21.95807],[80.47067,21.95827],[80.47061,21.95832],[80.47042,21.95849],[80.47035,21.95857],[80.47018,21.95882],[80.47017,21.95894],[80.47015,21.95908],[80.47017,21.95913],[80.47026,21.95933],[80.47042,21.95953],[80.47047,21.95958],[80.47067,21.95983],[80.47067,21.95984],[80.47076,21.96008],[80.47075,21.96034],[80.47067,21.96051],[80.47063,21.96059],[80.47042,21.96084],[80.47042,21.96084],[80.47017,21.96106],[80.47013,21.96109],[80.46992,21.96127],[80.46984,21.96134],[80.46966,21.9615],[80.46955,21.9616],[80.46941,21.96174],[80.46931,21.96185],[80.46916,21.96203],[80.46911,21.9621],[80.46892,21.96235],[80.46891,21.96238],[80.46875,21.96261],[80.46866,21.96274],[80.46859,21.96286],[80.46845,21.96311],[80.4684,21.96319],[80.46833,21.96336],[80.46822,21.96361],[80.46815,21.96377],[80.46811,21.96387],[80.46801,21.96412],[80.46791,21.96437],[80.4679,21.96441],[80.46781,21.96462],[80.46772,21.96487],[80.46765,21.96507],[80.46763,21.96513],[80.46755,21.96538],[80.46748,21.96563],[80.46742,21.96588],[80.46739,21.966],[80.46736,21.96613],[80.46728,21.96639],[80.46719,21.96664],[80.46714,21.96674],[80.46705,21.96689],[80.46689,21.96711],[80.46685,21.96714],[80.46664,21.96731],[80.46651,21.96739],[80.46639,21.96748],[80.46626,21.96765],[80.46613,21.96781],[80.46609,21.9679],[80.46598,21.96815],[80.46588,21.96838],[80.46587,21.9684],[80.46577,21.96866],[80.46569,21.96891],[80.46563,21.96913],[80.46562,21.96916],[80.46559,21.96941],[80.46563,21.96956],[80.46566,21.96966],[80.46583,21.96992],[80.46588,21.96997],[80.46604,21.97017],[80.46613,21.97031],[80.46619,21.97042],[80.46632,21.97067],[80.46639,21.9708],[80.46644,21.97092],[80.46655,21.97118],[80.46664,21.97134],[80.46668,21.97143],[80.46679,21.97168],[80.46689,21.97188],[80.46691,21.97193],[80.467,21.97218],[80.4671,21.97244],[80.46714,21.97258],[80.46717,21.97269],[80.46723,21.97294],[80.46727,21.97319],[80.46729,21.97345],[80.46728,21.9737],[80.46726,21.97395],[80.46722,21.9742],[80.46716,21.97445],[80.46714,21.97453],[80.46705,21.97471],[80.46689,21.97495],[80.46681,21.97496],[80.46664,21.97498],[80.4666,21.97496],[80.46639,21.97486],[80.4662,21.97471],[80.46613,21.97466],[80.46594,21.97445],[80.46588,21.97441],[80.46572,21.9742],[80.46563,21.97409],[80.46555,21.97395],[80.4654,21.9737],[80.46538,21.97364],[80.4653,21.97345],[80.46522,21.97319],[80.46516,21.97294],[80.46513,21.9727],[80.46512,21.97269],[80.4651,21.97244],[80.46508,21.97218],[80.46505,21.97193],[80.46501,21.97168],[80.46494,21.97143],[80.46487,21.97123],[80.46486,21.97118],[80.46477,21.97092],[80.46464,21.97067],[80.46462,21.97064],[80.46448,21.97042],[80.46437,21.97028],[80.46427,21.97017],[80.46412,21.97005],[80.46394,21.96992],[80.46387,21.96988],[80.46361,21.96974],[80.46348,21.96966],[80.46336,21.96961],[80.46311,21.96949],[80.46296,21.96941],[80.46286,21.96937],[80.46261,21.96925],[80.46244,21.96916],[80.46235,21.96912],[80.4621,21.96899],[80.46194,21.96891],[80.46185,21.96887],[80.4616,21.96874],[80.46145,21.96866],[80.46134,21.96858],[80.46113,21.9684],[80.46109,21.96836],[80.46092,21.96815],[80.46084,21.96801],[80.46078,21.9679],[80.46067,21.96765],[80.46059,21.96741],[80.46058,21.96739],[80.46051,21.96714],[80.46045,21.96689],[80.46041,21.96664],[80.4604,21.96639],[80.46039,21.96613],[80.46041,21.96588],[80.46042,21.96563],[80.46045,21.96538],[80.46048,21.96513],[80.4605,21.96487],[80.46052,21.96462],[80.46054,21.96437],[80.46057,21.96412],[80.46059,21.96387],[80.46059,21.96386],[80.4606,21.96361],[80.46061,21.96336],[80.46061,21.96311],[80.46061,21.96286],[80.46061,21.96261],[80.46061,21.96235],[80.46061,21.9621],[80.46061,21.96185],[80.46061,21.9616],[80.46061,21.96134],[80.46061,21.96109],[80.46061,21.96084],[80.46061,21.96059],[80.46061,21.96034],[80.46062,21.96008],[80.46064,21.95983],[80.46067,21.95958],[80.46071,21.95933],[80.46078,21.95908],[80.46084,21.9589],[80.46087,21.95882],[80.46096,21.95857],[80.46106,21.95832],[80.46109,21.95825],[80.46119,21.95807],[80.46134,21.95782],[80.46135,21.95782],[80.46155,21.95756],[80.4616,21.9575],[80.46173,21.95731],[80.46185,21.95713],[80.46189,21.95706],[80.46201,21.95681],[80.4621,21.95655],[80.4621,21.95653],[80.46214,21.9563],[80.46213,21.95605],[80.4621,21.95588],[80.46209,21.9558],[80.46205,21.95555],[80.46203,21.95529],[80.46204,21.95504],[80.46206,21.95479],[80.46209,21.95454],[80.4621,21.95449],[80.46214,21.95429],[80.46222,21.95403],[80.46234,21.95378],[80.46235,21.95376],[80.46254,21.95353],[80.46261,21.95346],[80.46284,21.95328],[80.46286,21.95327],[80.46311,21.95313],[80.46336,21.95303],[80.46337,21.95303],[80.46361,21.95293],[80.46387,21.95283],[80.46402,21.95277],[80.46412,21.95274],[80.46437,21.95265],[80.46462,21.95257],[80.46477,21.95252],[80.46487,21.95249],[80.46513,21.95242],[80.46538,21.95235],[80.46563,21.95228],[80.4657,21.95227],[80.46588,21.95223],[80.46613,21.95217],[80.46639,21.95213],[80.46664,21.95209],[80.46689,21.95206],[80.46714,21.95203],[80.46734,21.95202],[80.46739,21.95201]],[[80.46662,21.95429],[80.46639,21.95441],[80.46619,21.95454],[80.46613,21.95458],[80.46588,21.95478],[80.46587,21.95479],[80.46563,21.95504],[80.46563,21.95504],[80.4654,21.95529],[80.46538,21.95532],[80.4652,21.95555],[80.46513,21.95564],[80.465,21.9558],[80.46487,21.95597],[80.46482,21.95605],[80.46465,21.9563],[80.46462,21.95635],[80.46449,21.95655],[80.46437,21.95675],[80.46434,21.95681],[80.46418,21.95706],[80.46412,21.95716],[80.46402,21.95731],[80.46387,21.95755],[80.46386,21.95756],[80.46367,21.95782],[80.46361,21.95788],[80.46347,21.95807],[80.46336,21.95818],[80.46324,21.95832],[80.46311,21.95845],[80.463,21.95857],[80.46286,21.95871],[80.46275,21.95882],[80.46261,21.95896],[80.46249,21.95908],[80.46235,21.95921],[80.46225,21.95933],[80.46211,21.95958],[80.4621,21.95961],[80.46201,21.95983],[80.46191,21.96008],[80.46185,21.96029],[80.46184,21.96034],[80.46178,21.96059],[80.46173,21.96084],[80.46169,21.96109],[80.46165,21.96134],[80.46162,21.9616],[80.4616,21.96185],[80.4616,21.96187],[80.46158,21.9621],[80.46157,21.96235],[80.46156,21.96261],[80.46156,21.96286],[80.46155,21.96311],[80.46154,21.96336],[80.46153,21.96361],[80.46154,21.96387],[80.46155,21.96412],[80.46157,21.96437],[80.4616,21.96456],[80.4616,21.96462],[80.46164,21.96487],[80.46169,21.96513],[80.46173,21.96538],[80.46177,21.96563],[80.46181,21.96588],[80.46184,21.96613],[80.46185,21.96632],[80.46185,21.96639],[80.46187,21.96664],[80.46193,21.96689],[80.4621,21.96708],[80.46232,21.96714],[80.46235,21.96715],[80.4625,21.96714],[80.46261,21.96713],[80.46286,21.96706],[80.46311,21.96699],[80.46336,21.96692],[80.46347,21.96689],[80.46361,21.96685],[80.46387,21.96678],[80.46412,21.96669],[80.46423,21.96664],[80.46437,21.96659],[80.46462,21.96648],[80.46481,21.96639],[80.46487,21.96636],[80.46513,21.96622],[80.46525,21.96613],[80.46538,21.96605],[80.46559,21.96588],[80.46563,21.96585],[80.46586,21.96563],[80.46588,21.96561],[80.46608,21.96538],[80.46613,21.96531],[80.46627,21.96513],[80.46639,21.96495],[80.46644,21.96487],[80.4666,21.96462],[80.46664,21.96456],[80.46677,21.96437],[80.46689,21.96416],[80.46691,21.96412],[80.46705,21.96387],[80.46714,21.96365],[80.46716,21.96361],[80.46726,21.96336],[80.46735,21.96311],[80.46739,21.963],[80.46745,21.96286],[80.46756,21.96261],[80.46765,21.96237],[80.46765,21.96235],[80.46775,21.9621],[80.46785,21.96185],[80.4679,21.96168],[80.46793,21.9616],[80.468,21.96134],[80.46806,21.96109],[80.4681,21.96084],[80.46812,21.96059],[80.46812,21.96034],[80.46808,21.96008],[80.46802,21.95983],[80.46793,21.95958],[80.4679,21.95952],[80.4678,21.95933],[80.46765,21.95914],[80.46759,21.95908],[80.46739,21.95892],[80.46729,21.95882],[80.46714,21.95871],[80.46701,21.95857],[80.46689,21.95846],[80.4668,21.95832],[80.46678,21.95807],[80.46689,21.95799],[80.46714,21.95802],[80.46726,21.95807],[80.46739,21.95815],[80.46765,21.95827],[80.46777,21.95832],[80.4679,21.95841],[80.46815,21.95847],[80.4684,21.95845],[80.46866,21.95835],[80.46869,21.95832],[80.46891,21.95818],[80.46902,21.95807],[80.46916,21.95793],[80.46925,21.95782],[80.46941,21.95761],[80.46945,21.95756],[80.46962,21.95731],[80.46966,21.95725],[80.46979,21.95706],[80.46992,21.95685],[80.46995,21.95681],[80.47009,21.95655],[80.47017,21.95637],[80.4702,21.9563],[80.47027,21.95605],[80.47031,21.9558],[80.47027,21.95555],[80.47017,21.95536],[80.47012,21.95529],[80.46992,21.95504],[80.46992,21.95504],[80.46966,21.95479],[80.46966,21.95479],[80.46941,21.95459],[80.46933,21.95454],[80.46916,21.95444],[80.46891,21.95432],[80.46883,21.95429],[80.46866,21.95422],[80.4684,21.95414],[80.46815,21.95408],[80.4679,21.95405],[80.46765,21.95405],[80.46739,21.95407],[80.46714,21.95411],[80.46689,21.95418],[80.46664,21.95428],[80.46662,21.95429]]],[[[80.45504,21.95451],[80.45529,21.95447],[80.45555,21.95445],[80.4558,21.95446],[80.45605,21.9545],[80.45615,21.95454],[80.4563,21.95458],[80.45655,21.9547],[80.45669,21.95479],[80.45681,21.95487],[80.457,21.95504],[80.45706,21.95511],[80.45719,21.95529],[80.45729,21.95555],[80.45731,21.95569],[80.45733,21.9558],[80.45744,21.95605],[80.45755,21.9563],[80.45756,21.95642],[80.45759,21.95655],[80.45758,21.95681],[80.45756,21.95688],[80.45753,21.95706],[80.45749,21.95731],[80.45756,21.95737],[80.45782,21.95742],[80.45807,21.95753],[80.45811,21.95756],[80.45832,21.95771],[80.45841,21.95782],[80.45857,21.95803],[80.4586,21.95807],[80.45873,21.95832],[80.45879,21.95857],[80.45878,21.95882],[80.45869,21.95908],[80.45857,21.95924],[80.45851,21.95933],[80.45832,21.95948],[80.45819,21.95958],[80.45807,21.95964],[80.45782,21.95975],[80.45757,21.95983],[80.45756,21.95983],[80.45731,21.95989],[80.45706,21.95992],[80.45681,21.95994],[80.45655,21.95992],[80.4563,21.95989],[80.45606,21.95983],[80.45605,21.95983],[80.4558,21.95976],[80.45555,21.95968],[80.45529,21.95959],[80.45526,21.95958],[80.45504,21.95949],[80.45479,21.9594],[80.45462,21.95933],[80.45454,21.95929],[80.45429,21.95916],[80.45413,21.95908],[80.45403,21.95901],[80.45378,21.95883],[80.45377,21.95882],[80.45353,21.9586],[80.4535,21.95857],[80.4533,21.95832],[80.45328,21.95828],[80.45316,21.95807],[80.45306,21.95782],[80.45303,21.95766],[80.453,21.95756],[80.45298,21.95731],[80.45298,21.95706],[80.45301,21.95681],[80.45303,21.95673],[80.45306,21.95655],[80.45313,21.9563],[80.45323,21.95605],[80.45328,21.95595],[80.45335,21.9558],[80.45351,21.95555],[80.45353,21.95552],[80.45371,21.95529],[80.45378,21.95522],[80.45398,21.95504],[80.45403,21.95499],[80.45429,21.95482],[80.45434,21.95479],[80.45454,21.95468],[80.45479,21.95458],[80.45495,21.95454],[80.45504,21.95451]],[[80.45677,21.95832],[80.45657,21.95857],[80.45664,21.95882],[80.45681,21.95896],[80.45706,21.95905],[80.45731,21.95898],[80.45745,21.95882],[80.45745,21.95857],[80.45731,21.9584],[80.45713,21.95832],[80.45706,21.95829],[80.45681,21.95831],[80.45677,21.95832]]],[[[80.47017,21.9666],[80.47042,21.9665],[80.47067,21.96644],[80.47092,21.96641],[80.47118,21.96641],[80.47143,21.96645],[80.47168,21.96653],[80.47186,21.96664],[80.47193,21.96668],[80.47218,21.96687],[80.4722,21.96689],[80.47234,21.96714],[80.47228,21.96739],[80.47218,21.96759],[80.47212,21.96765],[80.47193,21.96786],[80.47188,21.9679],[80.47168,21.96807],[80.47155,21.96815],[80.47143,21.96824],[80.47118,21.96837],[80.47108,21.9684],[80.47092,21.96846],[80.47067,21.96852],[80.47042,21.96855],[80.47017,21.96856],[80.46992,21.96855],[80.46966,21.96852],[80.46941,21.96847],[80.46923,21.9684],[80.46916,21.96835],[80.46899,21.96815],[80.46895,21.9679],[80.469,21.96765],[80.46913,21.96739],[80.46916,21.96737],[80.46935,21.96714],[80.46941,21.96709],[80.46966,21.96689],[80.46966,21.96689],[80.46992,21.96673],[80.47008,21.96664],[80.47017,21.9666]]]],"type":"MultiPolygon"},"properties":{"fill":"#1fa088","fill-opacity":0.9,"stroke":"#1fa088","stroke-opacity":1,"stroke-width":1,"title":"39.60-40.20 "},"type":"Feature"},{"geometry":{"coordinates":[[[[80.46664,21.95428],[80.46689,21.95418],[80.46714,21.95411],[80.46739,21.95407],[80.46765,21.95405],[80.4679,21.95405],[80.46815,21.95408],[80.4684,21.95414],[80.46866,21.95422],[80.46883,21.95429],[80.46891,21.95432],[80.46916,21.95444],[80.46933,21.95454],[80.46941,21.95459],[80.46966,21.95479],[80.46966,21.95479],[80.46992,21.95504],[80.46992,21.95504],[80.47012,21.95529],[80.47017,21.95536],[80.47027,21.95555],[80.47031,21.9558],[80.47027,21.95605],[80.4702,21.9563],[80.47017,21.95637],[80.47009,21.95655],[80.46995,21.95681],[80.46992,21.95685],[80.46979,21.95706],[80.46966,21.95725],[80.46962,21.95731],[80.46945,21.95756],[80.46941,21.95761],[80.46925,21.95782],[80.46916,21.95793],[80.46902,21.95807],[80.46891,21.95818],[80.46869,21.95832],[80.46866,21.95835],[80.4684,21.95845],[80.46815,21.95847],[80.4679,21.95841],[80.46777,21.95832],[80.46765,21.95827],[80.46739,21.95815],[80.46726,21.95807],[80.46714,21.95802],[80.46689,21.95799],[80.46678,21.95807],[80.4668,21.95832],[80.46689,21.95846],[80.46701,21.95857],[80.46714,21.95871],[80.46729,21.95882],[80.46739,21.95892],[80.46759,21.95908],[80.46765,21.95914],[80.4678,21.95933],[80.4679,21.95952],[80.46793,21.95958],[80.46802,21.95983],[80.46808,21.96008],[80.46812,21.96034],[80.46812,21.96059],[80.4681,21.96084],[80.46806,21.96109],[80.468,21.96134],[80.46793,21.9616],[80.4679,21.96168],[80.46785,21.96185],[80.46775,21.9621],[80.46765,21.96235],[80.46765,21.96237],[80.46756,21.96261],[80.46745,21.96286],[80.46739,21.963],[80.46735,21.96311],[80.46726,21.96336],[80.46716,21.96361],[80.46714,21.96365],[80.46705,21.96387],[80.46691,21.96412],[80.46689,21.96416],[80.46677,21.96437],[80.46664,21.96456],[80.4666,21.96462],[80.46644,21.96487],[80.46639,21.96495],[80.46627,21.96513],[80.46613,21.96531],[80.46608,21.96538],[80.46588,21.96561],[80.46586,21.96563],[80.46563,21.96585],[80.46559,21.96588],[80.46538,21.96605],[80.46525,21.96613],[80.46513,21.96622],[80.46487,21.96636],[80.46481,21.96639],[80.46462,21.96648],[80.46437,21.96659],[80.46423,21.96664],[80.46412,21.96669],[80.46387,21.96678],[80.46361,21.96685],[80.46347,21.96689],[80.46336,21.96692],[80.46311,21.96699],[80.46286,21.96706],[80.46261,21.96713],[80.4625,21.96714],[80.46235,21.96715],[80.46232,21.96714],[80.4621,21.96708],[80.46193,21.96689],[80.46187,21.96664],[80.46185,21.96639],[80.46185,21.96632],[80.46184,21.96613],[80.46181,21.96588],[80.46177,21.96563],[80.46173,21.96538],[80.46169,21.96513],[80.46164,21.96487],[80.4616,21.96462],[80.4616,21.96456],[80.46157,21.96437],[80.46155,21.96412],[80.46154,21.96387],[80.46153,21.96361],[80.46154,21.96336],[80.46155,21.96311],[80.46156,21.96286],[80.46156,21.96261],[80.46157,21.96235],[80.46158,21.9621],[80.4616,21.96187],[80.4616,21.96185],[80.46162,21.9616],[80.46165,21.96134],[80.46169,21.96109],[80.46173,21.96084],[80.46178,21.96059],[80.46184,21.96034],[80.46185,21.96029],[80.46191,21.96008],[80.46201,21.95983],[80.4621,21.95961],[80.46211,21.95958],[80.46225,21.95933],[80.46235,21.95921],[80.46249,21.95908],[80.46261,21.95896],[80.46275,21.95882],[80.46286,21.95871],[80.463,21.95857],[80.46311,21.95845],[80.46324,21.95832],[80.46336,21.95818],[80.46347,21.95807],[80.46361,21.95788],[80.46367,21.95782],[80.46386,21.95756],[80.46387,21.95755],[80.46402,21.95731],[80.46412,21.95716],[80.46418,21.95706],[80.46434,21.95681],[80.46437,21.95675],[80.46449,21.95655],[80.46462,21.95635],[80.46465,21.9563],[80.46482,21.95605],[80.46487,21.95597],[80.465,21.9558],[80.46513,21.95564],[80.4652,21.95555],[80.46538,21.95532],[80.4654,21.95529],[80.46563,21.95504],[80.46563,21.95504],[80.46587,21.95479],[80.46588,21.95478],[80.46613,21.95458],[80.46619,21.95454],[80.46639,21.95441],[80.46662,21.95429],[80.46664,21.95428]],[[80.46745,21.9563],[80.46739,21.95633],[80.46723,21.95655],[80.46719,21.95681],[80.46729,21.95706],[80.46739,21.95715],[80.46765,21.9573],[80.4679,21.9573],[80.46815,21.95715],[80.46823,21.95706],[80.46831,21.95681],[80.46827,21.95655],[80.46815,21.95638],[80.46805,21.9563],[80.4679,21.95622],[80.46765,21.95621],[80.46745,21.9563]],[[80.46487,21.95908],[80.46487,21.95908],[80.46462,21.95915],[80.46437,21.95927],[80.46426,21.95933],[80.46412,21.95941],[80.46387,21.95958],[80.46387,21.95959],[80.46361,21.95981],[80.46359,21.95983],[80.46338,21.96008],[80.46336,21.9601],[80.4632,21.96034],[80.46311,21.96048],[80.46304,21.96059],[80.4629,21.96084],[80.46286,21.96093],[80.46277,21.96109],[80.46267,21.96134],[80.46261,21.96152],[80.46258,21.9616],[80.46251,21.96185],[80.46246,21.9621],[80.46242,21.96235],[80.4624,21.96261],[80.46239,21.96286],[80.46238,21.96311],[80.4624,21.96336],[80.46243,21.96361],[80.46248,21.96387],[80.46255,21.96412],[80.46261,21.96426],[80.46266,21.96437],[80.46282,21.96462],[80.46286,21.96467],[80.46309,21.96487],[80.46311,21.96489],[80.46336,21.96503],[80.46361,21.96512],[80.46364,21.96513],[80.46387,21.9652],[80.46412,21.96525],[80.46437,21.96525],[80.46462,21.96521],[80.46486,21.96513],[80.46487,21.96512],[80.46513,21.965],[80.4653,21.96487],[80.46538,21.96481],[80.46558,21.96462],[80.46563,21.96457],[80.4658,21.96437],[80.46588,21.96426],[80.46599,21.96412],[80.46613,21.96388],[80.46614,21.96387],[80.46628,21.96361],[80.46639,21.96337],[80.46639,21.96336],[80.46648,21.96311],[80.46657,21.96286],[80.46664,21.96268],[80.46667,21.96261],[80.46676,21.96235],[80.46684,21.9621],[80.46689,21.9619],[80.4669,21.96185],[80.46695,21.9616],[80.46698,21.96134],[80.46698,21.96109],[80.46695,21.96084],[80.46689,21.96062],[80.46688,21.96059],[80.46678,21.96034],[80.46664,21.96008],[80.46664,21.96007],[80.46647,21.95983],[80.46639,21.95973],[80.46625,21.95958],[80.46613,21.95945],[80.46599,21.95933],[80.46588,21.95921],[80.46566,21.95908],[80.46563,21.95906],[80.46538,21.95901],[80.46513,21.95902],[80.46487,21.95908]]],[[[80.45681,21.95831],[80.45706,21.95829],[80.45713,21.95832],[80.45731,21.9584],[80.45745,21.95857],[80.45745,21.95882],[80.45731,21.95898],[80.45706,21.95905],[80.45681,21.95896],[80.45664,21.95882],[80.45657,21.95857],[80.45677,21.95832],[80.45681,21.95831]]]],"type":"MultiPolygon"},"properties":{"fill":"#3dbc74","fill-opacity":0.9,"stroke":"#3dbc74","stroke-opacity":1,"stroke-width":1,"title":"40.20-40.80 "},"type":"Feature"},{"geometry":{"coordinates":[[[[80.46765,21.95621],[80.4679,21.95622],[80.46805,21.9563],[80.46815,21.95638],[80.46827,21.95655],[80.46831,21.95681],[80.46823,21.95706],[80.46815,21.95715],[80.4679,21.9573],[80.46765,21.9573],[80.46739,21.95715],[80.46729,21.95706],[80.46719,21.95681],[80.46723,21.95655],[80.46739,21.95633],[80.46745,21.9563],[80.46765,21.95621]]],[[[80.46513,21.95902],[80.46538,21.95901],[80.46563,21.95906],[80.46566,21.95908],[80.46588,21.95921],[80.46599,21.95933],[80.46613,21.95945],[80.46625,21.95958],[80.46639,21.95973],[80.46647,21.95983],[80.46664,21.96007],[80.46664,21.96008],[80.46678,21.96034],[80.46688,21.96059],[80.46689,21.96062],[80.46695,21.96084],[80.46698,21.96109],[80.46698,21.96134],[80.46695,21.9616],[80.4669,21.96185],[80.46689,21.9619],[80.46684,21.9621],[80.46676,21.96235],[80.46667,21.96261],[80.46664,21.96268],[80.46657,21.96286],[80.46648,21.96311],[80.46639,21.96336],[80.46639,21.96337],[80.46628,21.96361],[80.46614,21.96387],[80.46613,21.96388],[80.46599,21.96412],[80.46588,21.96426],[80.4658,21.96437],[80.46563,21.96457],[80.46558,21.96462],[80.46538,21.96481],[80.4653,21.96487],[80.46513,21.965],[80.46487,21.96512],[80.46486,21.96513],[80.46462,21.96521],[80.46437,21.96525],[80.46412,21.96525],[80.46387,21.9652],[80.46364,21.96513],[80.46361,21.96512],[80.46336,21.96503],[80.46311,21.96489],[80.46309,21.96487],[80.46286,21.96467],[80.46282,21.96462],[80.46266,21.96437],[80.46261,21.96426],[80.46255,21.96412],[80.46248,21.96387],[80.46243,21.96361],[80.4624,21.96336],[80.46238,21.96311],[80.46239,21.96286],[80.4624,21.96261],[80.46242,21.96235],[80.46246,21.9621],[80.46251,21.96185],[80.46258,21.9616],[80.46261,21.96152],[80.46267,21.96134],[80.46277,21.96109],[80.46286,21.96093],[80.4629,21.96084],[80.46304,21.96059],[80.46311,21.96048],[80.4632,21.96034],[80.46336,21.9601],[80.46338,21.96008],[80.46359,21.95983],[80.46361,21.95981],[80.46387,21.95959],[80.46387,21.95958],[80.46412,21.95941],[80.46426,21.95933],[80.46437,21.95927],[80.46462,21.95915],[80.46487,21.95908],[80.46487,21.95908],[80.46513,21.95902]],[[80.46457,21.96059],[80.46437,21.96074],[80.46427,21.96084],[80.46412,21.96101],[80.46405,21.96109],[80.46387,21.96134],[80.46387,21.96134],[80.4637,21.9616],[80.46361,21.96173],[80.46355,21.96185],[80.46343,21.9621],[80.46336,21.96231],[80.46335,21.96235],[80.4633,21.96261],[80.46328,21.96286],[80.46328,21.96311],[80.46331,21.96336],[80.46336,21.96353],[80.46339,21.96361],[80.46351,21.96387],[80.46361,21.96399],[80.46373,21.96412],[80.46387,21.96422],[80.46412,21.96434],[80.46433,21.96437],[80.46437,21.96438],[80.46441,21.96437],[80.46462,21.96434],[80.46487,21.96422],[80.465,21.96412],[80.46513,21.96399],[80.46522,21.96387],[80.46537,21.96361],[80.46538,21.96359],[80.46548,21.96336],[80.46557,21.96311],[80.46563,21.96294],[80.46566,21.96286],[80.46574,21.96261],[80.46584,21.96235],[80.46588,21.96225],[80.46594,21.9621],[80.46603,21.96185],[80.46609,21.9616],[80.46611,21.96134],[80.46607,21.96109],[80.46596,21.96084],[80.46588,21.96073],[80.46573,21.96059],[80.46563,21.96051],[80.46538,21.96041],[80.46513,21.96039],[80.46487,21.96044],[80.46462,21.96055],[80.46457,21.96059]]]],"type":"MultiPolygon"},"properties":{"fill":"#84d44b","fill-opacity":0.9,"stroke":"#84d44b","stroke-opacity":1,"stroke-width":1,"title":"40.80-41.40 "},"type":"Feature"},{"geometry":{"coordinates":[[[[80.46462,21.96055],[80.46487,21.96044],[80.46513,21.96039],[80.46538,21.96041],[80.46563,21.96051],[80.46573,21.96059],[80.46588,21.96073],[80.46596,21.96084],[80.46607,21.96109],[80.46611,21.96134],[80.46609,21.9616],[80.46603,21.96185],[80.46594,21.9621],[80.46588,21.96225],[80.46584,21.96235],[80.46574,21.96261],[80.46566,21.96286],[80.46563,21.96294],[80.46557,21.96311],[80.46548,21.96336],[80.46538,21.96359],[80.46537,21.96361],[80.46522,21.96387],[80.46513,21.96399],[80.465,21.96412],[80.46487,21.96422],[80.46462,21.96434],[80.46441,21.96437],[80.46437,21.96438],[80.46433,21.96437],[80.46412,21.96434],[80.46387,21.96422],[80.46373,21.96412],[80.46361,21.96399],[80.46351,21.96387],[80.46339,21.96361],[80.46336,21.96353],[80.46331,21.96336],[80.46328,21.96311],[80.46328,21.96286],[80.4633,21.96261],[80.46335,21.96235],[80.46336,21.96231],[80.46343,21.9621],[80.46355,21.96185],[80.46361,21.96173],[80.4637,21.9616],[80.46387,21.96134],[80.46387,21.96134],[80.46405,21.96109],[80.46412,21.96101],[80.46427,21.96084],[80.46437,21.96074],[80.46457,21.96059],[80.46462,21.96055]]]],"type":"MultiPolygon"},"properties":{"fill":"#d8e219","fill-opacity":0.9,"stroke":"#d8e219","stroke-opacity":1,"stroke-width":1,"title":"41.40-42.00 "},"type":"Feature"}],"type":"FeatureCollection"}